Id;Name;Address;Location;Province;Zip_Code;Items;Weight;Node_Type;TW_Start;TW_End;Latitude;Longitude;Email;Phone
0;Depot;C. Tajo, s/n;Villaviciosa de Odon;MADRID;28670;0;0,0;Depot;00:00;00:00;40,37387062578713;-3,919575039549291;;
1;RED DE SALUD MENTAL DE ARABA (HOSPITAL PSIQUIÁTRICO DE ARABA);ÁLAVA, 43;Vitoria-Gasteiz;ÁLAVA;1006;207;24955,92;PSIQUIÁTRICO;03:00;23:59;42,8356562870001;-2,67861197099995;SECRETARIA.GERENCIA@osakidetza.eus;945006555
2;HOSPITAL SAN JOSÉ;BEATO TOMÁS DE ZUMÁRRAGA, 10;Vitoria-Gasteiz;ÁLAVA;1008;63;7595,28;MÉDICO-QUIRÚRGICO;03:00;23:59;42,8496614530001;-2,67664049999996;diazdecorcueram@vithas.es;945140900
3;HOSPITAL QUIRÓNSALUD VITORIA;ESPERANZA, 3;Vitoria-Gasteiz;ÁLAVA;1002;26;3134,56;GENERAL;03:00;23:59;42,84976126;-2,66803516399995;josecarlos.mellado@quironsalud.es;945252500
4;HOSPITAL DE CUIDADOS SAN ONOFRE, S.L. (HOSPITAL DE CUIDADOS SAN ONOFRE);SALVATIERRABIDE, 9;Vitoria-Gasteiz;ÁLAVA;1007;82;9885,92;GERIATRÍA Y/O LARGA ESTANCIA;03:00;23:59;42,837581582;-2,68038623299998;info@hospitalsanonofre.com;945142100
5;HOSPITAL DE LEZA;CTRA. VITORIA - LOGROÑO, KM. 59;Laguardia;ÁLAVA;1309;63;7595,28;GENERAL;03:00;23:59;42,5759894380001;-2,63863544199995;hospital.leza@osakidetza.eus;945006900
6;HOSPITAL UNIVERSITARIO DE ARABA (SEDE TXAGORRITXU Y SEDE SANTIAGO);JOSÉ ATXOTEGUI, S/N;Vitoria-Gasteiz;ÁLAVA;1009;811;97774,16;GENERAL;03:00;23:59;42,8549897730001;-2,69020705599996;;945007000
7;COMPLEJO HOSPITALARIO UNIVERSITARIO DE ALBACETE;HERMANOS FALCÓ, 37;Albacete;ALBACETE;2006;705;84994,8;GENERAL;03:00;23:59;38,985256377;-1,84655696499993;;967597100
8;CLÍNICA SANTA CRISTINA ALBACETE;PÉREZ GALDÓS, 7;Albacete;ALBACETE;2003;42;5063,52;GENERAL;03:00;23:59;38,9897934000001;-1,85770989599996;svillanueva@clinicasantacristina.es;967223300
9;HOSPITAL DE HELLÍN;JUAN RAMÓN JIMÉNEZ, 40;Hellín;ALBACETE;2400;135;16275,6;GENERAL;03:00;23:59;38,504304817;-1,68918989199994;gai.hellin@sescam.jccm.es;967309500
10;QUIRONSALUD HOSPITAL ALBACETE;PLAZA DEL MADROÑO, 11;Albacete;ALBACETE;2008;65;7836,4;GENERAL;03:00;23:59;38,985418844;-1,84400678299994;albacete@quironsalud.es;967247100
11;HOSPITAL GENERAL DE ALMANSA;AVDA. ADOLFO SUÁREZ, S/N;Almansa;ALBACETE;2640;93;11212,08;GENERAL;03:00;23:59;38,8794026050001;-1,09390853199994;gai.almansa@sescam.jccm.es;967339526
12;HOSPITAL GENERAL DE VILLAROBLEDO;AVENIDA MIGUEL DE CERVANTES, S/N;Villarrobledo;ALBACETE;2600;114;13743,84;GENERAL;03:00;23:59;39,2800841100001;-2,60269739799998;;967133000
13;HOSPITAL GENERAL UNIVERSITARIO DE ALICANTE;AVENIDA PINTOR BAEZA, 12;Alicante/Alacant;ALICANTE;3010;794;95724,64;GENERAL;03:00;23:59;38,363363964;-0,48593452199998;mena_lui@gva.es;965933000
14;CLÍNICA VISTAHERMOSA GRUPO HLA;AVENIDA DENIA, 103;Alicante/Alacant;ALICANTE;3015;106;12779,36;GENERAL;03:00;23:59;38,3628653640001;-0,463124377999975;katja.smudde@grupohla.com;965268000
15;VITHAS HOSPITAL PERPETUO INTERNACIONAL;PLAZA DOCTOR GÓMEZ ULLA, 15;Alicante/Alacant;ALICANTE;3013;103;12417,68;GENERAL;03:00;23:59;38,352893867;-0,476504659999932;perpetuosocorro@perpetuosocorro.nehos.com;965201100
16;HOSPITAL VIRGEN DE LOS LIRIOS;POLÍGONO CARAMAXEL, S/N;Alcoy/Alcoi;ALICANTE;3804;305;36770,8;GENERAL;03:00;23:59;38,7051247730001;-0,465683971999965;falip_ros@gva.es;965537400
17;SANATORIO SAN JORGE S.L.;CALLE OLIVER, 55;Alcoy/Alcoi;ALICANTE;3802;26;3134,56;GENERAL;03:00;23:59;38,6929737350001;-0,486100178999948;administracion@sanatoriosanjorge.com;965330400
18;HOSPITAL CLÍNICA BENIDORM;AVENIDA ALFONSO PUCHADES, 8;Benidorm;ALICANTE;3501;166;20012,96;GENERAL;03:00;23:59;38,5426678680001;-0,127031808999959;hospital@clinicabenidorm.com;965853850
19;HOSPITAL SAN CARLOS DE DENIA GRUPO HLA;PARTIDA MADRIGUERES SUD, 8;Dénia;ALICANTE;3700;31;3737,36;GENERAL;03:00;23:59;38,8373052420001;0,0934203180000281;pedro.esteban@grupohla.com;965781550
20;HOSPITAL GENERAL UNIVERSITARIO DE ELCHE;CAMÍ ALMAZARA, 11;Elche/Elx;ALICANTE;3203;492;59315,52;GENERAL;03:00;23:59;38,2600928200001;-0,685241062999978;secgerencia_elx@gva.es;966616900
21;HOSPITAL GENERAL UNIVERSITARIO DE ELDA-VIRGEN DE LA SALUD;CARRETERA SAX, S/N;Elda;ALICANTE;3600;513;61847,28;GENERAL;03:00;23:59;38,4935283360001;-0,805971980999971;izquierdo_alf@gva.es;966989000
22;HOSPITAL SANT VICENT DEL RASPEIG;CALLE LILLO JUAN, 137;San Vicente del Raspeig/Sant Vicent del Raspeig;ALICANTE;3690;179;21580,24;GERIATRÍA Y/O LARGA ESTANCIA;03:00;23:59;38,403364943;-0,530502672999944;hospitalsanvicente@gva.es;965907700
23;SANATORIO SAN FRANCISCO DE BORJA FONTILLES;CARRETERA ORBA-VALL DE LAGUAR, KM 4;Vall de Laguar, la;ALICANTE;3791;96;11573,76;GERIATRÍA Y/O LARGA ESTANCIA;03:00;23:59;38,771915;-0,136456657999929;fontilles@fontilles.org;965583350
24;HOSPITAL MARINA BAIXA DE LA VILA JOIOSA;AVENIDA ALCALDE EN JAUME BOTELLA MAYOR, 7;Villajoyosa/Vila Joiosa, la;ALICANTE;3570;286;34480,16;GENERAL;03:00;23:59;38,5301280640001;-0,198289258999978;louis_ros@gva.es;966859800
25;HOSPITAL VEGA BAJA DE ORIHUELA;CARRETERA ORIHUELA - ALMORADÍ, S/N;Orihuela;ALICANTE;3314;361;43522,16;GENERAL;03:00;23:59;38,0882077110001;-0,853941504999966;;966749000
26;HOSPITAL INTERNACIONAL MEDIMAR, S.A.;AVENIDA DENIA, 78;Alicante/Alacant;ALICANTE;3016;66;7956,96;GENERAL;03:00;23:59;38,3714722340001;-0,456596158999957;info@hospitalmedimar.com;965162200
27;HOSPITAL PSIQUIÁTRICO PENITENCIARIO DE FONTCALENT;COMPLEJO CENTRO PENITENCIARIO FONTCALENT, 1;Alicante/Alacant;ALICANTE;3113;432;52081,92;PSIQUIÁTRICO;03:00;23:59;38,3343175000001;-0,602231920999941;director.alicantep@dgip.mir.es;965102222
28;HOSPITAL UNIVERSITARIO SAN JUAN DE ALICANTE;CARRETERA NACIONAL 332, ALICANTE-VALENCIA, S/N;Sant Joan d'Alacant;ALICANTE;3550;396;47741,76;GENERAL;03:00;23:59;38,4062900000001;-0,430915316999972;fernandez_asu@gva.es;965169400
29;CENTRO MÉDICO ACUARIO;AVENIDA DEL VERGEL, 11;Beniarbeig;ALICANTE;3778;19;2290,64;GENERAL;03:00;23:59;38,8265884460001;0,0022818520000669;acuario@acuario.org;966476260
30;HOSPÌTAL QUIRONSALUD TORREVIEJA;PARTIDA DE LA LOMA, S/N;Torrevieja;ALICANTE;3184;132;15913,92;GENERAL;03:00;23:59;37,9963845;-0,68721974999994;antonio.domenech@quironsalud.es;966921313
31;HOSPITAL IMED LEVANTE;CALLE DR SANTIAGO RAMÓN Y CAJAL, 7;Alicante/Alacant;ALICANTE;3503;100;12056,0;GENERAL;03:00;23:59;38,5424209220001;-0,105182876999947;info@hospitaldelevante.com;966878787
32;HOSPITAL UNIVERSITARIO DE TORREVIEJA;CARRETERA CV95 SAN MIGUEL DE SALINAS-TORREVIEJA PARTIDA LA CEÑUELA, S/N;Torrevieja;ALICANTE;3186;269;32430,64;GENERAL;03:00;23:59;37,96333845;-0,715745823999953;jdzafrilla@torrevieja-salud.com;965721200
33;HOSPITAL DE DENIA;PARTIDA BENIADLÀ, S/N;Dénia;ALICANTE;3700;266;32068,96;GENERAL;03:00;23:59;38,834226416;0,059298138000031;gerencia@marinasalud.es;966429000
34;HOSPITAL LA PEDRERA;PARTIDA PLANA D'EST, 4;Dénia;ALICANTE;3700;107;12899,92;GERIATRÍA Y/O LARGA ESTANCIA;03:00;23:59;38,8280655520001;0,0962855270000205;direccion_hlapedrera@gva.es;966467170
35;CENTRO DE REHABILITACIÓN NEUROLÓGICA CASAVERDE;CALLE PONENT, 15;Mutxamel;ALICANTE;3110;40;4822,4;REHABILITACIÓN PSICOFÍSICA;03:00;23:59;38,4205918150001;-0,469911158999935;recepcion.muchamiel@grupocasaverde.com;965950711
36;HOSPITAL UNIVERSITARIO VINALOPO;TONICO SANSANO MORA, 14;Elche/Elx;ALICANTE;3293;214;25799,84;GENERAL;03:00;23:59;38,25534043;-0,716007419999926;narques@vinaloposalud.com;966679800
37;HOSPITAL IMED ELCHE;CALLE MAX PLANCK, S/N;Elche/Elx;ALICANTE;3203;98;11814,88;GENERAL;03:00;23:59;38,2872604250001;-0,619072321999965;oaparisi@imedhospitales.com;966915151
38;HOSPITAL VIRGEN DEL MAR;CARRETERA DEL MAMÍ, KM.1;Almería;ALMERÍA;4009;76;9162,56;GENERAL;03:00;23:59;36,846256694;-2,44158688699997;virgendelmar@vithas.es;950210100
39;HOSPITAL LA INMACULADA;AVDA. DRA. ANA PARRA, S/N;Huércal-Overa;ALMERÍA;4600;184;22183,04;GENERAL;03:00;23:59;37,4010425220001;-1,94182956099996;h.inmaculada.sspa@juntadeandalucia.es;950029176
40;HOSPITAL UNIVERSITARIO TORRECÁRDENAS;PARAJE DE TORRECÁRDENAS, S/N;Almería;ALMERÍA;4009;763;91987,28;GENERAL;03:00;23:59;36,862522305;-2,44676488199997;;950016114
41;HOSPITAL MEDITERRÁNEO;NUEVA MUSA, S/N;Almería;ALMERÍA;4007;89;10729,84;GENERAL;03:00;23:59;36,820818758;-2,43622418699994;jarojas@asisa.es;950621063
42;HOSPITAL DE PONIENTE;CRTA. DE ALMERIMAR, S/N;Ejido, El;ALMERÍA;4700;273;32912,88;GENERAL;03:00;23:59;36,753204591;-2,80315336199993;sugerencias@ephpo.es;950022568
43;HOSPITAL DE ALTA RESOLUCIÓN EL TOYO;CAMINO DE LA BOTICA S/N. RETAMAR;Almería;ALMERÍA;4131;44;5304,64;GENERAL;03:00;23:59;36,8507955330001;-2,31270496099995;sugerencias@ephpo.es;950158015
44;CLÍNICA SANTA TERESA;AV. SANTA CRUZ DE TENERIFE, 11;Ávila;ÁVILA;5005;33;3978,48;GENERAL;03:00;23:59;40,659390253;-4,68613007899995;direccion@clinicasantateresa.es;920252525
45;COMPLEJO ASISTENCIAL DE AVILA;AVDA. JUAN CARLOS I, S/N;Ávila;ÁVILA;5071;430;51840,8;GENERAL;03:00;23:59;40,670384359;-4,65236210299997;gerente.hnss@saludcastillayleon.es;920358000
46;HOSPITAL DE SALUD MENTAL CASTA SALUD ARÉVALO;PASEO SAN JUAN BOSCO, 2;Arévalo;ÁVILA;5200;80;9644,8;PSIQUIÁTRICO;03:00;23:59;41,0448778470001;-4,71677207999994;direccionarevalo@castasalud.com;920301400
47;COMPLEJO HOSPITALARIO UNIVERSITARIO DE BADAJOZ;AVDA. DE ELVAS, S/N;Badajoz;BADAJOZ;6080;915;110312,4;GENERAL;03:00;23:59;38,8815659730001;-7,01404083799997;admision.hifc@salud-juntaex.es;924218100
48;"HOSPITAL ""FUNDACIÓN SAN JUAN DE DIOS DE EXTREMADURA""";PASEO DE LA PIEDAD, 5;Almendralejo;BADAJOZ;6200;105;12658,8;GERIATRÍA Y/O LARGA ESTANCIA;03:00;23:59;38,6805420000001;-6,40527299999997;almendralejosjd.es;924670017
49;CENTRO SOCIOSANITARIO DE MÉRIDA;CTRA. VALVERDE-MÉRIDA, KM. 2;Mérida;BADAJOZ;6800;270;32551,2;PSIQUIÁTRICO;03:00;23:59;38,9225207170001;-6,30998002999996;csanitario.merida@gobex.es;924388081
50;HOSPITAL QUIRÓNSALUD SANTA JUSTA;CONCEPCIÓN, 24;Villanueva de la Serena;BADAJOZ;6700;29;3496,24;QUIRÚRGICO;03:00;23:59;38,9733629360001;-5,79537839099993;serena@quironsalud.es;924840746
51;HOSPITAL QUIRONSALUD CLIDEBA;ELADIO SALINERO DE LOS SANTOS, 6;Badajoz;BADAJOZ;6011;73;8800,88;GENERAL;03:00;23:59;38,871242298;-6,99052779699997;clideba@quironsalud.es;924229050
52;HOSPITAL PARQUE VIA DE LA PLATA;CTRA. DE LOS SANTOS, S/N;Zafra;BADAJOZ;6300;9;1085,04;GENERAL;03:00;23:59;38,42472244;-6,41131180099995;dadministracion.ext@parquehospitales.es;924552755
53;COMPLEJO HOSPITALARIO LLERENA-ZAFRA;AVDA. BADAJOZ, 1;Llerena;BADAJOZ;6900;227;27367,12;GENERAL;03:00;23:59;38,2435983080001;-6,01289591399996;gerente.llerena@salud-juntaex.es;924877000
54;COMPLEJO H. DON BENITO-VVA DE LA SERENA;AVDA. ALONSO MARTÍN, 8;Don Benito;BADAJOZ;6400;320;38579,2;GENERAL;03:00;23:59;38,9631435920001;-5,82737233199992;gerente.donbenito@salud-juntaex.es;924382800
55;COMPLEJO HOSPITALARIO DEL ÁREA DE SALUD DE MÉRIDA;AVDA. ANTONIO CAMPOS HOYOS, Nº 26;Mérida;BADAJOZ;6800;381;45933,36;GENERAL;03:00;23:59;38,912498989;-6,35905260999994;julian.garciam@salud-juntaex.es;924381000
56;CASAVERDE. CENTRO DE REHABILITACIÓN NEUROLÓGICO DE EXTREMADURA;AVDA. ADOLFO SUÁREZ GONZÁLEZ, 56;Mérida;BADAJOZ;6800;100;12056,0;REHABILITACIÓN PSICOFÍSICA;03:00;23:59;38,910846694;-6,37170538399994;direccion.merida@grupocasaverde.com;924380330
57;CLÍNICA EXTREMEÑA DE SALUD;FEDERICO MAYOR ZARAGOZA S/N;Badajoz;BADAJOZ;6006;20;2411,2;GENERAL;03:00;23:59;38,890250571;-6,99887138699995;;924211818
58;HOSPITAL PARQUE VEGAS ALTAS;AVDA. MADRID 12;Don Benito;BADAJOZ;6400;21;2531,76;GENERAL;03:00;23:59;38,963340514;-5,85651091899996;dadministracion.ext@parquehospitales.es;924805050
59;HOSPITAL CLÍNIC DE BARCELONA, SEU SABINO DE ARANA;CR SABINO DE ARANA, 1;Barcelona;BARCELONA;8028;130;15672,8;MATERNO-INFANTIL;03:00;23:59;41,385470302;2,12662840300004;asalgot@medicina.ub.es;932275600
60;HOSPITAL DEL MAR.;PS MARÍTIM DE LA BARCELONETA, 25;Barcelona;BARCELONA;8003;470;56663,2;GENERAL;03:00;23:59;41,3833545360001;2,19475872400005;jvarela@imas.imim.es;932483000
61;HOSPITAL DE L'ESPERANÇA.;AV SANT JOSEP DE LA MUNTANYA, 12;Barcelona;BARCELONA;8024;161;19410,16;GENERAL;03:00;23:59;41,4109659390001;2,15434853400006;jvalera@imas.imim.es;933674100
62;HOSPITAL CLÍNIC DE BARCELONA;CR VILLARROEL, 170;Barcelona;BARCELONA;8036;844;101752,64;GENERAL;03:00;23:59;41,389418117;2,15150438000006;asalgot@medicina.ub.es;932275400
63;HOSPITAL FREMAP BARCELONA;CR MADRAZO, 8;Barcelona;BARCELONA;8006;62;7474,72;GENERAL;03:00;23:59;41,401397074;2,15046879600004;admision_barcelona@fremap.es;934169100
64;CENTRE DE PREVENCIÓ I REHABILITACIÓ ASEPEYO;AV ALCALDE BARNILS, 54-60;Sant Cugat del Vallès;BARCELONA;8174;138;16637,28;GENERAL;03:00;23:59;41,491741846;2,07632056200003;asepeyo@asepeyo.es;935653900
65;CLÍNICA MC COPÈRNIC;CR COPÈRNIC, 58;Barcelona;BARCELONA;8006;60;7233,6;GENERAL;03:00;23:59;41,4011298300001;2,14118014100006;info@mc-mutual.com;934141992
66;CLÍNICA MC LONDRES;CR LONDRES, 28-38;Barcelona;BARCELONA;8029;22;2652,32;GENERAL;03:00;23:59;41,3892897910001;2,14527532900007;info@mc-mutual.com;934577200
67;HOSPITAL EGARSAT SANT HONORAT;AV TIBIDABO, 20;Barcelona;BARCELONA;8022;14;1687,84;GENERAL;03:00;23:59;41,4122081890001;2,13609127700005;egarsat@egarsat.es;932127000
68;HOSPITAL DOS DE MAIG;CR DOS DE MAIG, 301;Barcelona;BARCELONA;8025;229;27608,24;GENERAL;03:00;23:59;41,410727707;2,17709880600006;gerencia.bcn@consorcicreuroja.es;935072700
69;HOSPITAL EL PILAR;CR BALMES, 271;Barcelona;BARCELONA;8006;186;22424,16;GENERAL;03:00;23:59;41,400491951;2,14852929600005;silvia.altisen@quironsalud.es;932360500
70;HOSPITAL SANT RAFAEL;PS VALL D'HEBRON, 107;Barcelona;BARCELONA;8035;213;25679,28;GENERAL;03:00;23:59;41,425661242;2,14243667300002;hsrafael@comb.es;932112508
71;CLÍNICA NOSTRA SENYORA DEL REMEI;CR ESCORIAL, 148;Barcelona;BARCELONA;8024;134;16155,04;GENERAL;03:00;23:59;41,409541006;2,15929057100004;clinica.remedio@irsjg.org;932850010
72;CLÍNICA SAGRADA FAMÍLIA;CR TORRAS  I  PUJALT, 1;Barcelona;BARCELONA;8022;150;18084,0;GENERAL;03:00;23:59;41,400656612;2,13479069100003;info@clinicasagradafamilia.com;932122300
73;HOSPITAL MARE DE DÉU DE LA MERCÈ;PS UNIVERSAL, 34;Barcelona;BARCELONA;8042;113;13623,28;PSIQUIÁTRICO;03:00;23:59;41,43757808;2,16159396400008;administracion@hhscjmerced.com;934275250
74;CLÍNICA  SOLARIUM;CR TICIÀ ., 21;Barcelona;BARCELONA;8035;44;5304,64;GERIATRÍA Y/O LARGA ESTANCIA;03:00;23:59;41,417287984;2,13810024500003;;934172007
75;HOSPITAL DE LA SANTA CREU I SANT PAU;CR SANT QUINTÍ, 89;Barcelona;BARCELONA;8041;644;77640,64;GENERAL;03:00;23:59;41,415131882;2,17587942700004;gerenciafgs@santpau.cat;935537160
76;NOU HOSPITAL EVANGÈLIC;CR CAMÈLIES, 15;Barcelona;BARCELONA;8024;116;13984,96;GERIATRÍA Y/O LARGA ESTANCIA;03:00;23:59;41,4110174670001;2,15893362600002;ablanco@nouhospitalevangelic.com;932859955
77;HOSPITAL DE NENS DE BARCELONA;CR CONSELL  DE  CENT, 437;Barcelona;BARCELONA;8009;18;2170,08;INFANTIL;03:00;23:59;41,3973090420001;2,17392121900002;informacó@hospitaldenens.com;932310512
78;INSTITUT GUTTMANN;CM CAN RUTI, S/N;Badalona;BARCELONA;8916;152;18325,12;TRAUMATOLOGÍA Y/O REHABILITACIÓN;03:00;23:59;41,480006449;2,23954200000003;gerencia@guttmann.com;934977700
79;FUNDACIÓ PUIGVERT - IUNA;CR CARTAGENA ., 340;Barcelona;BARCELONA;8025;124;14949,44;OTROS MONOGRÁFICOS;03:00;23:59;41,4124119320001;2,17277744800003;dirgeneral@fundacio-puigvert.es;934169700
80;HESTIA PALAU.;CR SANT ANTONI MARIA CLARET ,, 135;Barcelona;BARCELONA;8025;317;38217,52;GERIATRÍA Y/O LARGA ESTANCIA;03:00;23:59;41,410048085;2,17257820800006;secretaria@csspalau.com;934501819
81;HOSPITAL UNIVERSITARI SAGRAT COR;CR VILADOMAT, 288;Barcelona;BARCELONA;8029;367;44245,52;GENERAL;03:00;23:59;41,3887331;2,14536417100004;gerencia@hscor.com;933221111
82;CLÍNICA CORACHAN;CR BUÏGAS, 19;Barcelona;BARCELONA;8017;162;19530,72;GENERAL;03:00;23:59;41,39347961;2,13072146500002;tlegido@corachan.com;932545800
83;CLÍNICA TRES TORRES;CR DOCTOR ROUX, 76;Barcelona;BARCELONA;8017;64;7715,84;GENERAL;03:00;23:59;41,3991997860001;2,12880084000005;info@clinicatrestorres.com;932041300
84;HOSPITAL QUIRÓNSALUD BARCELONA;PL ALFONS COMÍN, 5-7;Barcelona;BARCELONA;8023;192;23147,52;GENERAL;03:00;23:59;41,4145485000001;2,13752700000003;direccion.cqb@quiron.es;932850000
85;CENTRE  MÈDIC  DELFOS;AV VALLCARCA ., 151;Barcelona;BARCELONA;8023;264;31827,84;GENERAL;03:00;23:59;41,4141030000001;2,14301040000004;comunicació@delfos.cat;932545000
86;CENTRE MÈDIC SANT JORDI DE SANT ANDREU;PL ESTACIÓ, 12;Barcelona;BARCELONA;8030;57;6871,92;GENERAL;03:00;23:59;41,436230154;2,19294166200007;clinicasantjordi@csantjordi.com;933451604
87;HOSPITAL PLATÓ;CR PLATÓ, 21;Barcelona;BARCELONA;8006;168;20254,08;GENERAL;03:00;23:59;41,4008869140001;2,14256009500002;hospital@hospitalplato.com;933069900
88;HOSPITAL UNIVERSITARI QUIRÓN DEXEUS;CR SABINO DE  ARANA, 5-19;Barcelona;BARCELONA;8028;170;20495,2;GENERAL;03:00;23:59;41,385281386;2,12607604500005;informacion@idexeus.es;932274747
89;CENTRO MÉDICO TEKNON,  GRUPO QUIRONSALUD;CR VILANA, 12;Barcelona;BARCELONA;8022;285;34359,6;GENERAL;03:00;23:59;41,4054552050001;2,12840858500005;dirgeneral.tkn@quironsalud.es;932906242
90;HOSPITAL  DE  BARCELONA;AV DIAGONAL ., 660;Barcelona;BARCELONA;8034;350;42196,0;GENERAL;03:00;23:59;41,389393012;2,12990314100006;virginia@scias.com;932542400
91;CENTRE HOSPITALARI POLICLÍNICA BARCELONA;CR GUILLEM TELL, 4;Barcelona;BARCELONA;8006;28;3375,68;GENERAL;03:00;23:59;41,403252552;2,14962291100005;gerencia@policlinicabarcelona.com;934161616
92;CENTRE D'OFTALMOLOGIA BARRAQUER;CR MUNTANER, 314;Barcelona;BARCELONA;8021;70;8439,2;OFTÁLMICO U ORL;03:00;23:59;41,3969703000001;2,14584525200007;info@barraquer.com;932095311
93;HESTIA DURAN I REYNALS;AV GRAN  VIA, 203;Hospitalet de Llobregat, L';BARCELONA;8908;428;51599,68;GERIATRÍA Y/O LARGA ESTANCIA;03:00;23:59;41,349815;2,12593938400005;direccio@fssbcn.org;934170400
94;SERVEIS CLÍNICS, S.A.;CR GARCIA MARIÑO, 4;Barcelona;BARCELONA;8022;50;6028,0;GERIATRÍA Y/O LARGA ESTANCIA;03:00;23:59;41,4124619830001;2,13609010100004;administracion@serviciosclinicos.com;934174602
95;CLÍNICA COROLEU - SSR HESTIA.;CR COROLEU, 50;Barcelona;BARCELONA;8030;74;8921,44;PSIQUIÁTRICO;03:00;23:59;41,4329652920001;2,18700268200007;rosa.pujol@hestiaalliance.org;931165500
96;CLÍNICA PLANAS;CR PERE II DE MONTCADA, 16;Barcelona;BARCELONA;8034;26;3134,56;QUIRÚRGICO;03:00;23:59;41,3993151830001;2,11561227800007;doctor@clinica-planas.com;932032812
97;HOSPITAL UNIVERSITARI GERMANS TRIAS I PUJOL DE BADALONA;CR CANYET, S/N;Badalona;BARCELONA;8916;516;62208,96;GENERAL;03:00;23:59;41,48129521;2,23781606400007;gerencia.germanstrias@gencat.net;934651200
98;HOSPITAL MUNICIPAL DE BADALONA;VI AUGUSTA,, 9;Badalona;BARCELONA;8911;140;16878,4;GENERAL;03:00;23:59;41,4506170160001;2,24588857700007;gerenciabsa@bsa.cat;934648300
99;CENTRE SOCIOSANITARI EL CARME;CM SANT JERONI DE LA MURTRA,, 60;Badalona;BARCELONA;8917;210;25317,6;GERIATRÍA Y/O LARGA ESTANCIA;03:00;23:59;41,4586066680001;2,23077505500004;gerenciabsa@bsa.cat;935074710
100;HOSPITAL COMARCAL DE SANT BERNABÉ;CT DE RIBES, S/N;Berga;BARCELONA;8600;150;18084,0;GENERAL;03:00;23:59;42,1060333680001;1,85237391300006;hsb@hsb.es;938243400
101;HOSPITAL COMARCAL SANT JAUME DE CALELLA;CR SANT JAUME, 209-217;Calella;BARCELONA;8370;233;28090,48;GENERAL;03:00;23:59;41,6186895120001;2,66391125800004;nconstans@salutms.cat;937690201
102;HOSPITAL DE SANT JOAN DE DÉU.;CR SANT JOAN DE DÉU, 2;Esplugues de Llobregat;BARCELONA;8950;401;48344,56;MATERNO-INFANTIL;03:00;23:59;41,38367442;2,10140640500003;mcastillo@hsjdbcn.org;932804000
103;CLÍNICA NOSTRA SENYORA DE GUADALUPE;CR FRANCESC MORAGAS, 2;Esplugues de Llobregat;BARCELONA;8950;159;19169,04;GERIATRÍA Y/O LARGA ESTANCIA;03:00;23:59;41,373078257;2,08362293700003;chcasas@clinicansguadalupe.com;934702970
104;HOSPITAL GENERAL DE GRANOLLERS.;AV FRANCESC RIBAS, 1;Granollers;BARCELONA;8402;306;36891,36;GENERAL;03:00;23:59;41,6137096350001;2,29051813500007;direcciogeneral@fhag.es;938425000
105;HOSPITAL UNIVERSITARI DE BELLVITGE;CR FEIXA LLARGA, S/N;Hospitalet de Llobregat, L';BARCELONA;8907;1022;123212,32;GENERAL;03:00;23:59;41,3452961140001;2,10479129700002;ger@csub.scs.es;933357011
106;HOSPITAL GENERAL DE L'HOSPITALET;AV JOSEP MOLINS,, 29;Hospitalet de Llobregat, L';BARCELONA;8906;89;10729,84;GENERAL;03:00;23:59;41,3744617090001;2,10651489500003;direccio.assistencial@sanitatintegral.or;934407500
107;FUNDACIÓ SANITÀRIA SANT JOSEP;CR CARME  VERDAGUER, 56;Igualada;BARCELONA;8700;145;17481,2;GERIATRÍA Y/O LARGA ESTANCIA;03:00;23:59;41,5826139390001;1,61911729800005;info@fssj.es;938032650
108;HOSPITAL  DE  SANT  JAUME;CT D'OLOT, 7;Manlleu;BARCELONA;8560;90;10850,4;GERIATRÍA Y/O LARGA ESTANCIA;03:00;23:59;42,0013364000001;2,28675692400003;gerencia@hospitalmanlleu.com;938506565
109;CLÍNICA SANT JOSEP;CR CAPUTXINS, 16;Manresa;BARCELONA;8241;95;11453,2;GENERAL;03:00;23:59;41,7227429650001;1,83182895000004;clinicasantjosep@althaia.cat / cimetir@a;938744050
110;CENTRE HOSPITALARI.;AV BASES DE MANRESA, 6-8;Manresa;BARCELONA;8242;309;37253,04;GENERAL;03:00;23:59;41,7351428740001;1,82468379500006;chucm@chucm.org;938732550
111;HOSPITAL DE SANT JOAN DE DÉU (MANRESA);CR DOCTOR  JOAN  SOLER, 1-3;Manresa;BARCELONA;8243;280;33756,8;GENERAL;03:00;23:59;41,720115938;1,83915065600007;hosp.g.man@hgm.scs.es;938732550
112;HOSPITAL DE SANT ANDREU;CR REMEI DE DALT, 3;Manresa;BARCELONA;8241;191;23026,96;GERIATRÍA Y/O LARGA ESTANCIA;03:00;23:59;41,725701481;1,82995241900005;;938743312
113;GERMANES HOSPITALÀRIES. HOSPITAL SAGRAT COR;AV COMTE DE LLOBREGAT, 117;Martorell;BARCELONA;8760;488;58833,28;PSIQUIÁTRICO;03:00;23:59;41,4907317620001;1,91287510400002;scormart@comb.es;937752200
114;FUNDACIÓ HOSPITAL SANT JOAN DE DÉU;AV MANCOMUNITATS COMARCALS, 1;Martorell;BARCELONA;8760;112;13502,72;GENERAL;03:00;23:59;41,4720640720001;1,92072562900006;gerencia@hmartorell.es;937742020
115;CENTRE MÈDIC MOLINS, SL;PS DEL TERRAPLÈ, 97;Molins de Rei;BARCELONA;8750;177;21339,12;GERIATRÍA Y/O LARGA ESTANCIA;03:00;23:59;41,41804038;2,01092833300004;lluisplanas@clinicademolinsderei.com;936680004
116;HOSPITAL DE MOLLET;RD PINETONS, 6-8;Mollet del Vallès;BARCELONA;8100;164;19771,84;GENERAL;03:00;23:59;41,543718303;2,20246175900007;hmolldir@ctv.es;935760300
117;HOSPITAL DE SABADELL;CR PROLONGACIÓ TAULÍ, S/N;Sabadell;BARCELONA;8208;861;103802,16;GENERAL;03:00;23:59;41,5533268560001;2,11074609700006;direcciogeneral@cspt.es;937231010
118;BENITO MENNI,COMPLEX ASSISTENCIAL EN SALUT MENTAL.;CR DR. ANTONI PUJADAS, 38;Sant Boi de Llobregat;BARCELONA;8830;774;93313,44;PSIQUIÁTRICO;03:00;23:59;41,3499151890001;2,03829569300007;hospital@hsc-bmennibcn.org;936402400
119;PARC SANITARI SANT JOAN DE DÉU - RECINTE SANT BOI.;CR DR. ANTONI PUJADAS, 42;Sant Boi de Llobregat;BARCELONA;8830;1065;128396,4;GENERAL;03:00;23:59;41,349976633;2,03818852800003;mvalencia@pssjd.org;936406350
120;PARC SANITARI SANT JOAN DE DÉU - HOSPITAL GENERAL;CR CAMÍ VELL DE LA COLÒNIA, 25;Sant Boi de Llobregat;BARCELONA;8830;246;29657,76;GENERAL;03:00;23:59;41,3563472160001;2,03052222500003;hsantboi@hsantboi.es;936615208
121;HOSPITAL DE SANT CELONI.;AV DE L'HOSPITAL, 19;Sant Celoni;BARCELONA;8470;100;12056,0;GENERAL;03:00;23:59;41,6876394860001;2,48632366400005;secretaria@hsceloni.es;938670617
122;HOSPITAL UNIVERSITARI GENERAL DE CATALUNYA;CR PEDRO I PONS, 1;Sant Cugat del Vallès;BARCELONA;8195;286;34480,16;GENERAL;03:00;23:59;41,4687280090001;2,03665952700004;hgc@hgc.es;935656000
123;CASAL DE CURACIÓ;CR MARIA VIDAL, 19;Vilassar de Mar;BARCELONA;8340;81;9765,36;GERIATRÍA Y/O LARGA ESTANCIA;03:00;23:59;41,501687082;2,38739236500004;curacio@suport.org;937590241
124;HOSPITAL RESIDÈNCIA SANT CAMIL - CONSORCI SANITARI DEL GARRAF.;RD SANT  CAMIL, S/N;Sant Pere de Ribes;BARCELONA;8810;295;35565,2;GENERAL;03:00;23:59;41,2538499880001;1,76613999400007;santcamil@hrsantcamil.es;938960025
125;CENTRES ASSISTENCIALS DR. EMILI MIRA I LÓPEZ (RECINTE TORRIBERA).;CR PRAT DE LA RIBA, 171;Santa Coloma de Gramenet;BARCELONA;8921;454;54734,24;PSIQUIÁTRICO;03:00;23:59;41,462396251;2,21333001600004;g.torribera@diba.es;934628926
126;FUNDACIÓ HOSPITAL DE L'ESPERIT SANT;AV MOSSÈN JOSEP PONS I ROBADÀ, S/N;Santa Coloma de Gramenet;BARCELONA;8923;177;21339,12;GENERAL;03:00;23:59;41,439224445;2,21079733100004;mesteva@hes.scs.es / hesperitsant@hes.sc;933869648
127;HOSPITAL DE TERRASSA.;CT TORREBONICA, S/N;Terrassa;BARCELONA;8227;460;55457,6;GENERAL;03:00;23:59;41,558555326;2,05520199900008;csdt@csdt.es;937310007
128;HOSPITAL DE SANT LLÀTZER;PL DOCTOR ROBERT, 1;Terrassa;BARCELONA;8221;77;9283,12;GERIATRÍA Y/O LARGA ESTANCIA;03:00;23:59;41,5629585470001;2,01709962400003;admissionsfsll@cst.cat;937837111
129;HOSPITAL UNIVERSITARI MÚTUA DE TERRASSA;PL DOCTOR ROBERT, 5;Terrassa;BARCELONA;8221;534;64379,04;GENERAL;03:00;23:59;41,5635015220001;2,01659752600006;;937365050
130;HOSPITAL  UNIVERSITARI DE VIC;"CR FRANCESC PLA ""EL VIGATA"", 1";Vic;BARCELONA;8500;292;35203,52;GENERAL;03:00;23:59;41,936365939;2,26094360800005;gerencia@hgv.es;938891111
131;CLÍNICA SANT JOSEP;CR SANT SEGIMON, 3;Vic;BARCELONA;8500;21;2531,76;GENERAL;03:00;23:59;41,9294950830001;2,26113118700005;administracio@clinicasjv.com;938861700
132;HOSPITAL DE LA SANTA CREU;RB HOSPITAL, 52;Vic;BARCELONA;8500;127;15311,12;GERIATRÍA Y/O LARGA ESTANCIA;03:00;23:59;41,928397547;2,25213599000006;sjuridica@chv.cat;938833300
133;HOSPITAL DE VILADECANS;AV GAVÀ, 38;Viladecans;BARCELONA;8840;110;13261,6;GENERAL;03:00;23:59;41,3124723110001;2,01397313000007;gerencia@hv.scs.es;936590111
134;HOSPITAL SANT ANTONI ABAT - CONSORCI SANITARI DEL GARRAF.;CR SANT JOSEP, 21;Vilanova i la Geltrú;BARCELONA;8800;111;13382,16;GERIATRÍA Y/O LARGA ESTANCIA;03:00;23:59;41,228743115;1,72300218400005;fhcaa@retemail.es;938931616
135;CENTRE SOCIOSANITARI CAN TORRAS;CT EL MASNOU A ALELLA, 11;Alella;BARCELONA;8328;119;14346,64;GERIATRÍA Y/O LARGA ESTANCIA;03:00;23:59;41,484694023;2,29828617900006;jm.cuartero@fsfa.cat;935551994
136;HESTIA MARESME;CR LEPANT, 13-21;Mataró;BARCELONA;8301;125;15070,0;GERIATRÍA Y/O LARGA ESTANCIA;03:00;23:59;41,5358764050001;2,44422911500004;;931165279
137;PRYTANIS SANT BOI CENTRE SOCIOSANITARI;CR JOSEP TORRAS I BAGES, 55;Sant Boi de Llobregat;BARCELONA;8830;122;14708,32;GERIATRÍA Y/O LARGA ESTANCIA;03:00;23:59;41,348793932;2,04120307000005;prytanis@prytanisresidencial.es;936300931
138;CENTRE SOCIOSANITARI VERGE DEL PUIG;CR CAMPINS, 37;Sant Celoni;BARCELONA;8470;40;4822,4;GERIATRÍA Y/O LARGA ESTANCIA;03:00;23:59;41,6911209990001;2,48585930200005;residencia@hsceloni.cat;938673995
139;RESIDÈNCIA L'ESTADA;CM DE LA MASIA, S/N;Sant Andreu de Llavaneres;BARCELONA;8392;60;7233,6;GERIATRÍA Y/O LARGA ESTANCIA;03:00;23:59;41,56797419;2,49229708800004;estada@lestada.com;937926612
140;RESIDÈNCIA PUIG-REIG;CR LLOBREGAT, 75;Puig-reig;BARCELONA;8692;30;3616,8;GERIATRÍA Y/O LARGA ESTANCIA;03:00;23:59;41,9781191820001;1,87948173300003;cassbenefica2@logiccontrol.es;938380045
141;RESIDÈNCIA SANTA SUSANNA;CR FONT I BOET, 16;Caldes de Montbui;BARCELONA;8140;64;7715,84;GERIATRÍA Y/O LARGA ESTANCIA;03:00;23:59;41,6307870000001;2,16401400000007;aros@fundaciostasusanna.cat;938654994
142;HOSPITAL DE MATARÓ;CT CIRERA, 230;Mataró;BARCELONA;8304;402;48465,12;GENERAL;03:00;23:59;41,555597182;2,43030160600006;gerencia@csdm.es;937417700
143;HOSPITAL UNIVERSITARI VALL D'HEBRON;PS VALL D'HEBRON, 119-129;Barcelona;BARCELONA;8035;1315;158536,4;GENERAL;03:00;23:59;41,4276414340001;2,14164638800003;dirgerencia@vhebron.net;934894524
144;CENTRE POLIVALENT CAN FOSC;CT DE LLERONA, S/N;Ametlla del Vallès, L';BARCELONA;8480;56;6751,36;GERIATRÍA Y/O LARGA ESTANCIA;03:00;23:59;41,6622691260001;2,27332958800002;vbonet@fundaciovallparadis.es;938432786
145;HOSPITAL SOCIOSANITARI MUTUAM GÜELL;CR MARE DE DÉU DE LA SALUT, 49;Barcelona;BARCELONA;8024;167;20133,52;GERIATRÍA Y/O LARGA ESTANCIA;03:00;23:59;41,4113206270001;2,15676266200006;mutuam@mutuam.com;932133400
146;MÚTUA DE GRANOLLERS, MÚTUA DE PREVISIÓ SOCIAL A PRIMA FIXA;PL PAU CASALS, S/N;Granollers;BARCELONA;8402;20;2411,2;GENERAL;03:00;23:59;41,6073015000001;2,28941100000003;rblanch@mutua.org;938708099
147;HOSPITAL COMARCAL DE L'ALT PENEDÈS.;CR ESPIRALL, S/N;Vilafranca del Penedès;BARCELONA;8720;144;17360,64;GENERAL;03:00;23:59;41,3564879520001;1,70436918300004;xvillanova@csap.scs.es;938180440
148;ÀPTIMA CENTRE CLÍNIC - MÚTUA DE TERRASSA;PL DOCTOR ROBERT, 5;Terrassa;BARCELONA;8221;70;8439,2;GENERAL;03:00;23:59;41,5635015220001;2,01659752600006;cmarin@mutuaterrassa.cat;937365072
149;INSTITUT CATALÀ D'ONCOLOGIA - HOSPITAL DURAN I REYNALS;AV GRAN VIA, 203;Hospitalet de Llobregat, L';BARCELONA;8908;126;15190,56;ONCOLÓGICO;03:00;23:59;41,344924307;2,11117079800005;cserra@ico.scs.es;933357011
150;SAR MONT MARTÍ;CT CASSERRES (ABANS PO. LA SALA S/N), 1;Puig-reig;BARCELONA;8692;20;2411,2;GERIATRÍA Y/O LARGA ESTANCIA;03:00;23:59;41,9550525940001;1,87131500000004;direccion.montmarti@domusvi.es;938290138
151;REGINA SAR;CR MARE DE DÉU DEL COLL, 22;Barcelona;BARCELONA;8023;12;1446,72;GERIATRÍA Y/O LARGA ESTANCIA;03:00;23:59;41,4090521140001;2,14957188100004;direccion.regina@sarquavitae.es;932848635
152;CENTRE VALLPARADÍS;CR SANT ANTONI, 52;Terrassa;BARCELONA;8221;81;9765,36;GERIATRÍA Y/O LARGA ESTANCIA;03:00;23:59;41,5648907280001;2,01660961200002;gerenciamutua@mutuaterrassa.es;937365030
153;ITA MARESME;CR BARÓ DE VIVER, 58;Argentona;BARCELONA;8310;77;9283,12;OTROS MONOGRÁFICOS;03:00;23:59;41,5489737840001;2,39601855100005;itacat@itacat.com;937530062
154;CLÍNICA LLÚRIA;PG MERCADER, 14;Barcelona;BARCELONA;8008;40;4822,4;PSIQUIÁTRICO;03:00;23:59;41,3924929;2,15987221900002;clinicalluria@cpbssm.org;934882142
155;ANTIC HOSPITAL DE SANT JAUME I SANTA MAGDALENA;CR HOSPITAL, 29-31;Mataró;BARCELONA;8301;70;8439,2;GERIATRÍA Y/O LARGA ESTANCIA;03:00;23:59;41,5396972140001;2,44885690200005;gerencia@csdm.es;937582800
156;PARC SANITARI SANT JOAN DE DÉU - NUMÀNCIA;CR NUMÀNCIA, 7-13;Barcelona;BARCELONA;8029;159;19169,04;PSIQUIÁTRICO;03:00;23:59;41,3813705050001;2,14125100100006;upps@pssjd.org;933249600
157;PRYTANIS HOSPITALET CENTRE SOCIOSANITARI;CR APRESTADORA, 43-45;Hospitalet de Llobregat, L';BARCELONA;8902;104;12538,24;GERIATRÍA Y/O LARGA ESTANCIA;03:00;23:59;41,3642542000001;2,13003411300002;prytanis@prytanis.com;932988090
158;COMUNITAT TERAPÈUTICA ARENYS DE MUNT;"CT BARRI ORIENT  ""CAN ZARIQUIEY"", 26";Arenys de Munt;BARCELONA;8358;42;5063,52;PSIQUIÁTRICO;03:00;23:59;41,620505;2,53148284700006;ctam@ctm-salutmental.com;937938006
159;HOSPITAL SOCIOSANITARI PERE VIRGILI;AV VALLCARCA, 169-205;Barcelona;BARCELONA;8023;366;44124,96;GERIATRÍA Y/O LARGA ESTANCIA;03:00;23:59;41,415848613;2,14207002600006;pvirgili@perevirgili.catsalut.cat;932594000
160;BENITO MENNI COMPLEX ASSISTENCIAL EN SALUT MENTAL;CR FRANCESC RIBAS, 59;Granollers;BARCELONA;8402;30;3616,8;PSIQUIÁTRICO;03:00;23:59;41,613547263;2,29179322600004;hospital@hospitalbenitomenni.org;938425035
161;HOSPITAL  SANITAS CIMA;PS MANUEL GIRONA, 33;Barcelona;BARCELONA;8034;83;10006,48;GENERAL;03:00;23:59;41,3910109170001;2,12365918900002;infocima@sanitas.es;935522700
162;PARC SANITARI SANT JOAN DE DEU - BRIANS 1.;CT DE MARTORELL A CAPELLADES, ,23;Sant Esteve Sesrovires;BARCELONA;8635;150;18084,0;GENERAL;03:00;23:59;41,5034867680001;1,88302869500006;joodircperi.dj@gencat.cat;937758000
163;INSTITUT CATALÀ D'ONCOLOGIA - HOSPITAL GERMANS TRIAS I PUJOL;CT CANYET, S/N;Badalona;BARCELONA;8916;36;4340,16;ONCOLÓGICO;03:00;23:59;41,478603795;2,22919372500007;ccalle@iconcologia.net;934651200
164;CENTRE COLLSEROLA MUTUAL;PS VALL D'HEBRON,, 159;Barcelona;BARCELONA;8035;34;4099,04;GERIATRÍA Y/O LARGA ESTANCIA;03:00;23:59;41,4350104810001;2,14706349200003;mutuam@mutuam.com;933613900
165;CENTRE SOCIOSANITARI SARQUAVITAE SANT JORDI;CT SANT JOAN DESPÍ, 60;Cornellà de Llobregat;BARCELONA;8940;51;6148,56;GERIATRÍA Y/O LARGA ESTANCIA;03:00;23:59;41,3581965400001;2,06464944800007;direccion.santjordi@sarquavitae.es;934752690
166;HOSPITAL GENERAL PENITENCIARI;CT TORREBONICA, S/N;Terrassa;BARCELONA;8227;32;3857,92;GENERAL;03:00;23:59;41,556818929;2,05310753900005;suhp@cst.cat;937317861
167;CENTRE SOCIOSANITARI DE L'HOSPITALET - CONSORCI SANITARI INTEGRAL;AV JOSEP MOLINS, 41;Hospitalet de Llobregat, L';BARCELONA;8906;123;14828,88;GERIATRÍA Y/O LARGA ESTANCIA;03:00;23:59;41,373773665;2,10633190000004;carmen.gimeno@sanitatintegral.org;934407500
168;SAR LA SALUT JOSEP SERVAT;CR ANTEQUERA,, 8-18;Barcelona;BARCELONA;8024;56;6751,36;GERIATRÍA Y/O LARGA ESTANCIA;03:00;23:59;41,413709829;2,15716762500006;info@sarquavitae.es;932857512
169;CLÍNICA CREU BLANCA;PS REINA  ELISENDA  DE  MONTCADA,, 17;Barcelona;BARCELONA;8034;51;6148,56;GENERAL;03:00;23:59;41,398264919;2,11825506900004;inform@creublanca.es;932522522
170;HESTIA GRÀCIA;CR SECRETARI COLOMA, 95;Barcelona;BARCELONA;8024;153;18445,68;GERIATRÍA Y/O LARGA ESTANCIA;03:00;23:59;41,4102245760001;2,16214781500003;hestiagracia@hestiagracia.org;934170400
171;CENTRE SOCIOSANITARI D'ESPLUGUES;VI AUGUSTA, 66-70;Esplugues de Llobregat;BARCELONA;8950;131;15793,36;GERIATRÍA Y/O LARGA ESTANCIA;03:00;23:59;41,3827458380001;2,08487642000006;jcayetano@sjdsse.cat;936406350
172;CENTRE SOCIOSANITARI RICARD FORTUNY;AV GARRAF, 3;Vilafranca del Penedès;BARCELONA;8720;187;22544,72;GERIATRÍA Y/O LARGA ESTANCIA;03:00;23:59;41,339919229;1,70516714000007;cssv@cssv.cat;938172357
173;CENTRE RESIDENCIAL AMMA DIAGONAL;CR LLACUNA, 120-122;Barcelona;BARCELONA;8018;5;602,8;GERIATRÍA Y/O LARGA ESTANCIA;03:00;23:59;41,403961184;2,19523661300002;direccion@diagonal.amavir.es;933209630
174;CENTRE FÒRUM;CR LLULL, 410;Barcelona;BARCELONA;8019;223;26884,88;GERIATRÍA Y/O LARGA ESTANCIA;03:00;23:59;41,4129792680001;2,21812594400006;cforum@parcdesalutmar.cat;932483000
175;CENTRE SOCIOSANITARI BLAUCLÍNIC DOLORS ALEU;CR MARQUÈS DE SANTA ANNA, 9;Barcelona;BARCELONA;8023;174;20977,44;GERIATRÍA Y/O LARGA ESTANCIA;03:00;23:59;41,4063868150001;2,14810789400002;msanchez@blauclinic.cat;934343216
176;PARC SANITARI SANT JOAN DE DÉU - TIL·LERS;CR MOSSOS D'ESQUADRA, 3;Mollet del Vallès;BARCELONA;8100;10;1205,6;PSIQUIÁTRICO;03:00;23:59;41,352989516;2,03386476700007;qualitatiseguretat@pssjd.org;935705289
177;CLÍNICA GALATEA;CR PALAFOLLS, 15-19;Barcelona;BARCELONA;8017;22;2652,32;PSIQUIÁTRICO;03:00;23:59;41,41077848;2,11343932200003;info@clinica-galatea.com;932057267
178;HOSPITAL D'IGUALADA;AV CATALUNYA, 11;Igualada;BARCELONA;8700;280;33756,8;GENERAL;03:00;23:59;41,588104421;1,61971021900007;fgcardona@csa.cat;938075500
179;CENTRE SOCIAL I SANITARI FREDERICA MONTSENY;CR ESLIDA, 6-8;Viladecans;BARCELONA;8840;76;9162,56;GERIATRÍA Y/O LARGA ESTANCIA;03:00;23:59;41,3216555980001;2,01799699400004;mgrifol@chc.cat;936473525
180;PARC SANITARI SANT JOAN DE DEU-SERVEIS SANITARIS CENTRE PENITENCIARI BRIANS-2;CT MARTORELL A CAPELLADES, ,23;Sant Esteve Sesrovires;BARCELONA;8635;152;18325,12;GENERAL;03:00;23:59;41,4829211410001;1,87441500000006;justicia@gencat.net;936935000
181;CENTRE INTEGRAL DE SERVEIS EN SALUT MENTAL COMUNITÀRIA;CR VERNTALLAT, 11-19;Barcelona;BARCELONA;8024;25;3014,0;PSIQUIÁTRICO;03:00;23:59;41,4062084070001;2,15577737600006;cis@arapdis.org;932184908
182;CENTRE SOCIOSANITARI SANT JORDI DE LA VALL D'HEBRON;PS VALL D'HEBRON, 135-141;Barcelona;BARCELONA;8035;57;6871,92;GERIATRÍA Y/O LARGA ESTANCIA;03:00;23:59;41,4305539000001;2,14476586700005;msanchez@blauclinic.cat;934280000
183;LEPANT RESIDENCIAL QGG, SL;CR LEPANT, 401-403;Barcelona;BARCELONA;8025;10;1205,6;GERIATRÍA Y/O LARGA ESTANCIA;03:00;23:59;41,4113749000001;2,16745930300004;andresmanero@hotmail.com;934507438
184;MAPFRE QUAVITAE BARCELONA;CR SANT ANTONI MARIA CLARET, 200;Barcelona;BARCELONA;8025;38;4581,28;GERIATRÍA Y/O LARGA ESTANCIA;03:00;23:59;41,4100999070001;2,17288571500006;recepcion.claret@sarquavitae.es;934579400
185;UNITAT POLIVALENT SALUT MENTAL BARCELONA-NORD;AV JORDÀ, 8;Barcelona;BARCELONA;8035;52;6269,12;PSIQUIÁTRICO;03:00;23:59;41,42525291;2,14074683600006;jroman.merced@hospitalarias.es;934275250
186;CQM CLÍNIC MARESME, SL;CR LEPANT, 13-21;Mataró;BARCELONA;8301;10;1205,6;GENERAL;03:00;23:59;41,5358764050001;2,44422911500004;info@cqm-mataro.com;937556219
187;SERVEIS SANITARIS LA ROCA DEL VALLES 2;CT MASNOU A GRANOLLERS, ,13;Roca del Vallès, La;BARCELONA;8430;34;4099,04;GENERAL;03:00;23:59;41,5985150000001;2,33607477700002;mpujolr@gencat.cat;932140100
188;CLÍNICA DEL VALLÈS;PS RUBIÓ I ORS, 25-27;Sabadell;BARCELONA;8203;107;12899,92;GENERAL;03:00;23:59;41,532266178;2,11824141900007;jmallofre@clinicavalles.com;937283100
189;CENTRE GERONTOLÒGIC AMMA SANT CUGAT;CR VICTOR HUGO, 10;Sant Cugat del Vallès;BARCELONA;8174;4;482,24;GERIATRÍA Y/O LARGA ESTANCIA;03:00;23:59;41,4840486310001;2,08544127600004;direccion@santcugat.amma.es;935836100
190;SERVEIS SANITARIS SANT JOAN DE VILATORRADA;CT DE MANRESA A SOLSONA. CAMÍ DE LES TORRES, C-55;Sant Joan de Vilatorrada;BARCELONA;8250;56;6751,36;GENERAL;03:00;23:59;41,74519538;1,80985323700003;;932140100
191;CENTRE SOCIOSANITARI STAUROS;PL KARL MARX, 1;Barcelona;BARCELONA;8042;49;5907,44;GERIATRÍA Y/O LARGA ESTANCIA;03:00;23:59;41,4406977470001;2,16193712800003;stauros@centrestauros.org;931171074
192;HOSPITAL DE SANT JOAN DESPÍ MOISÈS BROGGI;AV JACINT VERDAGUER, 90;Sant Joan Despí;BARCELONA;8970;328;39543,68;GENERAL;03:00;23:59;41,3661809750001;2,05232515200004;carmen.gimeno@sanitatintegral.org;935531200
193;AMMA HORTA;AV CAN  MARCET, 11;Barcelona;BARCELONA;8035;5;602,8;GERIATRÍA Y/O LARGA ESTANCIA;03:00;23:59;41,434944667;2,14862283100007;recepcion@horta.amma.es;934280092
194;UNITAT POLIVALENT BENITO MENNI EN SALUT MENTAL DE L'HOSPITALET-EL PRAT DE LLOBREGAT;CR SANT RAFAEL, 11;Hospitalet de Llobregat, L';BARCELONA;8905;35;4219,6;PSIQUIÁTRICO;03:00;23:59;41,3693682430001;2,10531679100006;jorrit.hbmenni@hospitalarias.es;936402400
195;ITA MARESME;CR AVENIR, 14;Barcelona;BARCELONA;8006;56;6751,36;OTROS MONOGRÁFICOS;03:00;23:59;41,3970621130001;2,14886336400002;snavarro@itacat.com;933621258
196;CENTRE SOCIOSANITARI DEL CENTRE INTEGRAL DE SALUT COTXERES;AV BORBÓ, 18-30;Barcelona;BARCELONA;8016;209;25197,04;GERIATRÍA Y/O LARGA ESTANCIA;03:00;23:59;41,426419637;2,17632730500003;jserrat@consorci.org;932438991
197;CLÍNICA SANT ANTONI;CR SANT ELOI, 6-8;Barcelona;BARCELONA;8038;224;27005,44;GERIATRÍA Y/O LARGA ESTANCIA;03:00;23:59;41,356076805;2,14325702400004;provfig@ediho.es;932974010
198;CLÍNICA DIAGONAL;CR SANT MATEU, 24;Esplugues de Llobregat;BARCELONA;8950;98;11814,88;GENERAL;03:00;23:59;41,3788186190001;2,09653111800003;info@clinicadiagonal.com;932053213
199;HOSPITAL SOCIOSANITARI DE MOLLET;CR SANT LLORENÇ, 39-41;Mollet del Vallès;BARCELONA;8100;109;13141,04;GERIATRÍA Y/O LARGA ESTANCIA;03:00;23:59;41,541136072;2,21139796300002;direcciogeneral@hospitalmollet.cat;935760300
200;CENTRE SOCIOSANITARI ISABEL ROIG;CR FERNANDO PESSOA, 47-51;Barcelona;BARCELONA;8030;251;30260,56;GERIATRÍA Y/O LARGA ESTANCIA;03:00;23:59;41,4432523880001;2,19258286300004;cssisabelroig@blauclinic.cat;931780667
201;IVÁN MAÑERO CLÍNIC;CR VICTOR HUGO, 24;Sant Cugat del Vallès;BARCELONA;8174;17;2049,52;QUIRÚRGICO;03:00;23:59;41,4840486310001;2,08544127600004;imclinic@imclinic.com;902401540
202;INSTITUT TRASTORN LÍMIT;CR PEDRO I PONS, 1;Sant Cugat del Vallès;BARCELONA;8195;14;1687,84;PSIQUIÁTRICO;03:00;23:59;41,4687280090001;2,03665952700004;cervantes.ana@hotmail.com;666301013
203;CENTRE D'HOSPITALITZACIÓ I HOSPITAL DE DIA TRASTORNS DE LA CONDUCTA;CR CIRÉS, S/N;Argentona;BARCELONA;8310;40;4822,4;PSIQUIÁTRICO;03:00;23:59;41,562415;2,39339669400005;gfaus@itacat.com;937533006
204;SARQUAVITAE BONANOVA;CR CALATRAVA, 83;Barcelona;BARCELONA;8017;28;3375,68;GERIATRÍA Y/O LARGA ESTANCIA;03:00;23:59;41,402554407;2,12718543400007;ldomingo@sarquavitae.es;932534940
205;CENTRE LA CREUETA;PL DE LES VAQUES, S/N;Sabadell;BARCELONA;8202;46;5545,76;GERIATRÍA Y/O LARGA ESTANCIA;03:00;23:59;41,5543250000001;2,12943347600003;dcabre@mutuam.com;937451164
206;UNITAT TERAPÈUTICA-EDUCATIVA ACOMPANYA'M;CR JESÚS I MARIA, 18-20;Barcelona;BARCELONA;8022;30;3616,8;PSIQUIÁTRICO;03:00;23:59;41,411089045;2,13081199900006;mcastillo@jdhospitalbarcelona.com;932532100
207;HOSPITAL RECOLETAS DE BURGOS;CRUZ ROJA, S/N;Burgos;BURGOS;9006;92;11091,52;GENERAL;03:00;23:59;42,344340048;-3,68387167599997;admision.hrb@gruporecoletas.com;947244055
208;HOSPITAL SAN JUAN DE DIOS DE BURGOS;Pº DE LA ISLA, 3;Burgos;BURGOS;9003;160;19289,6;GERIATRÍA Y/O LARGA ESTANCIA;03:00;23:59;42,340327813;-3,71283893499998;burgos.hospital@hsjd.es;947257730
209;HOSPITAL SANTOS REYES;AV. RUPERTA BARAYA, 6;Aranda de Duero;BURGOS;9400;123;14828,88;GENERAL;03:00;23:59;41,6692634450001;-3,69085628899995;gerente.hsry@saludcastillayleon.es;947522000
210;HOSPITAL RESIDENCIA ASISTIDA DE LA LUZ;DURATÓN, 2;Aranda de Duero;BURGOS;9400;75;9042,0;GERIATRÍA Y/O LARGA ESTANCIA;03:00;23:59;41,6620314890001;-3,69489954699998;gerencia@hralaluz.es;947500150
211;HOSPITAL SANTIAGO APÓSTOL;CTRA. DE ORÓN, S/N;Miranda de Ebro;BURGOS;9200;114;13743,84;GENERAL;03:00;23:59;42,66958973;-2,98947537899994;gerente.hsap@saludcastillayleon.es;947349000
212;COMPLEJO ASISTENCIAL UNIVERSITARIO DE BURGOS;AV. ISLAS BALEARES, 3;Burgos;BURGOS;9006;865;104284,4;GENERAL;03:00;23:59;42,3593344760001;-3,68757909499993;gerente.cabu@saludcastillayleon.es;947281800
213;HOSPITAL CIUDAD DE CORIA;CERVANTES, 75;Coria;CÁCERES;10800;103;12417,68;GENERAL;03:00;23:59;39,991088001;-6,54212168499993;;927149200
214;HOSPITAL CAMPO ARAÑUELO;TOMÁS YUSTE MIRÓN, S/N;Navalmoral de la Mata;CÁCERES;10300;102;12297,12;GENERAL;03:00;23:59;39,8880520290001;-5,56096707299997;;927548900
215;HOSPITAL VIRGEN DEL PUERTO;PARAJE VALCORCHERO, S/N;Plasencia;CÁCERES;10600;250;30140,0;GENERAL;03:00;23:59;40,04942701;-6,08619013399993;gerent.hvpt@salud-juntaex.es;927428300
216;HOSPITAL SOCIOSANITARIO DE PLASENCIA;CTRA. DE CÁCERES, S/N;Plasencia;CÁCERES;10600;330;39784,8;PSIQUIÁTRICO;03:00;23:59;40,0239950000001;-6,08184980199997;montserrat.martinl@salud-juntaex.es;927428800
217;COMPLEJO HOSPITALARIO DE CÁCERES;AV.PABLO NARANJO, S/N;Cáceres;CÁCERES;10003;520;62691,2;GENERAL;03:00;23:59;39,466614608;-6,36934482599997;;927256200
218;HOSPITAL QUIRÓN SALUD DE CÁCERES;AV. DE LA UNIVERSIDAD, 5;Cáceres;CÁCERES;10004;35;4219,6;GENERAL;03:00;23:59;39,4819542710001;-6,36359501599998;arnaldo.pons@quironsalud.es;927181360
219;CLÍNICA SOQUIMEX;AVDA. LA SALLE, 22;Plasencia;CÁCERES;10600;20;2411,2;GENERAL;03:00;23:59;40,0324218370001;-6,08499297599997;soquimex@soquimex.com;927418484
220;CLINICA QUIRÚRGICA CACEREÑA, S.A-(CLÍNICA SAN FRANCISCO);RONDA DE SAN FRANCISCO, 1;Cáceres;CÁCERES;10002;32;3857,92;GENERAL;03:00;23:59;39,4688316840001;-6,36881486999994;clinica@cqcsanfrancisco.es;927012200
221;HOSPITAL UNIVERSITARIO PUERTA DEL MAR;AV. ANA DE VIYA, 21;Cádiz;CÁDIZ;11009;738;88973,28;GENERAL;03:00;23:59;36,509116303;-6,27786388499993;gerencia.hpm.sspa@juntadeandalucia.es;956002040
222;CLÍNICA LA SALUD;FEDUCHY, 8-14;Cádiz;CÁDIZ;11001;58;6992,48;GENERAL;03:00;23:59;36,5320240410001;-6,29584571899994;administracion@clinicalasalud.es;956225301
223;HOSPITAL SAN RAFAEL;DIEGO ARIAS, 2;Cádiz;CÁDIZ;11002;280;33756,8;GENERAL;03:00;23:59;36,5327979360001;-6,30252129399997;cadiz.secretaria@jmpascual.com;956017267
224;CLÍNICA  LOS ÁLAMOS;AV. DE TAMARIX, 4;Jerez de la Frontera;CÁDIZ;11407;15;1808,4;GENERAL;03:00;23:59;36,7039492070001;-6,13073367899995;rrhh@clinicalosalamos.com;956182244
225;HOSPITAL UNIVERSITARIO DE JEREZ DE LA FRONTERA;RONDA DE CIRCUNVALACIÓN, S/N;Jerez de la Frontera;CÁDIZ;11408;498;60038,88;GENERAL;03:00;23:59;36,6913972930001;-6,14980105599994;manuel.herrera.sspa@juntadeandalucia.es;956032075
226;HOSPITAL SAN JUAN GRANDE;GLORIETA FÉLIX RODRIGUEZ DE LA FUENTE, S/N;Jerez de la Frontera;CÁDIZ;11408;143;17240,08;GENERAL;03:00;23:59;36,6914675190001;-6,14877845299998;jerez@sjd.es;956357300
227;HOSPITAL  DE LA LÍNEA DE LA CONCEPCIÓN;AV. MENÉNDEZ Y PELAYO, 103;Línea de la Concepción, La;CÁDIZ;11300;180;21700,8;GENERAL;03:00;23:59;36,1704512530001;-5,34063642299998;franciscoj.martos.sspa@juntadeandalucia.es;956026500
228;HOSPITAL GENERAL SANTA MARÍA DEL PUERTO;VALDÉS, S/N;Puerto de Santa María, El;CÁDIZ;11500;238;28693,28;GENERAL;03:00;23:59;36,5965943040001;-6,23409792199993;stamaria.secretaria@jmpascual.com;956017000
229;HOSPITAL UNIVERSITARIO DE PUERTO REAL;CARRETERA NACIONAL IV, KM. 665;Puerto Real;CÁDIZ;11510;319;38458,64;GENERAL;03:00;23:59;36,520384542;-6,15145949499993;;956005147
230;HOSPITAL VIRGEN DE LAS MONTAÑAS;AV. AMBULATORIO S/N;Villamartín;CÁDIZ;11650;108;13020,48;GENERAL;03:00;23:59;36,860715;-5,64815244599993;cesar@jmpascual.com;956041000
231;HOSPITAL VIRGEN DEL CAMINO;CRTRA SANLÚCAR-CHIPIONA, S/N;Sanlúcar de Barrameda;CÁDIZ;11540;118;14226,08;GENERAL;03:00;23:59;36,7575211240001;-6,37057770699994;sanlucar.secretaria@jmpascual.com;956048068
232;HOSPITAL JEREZ PUERTA DEL SUR;AV. PUERTA DEL SUR, S/N;Jerez de la Frontera;CÁDIZ;11408;98;11814,88;GENERAL;03:00;23:59;36,6687180000001;-6,13626167599995;rrhhcj@asisa.es;956357100
233;HOSPITAL VIAMED BAHÍA DE CÁDIZ;AYALA, 2;Chiclana de la Frontera;CÁDIZ;11130;46;5545,76;GENERAL;03:00;23:59;36,420425865;-6,15052497099992;gerencia@hospitalcmc.es;956533333
234;HOSPITAL PUNTA DE EUROPA;CARRETERA DE GETARES, S/N;Algeciras;CÁDIZ;11207;327;39423,12;GENERAL;03:00;23:59;36,1111021040001;-5,44424465599997;;956025000
235;HOSPITAL VIAMED NOVO SANCTI PETRI;URB. NOVO SANCTI PETRI, S/N;Chiclana de la Frontera;CÁDIZ;11130;37;4460,72;GENERAL;03:00;23:59;36,35608;-6,158834;gerente@clinicanovo.es;956495000
236;CLÍNICA SERMAN - INSTITUTO MÉDICO;Pº DE LA ROSALEDA, 40;Jerez de la Frontera;CÁDIZ;11405;41;4942,96;GENERAL;03:00;23:59;36,692941014;-6,12407777499993;jefeadministracion@clinicaserman.com;956301211
237;HOSPITAL QUIRÓN CAMPO DE GIBRALTAR;"PARQUE EMPRESARIAL ""LAS MARISMAS DE PALMONES"", EDIFICIO ARTTYSUR";Barrios, Los;CÁDIZ;11379;64;7715,84;GENERAL;03:00;23:59;36,2070002790001;-5,45301999999998;;956798301
238;HOSPITAL DE LA LÍNEA DE LA CONCEPCIÓN;RONDA NORTE, ESQ. C/ GABRIEL MIRÓ;Línea de la Concepción, La;CÁDIZ;11300;243;29296,08;GENERAL;03:00;23:59;36,1745550000001;-5,35232249999996;jesus.ros.sspa@juntadeandalucia.es;956026500
239;HOSPITAL GENERAL UNIVERSITARIO DE CASTELLÓN;AVENIDA BENICASIM, S/N;Castellón de la Plana/Castelló de la Plana;CASTELLÓN;12004;580;69924,8;GENERAL;03:00;23:59;40,002715418;-0,0417011379999508;sugerencias_dscs@gva.es;964725000
240;HOSPITAL LA MAGDALENA;CAMINO COLLET, 32;Castellón de la Plana/Castelló de la Plana;CASTELLÓN;12004;128;15431,68;GERIATRÍA Y/O LARGA ESTANCIA;03:00;23:59;40,004385561;-0,0729276129999334;monferrer_mar@gva.es;964356800
241;CONSORCIO HOSPITALARIO PROVINCIAL DE CASTELLÓN;AVENIDA DOCTOR CLARÁ, 19;Castellón de la Plana/Castelló de la Plana;CASTELLÓN;12002;257;30983,92;GENERAL;03:00;23:59;39,984962189;-0,0447215089999418;sanchis_joagara@gva.es;964359700
242;HOSPITAL COMARCAL DE VINARÒS;AVENIDA GIL DE ATROCILLO, S/N;Vinaròs;CASTELLÓN;12500;150;18084,0;GENERAL;03:00;23:59;40,46387528;0,449975624000047;;964477000
243;HOSPITAL UNIVERSITARIO DE LA PLANA;CARRETERA VILA-REAL A BORRIANA, KM 0,5;Vila-real;CASTELLÓN;12540;258;31104,48;GENERAL;03:00;23:59;39,924448829;-0,0969531039999652;laplana@gva.es;964399775
244;INSTITUTO DE TRAUMATOLOGIA DE UNIÓN DE MUTUAS (MATEPSS Nº 267);AVENIDA VIRGEN DE LIDÓN, 67;Castellón de la Plana/Castelló de la Plana;CASTELLÓN;12004;28;3375,68;TRAUMATOLOGÍA Y/O REHABILITACIÓN;03:00;23:59;39,993031026;-0,0274974349999297;jgsanchez@uniondemutuas.es;964231212
245;HOSPITAL REY D. JAIME;CALLE MARÍA ROSA MOLAS, 25;Castellón de la Plana/Castelló de la Plana;CASTELLÓN;12004;96;11573,76;GENERAL;03:00;23:59;39,997316724;-0,0360727949999387;reydjaime@hospitales.nisa.es;964726000
246;SERVICIOS SANITARIOS DEL CENTRO PENITENCIARIO DE CASTELLÓN II (ALBOCÀSSER);CALLE ELS MASCARRELLS, S/N;Albocàsser;CASTELLÓN;12140;64;7715,84;OTRA FINALIDAD;03:00;23:59;40,382270657;0,0194300000000567;medico.castellon2@dgip.mir.es;964158500
247;SERVICIOS SANITARIOS Y ASISTENCIALES;RONDA DEL CARMEN, S/N;Ciudad Real;CIUDAD REAL;13002;85;10247,6;PSIQUIÁTRICO;03:00;23:59;38,992214684;-3,93188747099993;administracionssa@dipucr.es;926231276
248;HOSPITAL QUIRÓNSALUD CIUDAD REAL;ALISOS, 19;Ciudad Real;CIUDAD REAL;13002;47;5666,32;GENERAL;03:00;23:59;38,980076522;-3,93883350899995;ciudad.real@quironsalud.es;926255008
249;HOSPITAL GENERAL LA MANCHA CENTRO;AVENIDAD DE LA CONSTITUCIÓN, 3;Alcázar de San Juan;CIUDAD REAL;13600;353;42557,68;GENERAL;03:00;23:59;39,396270692;-3,21922991999998;gerencia.manchacentro@sescam.jccm.es;926580500
250;HOSPITAL VIRGEN DE ALTAGRACIA;AVENIDAD DON EMILIANO GARCÍA ROLDÁN, 2;Manzanares;CIUDAD REAL;13200;118;14226,08;GENERAL;03:00;23:59;38,999180639;-3,36185082099996;paguado@sescam.jccm.es;926646000
251;HOSPITAL SANTA BÁRBARA;C/ MALAGÓN, S/N;Puertollano;CIUDAD REAL;13500;141;16998,96;GENERAL;03:00;23:59;38,7061820330001;-4,11096335499997;buzong@sescam.org;926421100
252;HOSPITAL GENERAL DE VALDEPEÑAS;AVDA. ESTUDIANTES, S/N;Valdepeñas;CIUDAD REAL;13300;103;12417,68;GENERAL;03:00;23:59;38,7709655790001;-3,39231730499995;;926320200
253;HOSPITAL GENERAL DE CIUDAD REAL;C/ OBISPO RAFAEL TORIJA, S/N;Ciudad Real;CIUDAD REAL;13005;564;67995,84;GENERAL;03:00;23:59;38,9705089390001;-3,93166361099998;cmpavon@sescam.jccm.es;926278000
254;HOSPITAL GENERAL DE TOMELLOSO;VEREDA DE SOCUÉLLAMOS, S/N;Tomelloso;CIUDAD REAL;13700;155;18686,8;GENERAL;03:00;23:59;39,174215744;-3,00611070299993;;926525800
255;HOSPITAL UNIVERSITARIO REINA SOFÍA;AV. MENÉNDEZ PIDAL, S/N;Córdoba;CÓRDOBA;14004;1233;148650,48;GENERAL;03:00;23:59;37,8684390510001;-4,79716922299997;gerencia.hrs.sspa@juntadeandalucia.es;957010380
256;HOSPITAL DE LA CRUZ ROJA DE CÓRDOBA;Pº DE LA VICTORIA, S/N;Córdoba;CÓRDOBA;14004;138;16637,28;GENERAL;03:00;23:59;37,8811999820001;-4,78504916299994;;957420666
257;HOSPITAL SAN JUAN DE DIOS DE CÓRDOBA;AV. DEL BRILLANTE, 106;Córdoba;CÓRDOBA;14012;189;22785,84;GENERAL;03:00;23:59;37,908583407;-4,79331456299997;cordoba.hospital@sjd.es;957274600
258;HOSPITAL INFANTA MARGARITA;AV. DE GÓNGORA, S/N;Cabra;CÓRDOBA;14940;232;27969,92;GENERAL;03:00;23:59;37,4718048820001;-4,42786364499995;;957021300
259;HOSPITAL VALLE DE LOS PEDROCHES;C/ JUAN DEL REY CALERO, S/N;Pozoblanco;CÓRDOBA;14400;124;14949,44;GENERAL;03:00;23:59;38,3834919230001;-4,84912575699997;;957026306
260;HOSPITAL DE MONTILLA;CRTRA. MONTORO-PUENTE GENIL, KM 65,350;Montilla;CÓRDOBA;14550;92;11091,52;GENERAL;03:00;23:59;37,564407696;-4,64810455199995;;957022600
261;HOSPITAL LA ARRUZAFA-INSTITUTO DE OFTALMOLOGÍA;AV. DE LA ARRUZAFA, 9;Córdoba;CÓRDOBA;14012;4;482,24;OFTÁLMICO U ORL;03:00;23:59;37,904525613;-4,79311379199993;rab@hospitalarruzafa.com;957767610
262;HOSPITAL DE ALTA RESOLUCIÓN DE PUENTE GENIL;C/ BURGOS, S/N;Puente Genil;CÓRDOBA;14500;24;2893,44;GENERAL;03:00;23:59;37,399415565;-4,75120554199998;;957615000
263;HOSPITAL DE ALTA RESOLUCIÓN VALLE DEL GUADIATO;PARAJE CERRO DEL CAMELLO, S/N;Peñarroya-Pueblonuevo;CÓRDOBA;14200;17;2049,52;GENERAL;03:00;23:59;38,3085115810001;-5,27080502299998;;957579100
264;HOSPITAL QUIRONSALUD CÓRDOBA;AVDA. AEROPUERTO, 17;Córdoba;CÓRDOBA;14004;115;13864,4;GENERAL;03:00;23:59;37,8759682290001;-4,79583051599997;info.cor@quironsalud.es;957410000
265;COMPLEXO HOSPITALARIO UNIVERSITARIO A CORUÑA;JUBIAS DE ARRIBA, 84;Coruña, A;A CORUÑA;15006;1341;161670,96;GENERAL;03:00;23:59;43,344805879;-8,38626638599993;;981178000
266;CENTRO ONCOLOXICO DE GALICIA;DOCTOR CAMILO VEIRAS, 1;Coruña, A;A CORUÑA;15009;56;6751,36;ONCOLÓGICO;03:00;23:59;43,3360802970001;-8,38942638599997;CONTACTO@COG.ES;981287499
267;HOSPITAL QUIRONSALUD A CORUÑA;LONDRES, 2;Coruña, A;A CORUÑA;15009;127;15311,12;GENERAL;03:00;23:59;43,328289059;-8,39978613399995;INFO.ACORUNA@QUIRONSALUD.ES;981219800
268;HOSPITAL SAN RAFAEL;JUBIAS DE ARRIBA, 82;Coruña, A;A CORUÑA;15006;120;14467,2;GENERAL;03:00;23:59;43,3469809490001;-8,38741921399998;ADE@IMQSANRAFAEL.ES;981179000
269;COMPLEXO HOSPITALARIO UNIVERSITARIO DE FERROL;RESIDENCIA, S/N;Ferrol;A CORUÑA;15405;457;55095,92;GENERAL;03:00;23:59;43,5111455420001;-8,21662865299993;;981334000
270;HOSPITAL JUAN CARDONA;PARDO BAZAN, S/N;Ferrol;A CORUÑA;15406;150;18084,0;GENERAL;03:00;23:59;43,4809516;-8,20125780699993;INFO@HJCARDONA.ORG;981312500
271;COMPLEXO HOSPITALARIO UNIVERSITARIO DE SANTIAGO;CHOUPANA (DA), S/N;Santiago de Compostela;A CORUÑA;15706;1395;168181,2;GENERAL;03:00;23:59;42,8703905990001;-8,55957269899994;;981950000
272;SANATORIO LA ROBLEDA;SANTISO, S/N;Pino, O;A CORUÑA;15821;96;11573,76;PSIQUIÁTRICO;03:00;23:59;42,927515;-8,38251899999995;;981585811
273;HOSPITAL DA BARBANZA (*);SALMON, S/N;Ribeira;A CORUÑA;15993;81;9765,36;GENERAL;03:00;23:59;42,6103900000001;-8,99482144399997;;981835985
274;HOSPITAL VIRXE DA XUNQUEIRA (*);ALCALDE PEPE SANCHEZ, 7;Cee;A CORUÑA;15270;74;8921,44;GENERAL;03:00;23:59;42,953696618;-9,19138710299995;;981706010
275;HM MODELO (GRUPO);VIRREY OSORIO, 30;Coruña, A;A CORUÑA;15011;146;17601,76;GENERAL;03:00;23:59;43,3665273030001;-8,41850710299997;SPEDREDO@HMHOSPITALES.COM;981147300
276;HOSPITAL HM ROSALEDA - HM LA ESPERANZA;SANTIAGO LEON DE CARACAS (DE), 1;Santiago de Compostela;A CORUÑA;15701;119;14346,64;GENERAL;03:00;23:59;42,871892825;-8,54676501899996;SECRETARIA.DIRECCION.HMGR@HMHOSPITALES.COM;981551200
277;HOSPITAL VIRGEN DE LA LUZ;HERMANDAD DONANTES DE SANGRE, 1;Cuenca;CUENCA;16002;388;46777,28;GENERAL;03:00;23:59;40,076017757;-2,14793080999993;pguardial@sescam.jccm.es;969179900
278;HOSPITAL RECOLETAS CUENCA S.L.U.;AVDA. SAN JULIÁN, 1;Cuenca;CUENCA;16003;30;3616,8;MÉDICO-QUIRÚRGICO;03:00;23:59;40,067133132;-2,14592281199998;olga.barrios.aj@gruporecoletas.com;969240559
279;HOSPITAL UNIVERSITARI DE GIRONA DR. JOSEP TRUETA;AV FRANÇA, S/N;Girona;GIRONA;17007;431;51961,36;GENERAL;03:00;23:59;41,997759107;2,82016654900002;gerencia@htrueta.scs.es;972940200
280;CLÍNICA BOFILL;RD SANT ANTONI MARIA CLARET,, 20;Girona;GIRONA;17002;47;5666,32;GENERAL;03:00;23:59;41,97965334;2,82071516200006;administracio@clinicabofill.net;972204350
281;CLÍNICA GIRONA;CR JOAN  MARAGALL, 26;Girona;GIRONA;17002;123;14828,88;GENERAL;03:00;23:59;41,979030654;2,82073534700004;cespigol@arrakis.es;972204500
282;CLÍNICA QUIRÚRGICA ONYAR;CR HEROÏNES DE SANTA BÀRBARA, 6;Girona;GIRONA;17004;38;4581,28;GENERAL;03:00;23:59;41,9763342890001;2,82508053300006;documentalista@giroclinic.com;972204900
283;CLÍNICA SALUS INFIRMORUM;PS MOSSÈN LLUÍS CONSTANS, 130;Banyoles;GIRONA;17820;100;12056,0;GERIATRÍA Y/O LARGA ESTANCIA;03:00;23:59;42,1151229120001;2,76140395200002;si.direc@teleline.es;972570208
284;HOSPITAL DE SANT JAUME;CR JAUME ARCELOS, 1;Blanes;GIRONA;17300;23;2772,88;GERIATRÍA Y/O LARGA ESTANCIA;03:00;23:59;41,6761882600001;2,78752313900003;salut@salutms.cat;972331550
285;HOSPITAL DE CAMPDEVÀNOL;CT DE GOMBREN, 20;Campdevànol;GIRONA;17530;80;9644,8;GENERAL;03:00;23:59;42,222285979;2,16739513100003;gerencia@hoscamp.com;972730028
286;HOSPITAL DE FIGUERES;RD RECTOR AROLAS, S/N;Figueres;GIRONA;17600;168;20254,08;GENERAL;03:00;23:59;42,267953065;2,95465395100007;direccio@hospfig.es;972501400
287;CLÍNICA SANTA CREU;CR PERE III,, 41;Figueres;GIRONA;17600;35;4219,6;GENERAL;03:00;23:59;42,262094598;2,96169104600006;administracio@clinicasantacreu.com;972503650
288;HOSPITAL SOCIOSANITARI DE LLORET DE MAR;CR VALL DE VENECIA,, 59;Lloret de Mar;GIRONA;17310;63;7595,28;GERIATRÍA Y/O LARGA ESTANCIA;03:00;23:59;41,700903538;2,85325708700003;salut@salutms.org;972364736
289;HOSPITAL D'OLOT I COMARCAL DE LA GARROTXA;AV PAÏSOS  CATALANS, 86;Olot;GIRONA;17800;137;16516,72;GENERAL;03:00;23:59;42,1871168340001;2,46851789600004;direccio@hospiolot.com;972261800
290;HOSPITAL DE PALAMÓS;CR HOSPITAL., 36;Palamós;GIRONA;17230;136;16396,16;GENERAL;03:00;23:59;41,8528345350001;3,13101314500005;direccio@hosppal.es;972600160
291;HOSPITAL PSIQUIÀTRIC;CR DOCTOR CASTANY,, S/N;Salt;GIRONA;17190;593;71492,08;PSIQUIÁTRICO;03:00;23:59;41,9723323320001;2,79759363900007;atenciousuari@ias.scs.es;972182512
292;RESIDÈNCIA DE GENT GRAN PUIG D'EN ROCA;CR ANTONI VARES I MARTINELL, 37;Girona;GIRONA;17007;55;6630,8;GERIATRÍA Y/O LARGA ESTANCIA;03:00;23:59;41,9951615940001;2,81308161600003;rgg_puigroca.benestar@gencat.cat;972209250
293;HOSPITAL COMARCAL DE BLANES;CT ACCÉS CALA SANT FRANCESC, 5;Blanes;GIRONA;17300;121;14587,76;GENERAL;03:00;23:59;41,682801065;2,80150260300007;csselva@conecta.es;972353264
294;RESIDÈNCIA GERIÀTRICA MARIA GAY;CR PORTAL NOU, 12;Girona;GIRONA;17004;24;2893,44;GERIATRÍA Y/O LARGA ESTANCIA;03:00;23:59;41,9829499590001;2,82640743600007;info.mgay@irsjg.org;972205045
295;HOSPITAL SOCIOSANITARI MUTUAM GIRONA;AV FRANÇA, 64;Girona;GIRONA;17007;90;10850,4;GERIATRÍA Y/O LARGA ESTANCIA;03:00;23:59;41,993457446;2,81963362000005;mutuam@mutuam.com;972171819
296;CENTRE SOCIOSANITARI DE PUIGCERDÀ;CM ANTIC DE LLÍVIA, S/N;Puigcerdà;GIRONA;17520;52;6269,12;GERIATRÍA Y/O LARGA ESTANCIA;03:00;23:59;42,438642487;1,94133136500005;jcatala@hospitalpuigcerda.com;972880150
297;CENTRE SOCIOSANITARI BERNAT JAUME;RD RECTOR AROLAS, S/N;Figueres;GIRONA;17600;121;14587,76;GERIATRÍA Y/O LARGA ESTANCIA;03:00;23:59;42,267953065;2,95465395100007;hospital@hospitaldefigueres.com;972501400
298;INSTITUT CATALÀ D'ONCOLOGIA GIRONA - HOSPITAL JOSEP TRUETA;AV FRANÇA, S/N;Girona;GIRONA;17007;26;3134,56;ONCOLÓGICO;03:00;23:59;41,9938555530001;2,81947534400007;ccalle@iconcologia.net;972940200
299;HOSPITAL SANTA CATERINA-IAS;AV DOCTOR CASTANY (P. H. MARTÍ I JULIÀ), S/N;Salt;GIRONA;17190;178;21459,68;GENERAL;03:00;23:59;41,970361853;2,79644699700003;gerencia@ias.scs.es;972182600
300;CENTRE PALAMÓS GENT GRAN;CR PROVENÇA, 36;Palamós;GIRONA;17230;100;12056,0;GERIATRÍA Y/O LARGA ESTANCIA;03:00;23:59;41,8497108880001;3,12192255000002;ncomes@ssibe.cat;972600160
301;CENTRE SOCIOSANITARI PARC HOSPITALARI MARTÍ I JULIÀ;CR DR. CASTANY, S/N;Salt;GIRONA;17190;120;14467,2;GERIATRÍA Y/O LARGA ESTANCIA;03:00;23:59;41,9723323320001;2,79759363900007;atenciousuari@ias.scs.es;972182512
302;HOSPITAL DE CERDANYA / HÔPITAL DE CERDAGNE;CM D'UR, 31;Puigcerdà;GIRONA;17520;66;7956,96;GENERAL;03:00;23:59;42,4399626260001;1,92951540200005;dir@hcerdanya.eu;972114090
303;HOSPITAL SAN RAFAEL;C/ SAN JUAN DE DIOS, 19-23;Granada;GRANADA;18001;166;20012,96;GENERAL;03:00;23:59;37,181043;-3,60271799999992;centrosanrafael@sjd.es;958275700
304;HOSPITAL DE LA INMACULADA CONCEPCIÓN;DR ALEJANDRO OTERO, 8;Granada;GRANADA;18004;95;11453,2;QUIRÚRGICO;03:00;23:59;37,1637439410001;-3,60792395399994;informacion@hospital-inmaculada.es;958187700
305;HOSPITAL DE BAZA;CTRA. DE MURCIA, KM. 1,6;Baza;GRANADA;18800;117;14105,52;GENERAL;03:00;23:59;37,5002983580001;-2,75227544499995;josea.reche.sspa@juntadeandalucia.es;958031303
306;HOSPITAL SANTA ANA;AV. ENRIQUE MARTÍN CUEVAS, S/N;Motril;GRANADA;18600;187;22544,72;GENERAL;03:00;23:59;36,755238541;-3,52044787799997;francisco.perez.saez.sspa@juntadeandalucia.es;958038200
307;HOSPITAL UNIVERSITARIO VIRGEN DE LAS NIEVES;AV. FUERZAS ARMADAS, 2;Granada;GRANADA;18014;711;85718,16;GENERAL;03:00;23:59;37,1897586040001;-3,61251612399997;jluis.martinez.sspa@juntadeandalucia.es;958020000
308;HOSPITAL DE ALTA RESOLUCIÓN DE GUADIX;MARIANA PINEDA, S/N;Guadix;GRANADA;18500;50;6028,0;GENERAL;03:00;23:59;37,309870061;-3,14559584599994;sugerencias@ephpo.es;958699153
309;HOSPITAL DE ALTA RESOLUCIÓN DE LOJA;AVDA. TIERNO GALVÁN, S/N;Loja;GRANADA;18300;22;2652,32;GENERAL;03:00;23:59;37,171053247;-4,15470820899998;;958338100
310;HOSPITAL VITHAS LA SALUD;AV. SANTA MARÍA DE LA ALHAMBRA S/N;Granada;GRANADA;18008;77;9283,12;GENERAL;03:00;23:59;37,1637401560001;-3,57183895899993;torres@vithas.es;958001450
311;HOSPITAL UNIVERSITARIO SAN CECILIO;AVDA. DE LA INVESTIGACIÓN, S/N.;Granada;GRANADA;18016;543;65464,08;GENERAL;03:00;23:59;37,187785767;-3,60561226899995;;958020000
312;HOSPITAL UNIVERSITARIO DE GUADALAJARA;DONANTES DE SANGRE, S/N;Guadalajara;GUADALAJARA;19002;432;52081,92;GENERAL;03:00;23:59;40,6201556990001;-3,15222613399993;hospital.guadalajara@sescam.jccm.es;949209200
313;CLÍNICA LA ANTIGUA;CONSTITUCIÓN, 18;Guadalajara;GUADALAJARA;19003;57;6871,92;GENERAL;03:00;23:59;40,6295010000001;-3,17652299999997;info@clinicalaantigua.es;949223600
314;CLÍNICA DR. SANZ VÁZQUEZ;PASEO DOCTOR FERNÁNDEZ IPARRAGUIRRE, 6;Guadalajara;GUADALAJARA;19001;40;4822,4;GENERAL;03:00;23:59;40,63016521;-3,16471520499994;pablo.rojo@grupohla.com;949227200
315;U.R.R. DE ENFERMOS PSÍQUICOS ALCOHETE;CARRETERA DE GUADALAJARA A CUENCA, KM. 8.200;Yebes;GUADALAJARA;19141;165;19892,4;PSIQUIÁTRICO;03:00;23:59;40,52529;-3,08868999999993;moalba@jccm.es;949885402
316;INSTITUTO DE ENFERMEDADES NEUROLÓGICAS DE CASTILLA-LA MANCHA;PASEO DE LA ESTACIÓN, 2;Guadalajara;GUADALAJARA;19004;147;17722,32;OTROS MONOGRÁFICOS;03:00;23:59;40,6414258820001;-3,17254278799993;correo.ien@sescam.jccm.es;949211500
317;MUTUALIA-CLINICA PAKEA;Pº DE ARRIOLA, 26;Donostia/San Sebastián;GUIPÚZCOA;20018;29;3496,24;QUIRÚRGICO;03:00;23:59;43,311553481;-2,01343493599995;clinicapakea@mutualia.es;943212600
318;HOSPITAL RICARDO BERMINGHAM (FUNDACIÓN MATIA);CAMINO DE LOS PINOS, 35;Donostia/San Sebastián;GUIPÚZCOA;20018;105;12658,8;GERIATRÍA Y/O LARGA ESTANCIA;03:00;23:59;43,303945663;-2,00122525599994;ana.orbegozo@matiafundazioa.net;943317100
319;POLICLÍNICA GIPUZKOA, S.A.;PARQUE  MIRAMÓN, 174;Donostia/San Sebastián;GUIPÚZCOA;20014;149;17963,44;GENERAL;03:00;23:59;43,2887882270001;-1,98048508699998;asun.guezuraga@quironsalud.es;943002851
320;HOSPITAL QUIRÓN SALUD DONOSTIA;ALKOLEA, 7;Donostia/San Sebastián;GUIPÚZCOA;20012;48;5786,88;GENERAL;03:00;23:59;43,3152473160001;-1,97380892099994;direccion.ss@quironsalud.es;943437100
321;FUNDACIÓN ONKOLOGIKOA FUNDAZIOA;Pº. DR. BEGIRISTAIN, 121;Donostia/San Sebastián;GUIPÚZCOA;20014;45;5425,2;ONCOLÓGICO;03:00;23:59;43,291404609;-1,97381724099995;;943328000
322;ORGANIZACIÓN SANITARIA INTEGRADA BIDASOA (OSI BIDASOA);FINCA ZUBIETA. Bº. MENDELU, S/N;Hondarribia;GUIPÚZCOA;20280;101;12176,56;GENERAL;03:00;23:59;43,3421314350001;-1,81477623299998;osintegradabidasoa@osakidetza.net;943007702
323;ORGANIZACIÓN SANITARIA INTEGRADA ALTO DEBA;AVDA. NAVARRA, 16;Arrasate/Mondragón;GUIPÚZCOA;20500;90;10850,4;GENERAL;03:00;23:59;43,0632644980001;-2,48283580999993;direccion.haltodeba@osakidetza.eus;943035300
324;HOSPITAL AITA MENNI;BARRIO GESALIBAR, 15;Arrasate/Mondragón;GUIPÚZCOA;20509;442;53287,52;PSIQUIÁTRICO;03:00;23:59;43,063076494;-2,52971249899997;gerencia@aita-menni.org;943794411
325;HOSPITAL PSIQUIÁTRICO SAN JUAN DE DIOS;BARRIO GESALIBAR, 14;Arrasate/Mondragón;GUIPÚZCOA;20509;299;36047,44;PSIQUIÁTRICO;03:00;23:59;43,064162115;-2,53104594599995;mondragon.hospital@hsjd.es;943793900
326;CLINICA SANTA MARÍA DE LA ASUNCIÓN, (INVIZA, S.A.);CTRA. IZASKUN, 9;Tolosa;GUIPÚZCOA;20400;120;14467,2;GENERAL;03:00;23:59;43,137582342;-2,06987108599998;info@clinicadelaasuncion.com;943697000
327;SANATORIO DE USURBIL, S.L.;BARRIO SAN ESTEBAN, 48;Usurbil;GUIPÚZCOA;20170;80;9644,8;PSIQUIÁTRICO;03:00;23:59;43,2666478150001;-2,05476622099997;aolano@sanatoriodeusurbil.com;943361124
328;HOSPITAL DE ZUMARRAGA;BARRIO ARGIXAO, S/N;Zumarraga;GUIPÚZCOA;20700;128;15431,68;GENERAL;03:00;23:59;43,0837119240001;-2,31275224299998;secretaria.hospizumarraga@osakidetza.eus;943035000
329;HOSPITAL DE MENDARO;Bº. MENDAROZABAL, S/N;Mendaro;GUIPÚZCOA;20850;119;14346,64;GENERAL;03:00;23:59;43,250273066;-2,38525855599994;secretariadireccion.osidebabarrena@osakidetza.eus;943032800
330;HOSPITAL UNIVERSITARIO DONOSTIA-DONOSTIA UNIBERTSITATE OSPITALEA;Pº DR. BEGUIRISTAIN, 109;Donostia/San Sebastián;GUIPÚZCOA;20014;1054;127070,24;GENERAL;03:00;23:59;43,2924603160001;-1,96903861099997;OSID.GERENTZIA@osakidetza.eus;943007060
331;HOSPITAL SAN JUAN DE DIOS DONOSTIA;CAMINO DE SAN JUAN DE DIOS, 12;Donostia/San Sebastián;GUIPÚZCOA;20009;81;9765,36;PSIQUIÁTRICO;03:00;23:59;43,3003484710001;-1,97725049999997;ss.hospital@hsjd.es;943460033
332;HOSPITAL INFANTA ELENA;DR. PEDRO NARANJO RODRÍGUEZ, S/N;Huelva;HUELVA;21080;304;36650,24;GENERAL;03:00;23:59;37,280045;-6,912472;direccion.hie.sspa@juntadeandalucia.es;959015132
333;HOSPITAL BLANCA PALOMA;AVDA. DIEGO MORÓN, 3;Huelva;HUELVA;21005;203;24473,68;GENERAL;03:00;23:59;37,279975048;-6,93987404099994;huelva.secretaria@jmpascual.com;959012100
334;CLÍNICA LOS NARANJOS;Pº DE LOS NARANJOS, 1;Huelva;HUELVA;21004;25;3014,0;GENERAL;03:00;23:59;37,2624309220001;-6,94927309099995;admon.naranjoscitra@asisa.es;959243900
335;HOSPITAL DE RIOTINTO;AVDA. LA ESQUILA, 5;Minas de Riotinto;HUELVA;21660;118;14226,08;GENERAL;03:00;23:59;37,693674104;-6,59782436399996;secdireccion.dsa.sspa@juntadeandalucia.es;959025295
336;HOSPITAL UNIVERSITARIO JUAN RAMÓN JIMÉNEZ;RONDA NORTE, S/N;Huelva;HUELVA;21005;891;107418,96;GENERAL;03:00;23:59;37,2807571160001;-6,92558683399994;;959016000
337;HOSPITAL COSTA DE LA LUZ;C/ PUNTA UMBRÍA, 8;Huelva;HUELVA;21002;56;6751,36;GENERAL;03:00;23:59;37,2675253890001;-6,95674946799994;correo@hospitalcostadelaluz.com;959242100
338;HOSPITAL VIRGEN DE LA BELLA;AVENIDA LAS ROSAS, S/N;Lepe;HUELVA;21440;61;7354,16;GENERAL;03:00;23:59;37,2591759690001;-7,19423275099996;;649902722
339;HOSPITAL GENERAL SAN JORGE;AV. MARTÍNEZ DE VELASCO, 36;Huesca;HUESCA;22004;297;35806,32;GENERAL;03:00;23:59;42,13176064;-0,42022762199997;gmontero@salud.aragon.es;974247000
340;CENTRO DE REHAB. PSICOSOCIAL SANTO CRISTO DE LOS MILAGROS;CTRA. DE ARGUIS, KM. 2,5;Huesca;HUESCA;22006;110;13261,6;PSIQUIÁTRICO;03:00;23:59;42,122253777;-0,380759999999952;gmontero@salud.aragon.es;974220772
341;HOSPITAL SAGRADO CORAZÓN DE JESÚS;PASEO LUCAS MALLADA, 22;Huesca;HUESCA;22006;70;8439,2;GERIATRÍA Y/O LARGA ESTANCIA;03:00;23:59;42,1422763480001;-0,40137137499994;gmontero@salud.aragon.es;974292000
342;HOSPITAL VIAMED SANTIAGO;SARIÑENA, 12;Huesca;HUESCA;22004;40;4822,4;GENERAL;03:00;23:59;42,1413459780001;-0,41715215399995;bnasarre@viamedsantiago.com;974220600
343;HOSPITAL DE BARBASTRO;CTRA. NACIONAL 240, S/N;Barbastro;HUESCA;22300;172;20736,32;GENERAL;03:00;23:59;42,033198122;0,111056461000032;sectorbarbastro@salud.aragon.es;974249000
344;HOSPITAL DE JACA.SALUD;CARRETERA DE RAPITÁN S/N;Jaca;HUESCA;22700;50;6028,0;GENERAL;03:00;23:59;42,578998664;-0,541864335999946;gmontero@salud.aragon.es;974355331
345;CENTRO SANITARIO BAJO CINCA-BAIX CINCA;HERMANA ANDRESA, 2;Fraga;HUESCA;22520;20;2411,2;OTRA FINALIDAD;03:00;23:59;41,524266633;0,340602082000032;cefraga@salud.aragon.es;974474545
346;CLÍNICA CRISTO REY;PASEO DE LA ESTACIÓN, 40;Jaén;JAÉN;23008;39;4701,84;QUIRÚRGICO;03:00;23:59;37,7755694210001;-3,78904715899995;;953250440
347;HOSPITAL SAN AGUSTÍN;AVDA. DE SAN CRISTÓBAL, S/N;Linares;JAÉN;23700;204;24594,24;GENERAL;03:00;23:59;38,088685119;-3,64334836199993;;953024200
348;HOSPITAL SAN JUAN DE LA CRUZ;CTRA. DE LINARES, KM. 1;Úbeda;JAÉN;23400;231;27849,36;GENERAL;03:00;23:59;38,0193430900001;-3,38512309499993;;953028200
349;HOSPITAL UNIVERSITARIO DE JAÉN;AVDA. DEL EJÉRCITO ESPAÑOL, 10;Jaén;JAÉN;23007;805;97050,8;GENERAL;03:00;23:59;37,7743399940001;-3,79143619199994;;953008010
350;HOSPITAL ALTO GUADALQUIVIR;AV. BLAS INFANTE, S/N;Andújar;JAÉN;23740;67;8077,52;GENERAL;03:00;23:59;38,0404188540001;-4,03085457399993;gerencia@ephag.es;953021575
351;HOSPITAL DE ALTA RESOLUCIÓN SIERRA DE SEGURA;CRTRA PUENTE DE GÉNAVE-LA PUERTA DE SEGURA KM 0,300;Puente de Génave;JAÉN;23350;24;2893,44;GENERAL;03:00;23:59;38,3602649800001;-2,78734027999997;gerencia@ephag.es;953499012
352;HOSPITAL DE ALTA RESOLUCIÓN DE ALCAUDETE;CAMINO VIEJO DE LA FUENSANTA, 2;Alcaudete;JAÉN;23660;16;1928,96;GENERAL;03:00;23:59;37,5867839480001;-4,08094005499993;gerencia@ephag.es;953368211
353;HOSPITAL DE ALTA RESOLUCIÓN DE ALCALÁ LA REAL;AVDA. IBEROAMÉRICA, S/N;Alcalá la Real;JAÉN;23680;28;3375,68;GENERAL;03:00;23:59;37,4541530060001;-3,93146189399994;gerencia@ephag.es;953599008
354;REGLA HM HOSPITALES;CARDENAL LANDÁZURI, 2;León;LEÓN;24003;130;15672,8;GENERAL;03:00;23:59;42,600927101;-5,56747734299995;jsaz@hospitalesmadrid.com;987236900
355;HOSPITAL HM SAN FRANCISCO;MARQUESES DE SAN ISIDRO, 11;León;LEÓN;24004;75;9042,0;GENERAL;03:00;23:59;42,589989754;-5,57257581799996;jsaz@hospitalesmadrid.com;987202111
356;HOSPITAL EL BIERZO;MÉDICOS SIN FRONTERAS, 7;Ponferrada;LEÓN;24404;408;49188,48;GENERAL;03:00;23:59;42,5722522460001;-6,64372823999997;gerente.hbrz@saludcastillayleon.es;987455200
357;HOSPITAL DE LA REINA;HOSPITAL, 26-28;Ponferrada;LEÓN;24401;72;8680,32;GENERAL;03:00;23:59;42,5414045690001;-6,59293109899994;felixrapun@hospital-reina.com;987409109
358;HOSPITAL SAN JUAN DE DIOS;AV. SAN IGNACIO DE LOYOLA, 73;San Andrés del Rabanedo;LEÓN;24010;297;35806,32;GENERAL;03:00;23:59;42,6076739900001;-5,59350251399997;leon.hospital@hsjd.es;987232500
359;COMPLEJO ASISTENCIAL UNIVERSITARIO DE LEÓN;ALTOS DE LA NAVA S/N;León;LEÓN;24080;1056;127311,36;GENERAL;03:00;23:59;42,619367;-5,573423;gerente.hleo@saludcastillayleon.es;987237400
360;CLÍNICA ALTOLLANO;LA FUENTINA, S/N. LLANOS DE NAVA. NAVATEJERA;Villaquilambre;LEÓN;24193;110;13261,6;GENERAL;03:00;23:59;42,6554541090001;-5,56527749999998;beatriz@altollano.org;987286000
361;CLÍNICA PONFERRADA;AV. DE GALICIA, 1;Ponferrada;LEÓN;24404;46;5545,76;GENERAL;03:00;23:59;42,5491853710001;-6,62881990099993;gerencia@clinicaponferrada.com;987423732
362;HOSPITAL VALLE DE LACIANA;AV. DE ASTURIAS, S/N;Villablino;LEÓN;24100;15;1808,4;GERIATRÍA Y/O LARGA ESTANCIA;03:00;23:59;42,9409948890001;-6,32432841799994;araceli.frances@ute-orthem.provire.es;987481057
363;HOSPITAL UNIVERSITARI ARNAU DE VILANOVA DE LLEIDA.;AV ALCALDE  ROVIRA  ROURE, 80;Lleida;LLEIDA;25198;463;55819,28;GENERAL;03:00;23:59;41,6267580680001;0,612839466000025;arnau@arnau.scs.es;973248100
364;HOSPITAL SANTA MARIA;AV ALCALDE ROVIRA ROURE, 44;Lleida;LLEIDA;25198;229;27608,24;GENERAL;03:00;23:59;41,624369442;0,618079723000051;gerencia@gss.scs.es;973727222
365;VITHAS HOSPITAL MONTSERRAT;CR BISBE TORRES, 13;Lleida;LLEIDA;25002;47;5666,32;GENERAL;03:00;23:59;41,612801679;0,620679275000043;egean@vithas.es;973266300
366;CLÍNICA PERPETUO SOCORRO DE LÉRIDA, GRUPO HLA, SLU;CR BISBE MESSEGUER, 3;Lleida;LLEIDA;25003;58;6992,48;GENERAL;03:00;23:59;41,614422109;0,618898631000036;ipaules@asisa.es;973266100
367;CLÍNICA TERRES DE PONENT;AV ENRIC PRAT DE LA RIBA, 79-81;Lleida;LLEIDA;25004;123;14828,88;GENERAL;03:00;23:59;41,6220902650001;0,626497125000071;gerencia@clinicalleida.com;973232943
368;CLÍNICA PSIQUIÀTRICA BELLAVISTA;AV ROVIRA ROURE, 116;Lleida;LLEIDA;25198;75;9042,0;PSIQUIÁTRICO;03:00;23:59;41,6268791030001;0,607974469000055;clinicabellavista@clinicabellavista.com;973231698
369;FUNDACIÓ SANT HOSPITAL.;PS JOAN BRUDIEU, 8;Seu d'Urgell, La;LLEIDA;25700;88;10609,28;GENERAL;03:00;23:59;42,3548538270001;1,46071322200004;hospital@fsh.cat;973350050
370;CENTRE SANITARI DEL SOLSONÈS, FPC;PL ANTONI GUITART,, 1;Solsona;LLEIDA;25280;32;3857,92;GERIATRÍA Y/O LARGA ESTANCIA;03:00;23:59;41,993281494;1,51615207200007;info@cssolsones.com;973481172
371;HOSPITAL COMARCAL DEL PALLARS;AV PAU CASALS, 5;Tremp;LLEIDA;25620;63;7595,28;GENERAL;03:00;23:59;42,1644784320001;0,897364985000024;hcp@hospitalpallars.com;973652255
372;ESPITAU VAL D'ARAN;CR ESPITAU,, 8;Vielha e Mijaran;LLEIDA;25530;31;3737,36;GENERAL;03:00;23:59;42,702210344;0,797402431000023;xavig@aransalut.com;973640004
373;HESTIA BALAGUER.;CR GREGORI GALLEGO, 22-28;Balaguer;LLEIDA;25600;120;14467,2;GERIATRÍA Y/O LARGA ESTANCIA;03:00;23:59;41,7889118690001;0,816425695000021;hospitaljaumeurgell@jaumeurgell.org;973450304
374;RESIDÈNCIA TERRAFERMA;CR PARTIDA DEL GRAÓ, S/N;Alpicat;LLEIDA;25110;137;16516,72;GERIATRÍA Y/O LARGA ESTANCIA;03:00;23:59;41,664705;0,55171656400006;;973737455
375;CASTELL D'OLIANA RESIDENCIAL,S.L;CT DE LLEIDA A PUIGCERDÀ, .89;Oliana;LLEIDA;25790;20;2411,2;PSIQUIÁTRICO;03:00;23:59;42,0707526190001;1,31168080900005;ccoello@caseresidencial.es;973463030
376;HOSPITAL JAUME NADAL MEROLES;CR ACADÈMIA, 41;Lleida;LLEIDA;25002;126;15190,56;GERIATRÍA Y/O LARGA ESTANCIA;03:00;23:59;41,6100997720001;0,617328183000041;direccion.jnadal@sarquavitae.es;973289333
377;SANT JOAN DE DÉU TERRES DE LLEIDA;CT N-240, .111;Almacelles;LLEIDA;25100;29;3496,24;PSIQUIÁTRICO;03:00;23:59;41,7494020290001;0,417043093000075;almacelles@sjd-lleida.org;973740010
378;REEIXIR;CR AFORES, S/N;Juneda;LLEIDA;25430;44;5304,64;PSIQUIÁTRICO;03:00;23:59;41,551853056;0,814340000000072;apedra@comll.cat;973269543
379;HOSPITAL SANT JOAN DE DÉU LLEIDA;AV CANADENCA, 28;Lleida;LLEIDA;25001;130;15672,8;PSIQUIÁTRICO;03:00;23:59;41,5890335230001;0,684735000000046;almacelles@sjd-lleida.org;973740010
380;COMPLEJO HOSPITALARIO SAN MILLAN SAN PEDRO DE LA RIOJA;C/ PIQUERAS 98;Logroño;LA RIOJA;26006;590;71130,4;GENERAL;03:00;23:59;42,4523058520001;-2,42217625899997;gerencia_srs@riojasalud.es;941298000
381;POLICLÍNICO RIOJANO NUESTRA SEÑORA DE VALVANERA, S.A.;CALLE RAMÓN Y CAJAL S/N;Logroño;LA RIOJA;26006;87;10488,72;GENERAL;03:00;23:59;42,451241259;-2,42404871499997;jl@viamedlosmanzanos.com;941211900
382;FUNDACIÓN HOSPITAL CALAHORRA;CTRA. LOGROÑO, S/N;Calahorra;LA RIOJA;26500;80;9644,8;GENERAL;03:00;23:59;42,3135272710001;-1,98034014499996;gerencia.fhc@riojasalud.es;941151003
383;CLÍNICA LOS MANZANOS;HERMANOS MARISTAS S/N;Lardero;LA RIOJA;26140;52;6269,12;MÉDICO-QUIRÚRGICO;03:00;23:59;42,415695;-2,47368200299996;jl@viamedlosmanzanos.com;941499490
384;CENTRO ASISTENCIAL DE ALBELDA DE IREGUA;CRTA. SORIA KM. 8;Albelda de Iregua;LA RIOJA;26120;140;16878,4;PSIQUIÁTRICO;03:00;23:59;42,3639150000001;-2,47333561899995;;941279220
385;CENTRO SOCIOSANITARIO DE CONVALECENCIA LOS JAZMINES;SEVERO OCHOA, 5;Haro;LA RIOJA;26200;26;3134,56;GERIATRÍA Y/O LARGA ESTANCIA;03:00;23:59;42,569420472;-2,84643074299993;vfe@viamedlosjazmines.com;941303650
386;CENTRO  SOCIOSANITARIO  DE CONVALECENCIA NUESTRA SEÑORA VIRGEN DEL CARMEN;SANTIAGO RAMÓN Y CAJAL S/N;Calahorra;LA RIOJA;26500;75;9042,0;GERIATRÍA Y/O LARGA ESTANCIA;03:00;23:59;42,301664712;-1,96133444499998;jl@viamedlosmanzanos.com;941010000
387;COMPLEXO HOSPITALARIO UNIVERSITARIO DE LUGO;ULISES ROMERO, 1;Lugo;LUGO;27003;848;102234,88;GENERAL;03:00;23:59;43,025128189;-7,56423499999994;;982296000
388;HOSPITAL POLUSA;DOUTOR IGLESIAS OTERO, S/N;Lugo;LUGO;27004;97;11694,32;GENERAL;03:00;23:59;42,9980828010001;-7,56765269999994;POLUSA@POLUSA.ES;982222854
389;SANATORIO NOSA SEÑORA DOS OLLOS GRANDES;MONTEVIDEO, 23;Lugo;LUGO;27001;69;8318,64;GENERAL;03:00;23:59;43,011895243;-7,56204556699993;ADMINISTRACION@NSOG.ES;982284040
390;HOSPITAL PUBLICO DA MARIÑA (*);MEDICO VIOR, S/N;Burela;LUGO;27880;139;16757,84;GENERAL;03:00;23:59;43,6522406020001;-7,35969445899997;;982589901
391;HOSPITAL DE MONFORTE (*);CORREDOIRA, S/N;Monforte de Lemos;LUGO;27400;140;16878,4;GENERAL;03:00;23:59;42,5272663170001;-7,51932494399995;;982417900
392;HOSPITAL RAMÓN Y CAJAL;CTRA. DE COLMENAR VIEJO, KM. 9,1;Madrid;MADRID;28034;901;108624,56;GENERAL;03:00;23:59;40,487352537;-3,69383854899996;gencia.hrc@salud.madrid.org;913368000
393;HOSPITAL UNIVERSITARIO 12 DE OCTUBRE;AV. DE CÓRDOBA, S/N;Madrid;MADRID;28041;1196;144189,76;GENERAL;03:00;23:59;40,3760856100001;-3,69897211499995;gerent.hdoc@salud.madrid.org;913908373
394;HOSPITAL CLÍNICO SAN CARLOS;PROF. MARTÍN LAGOS, S/N;Madrid;MADRID;28040;861;103802,16;GENERAL;03:00;23:59;40,4406569450001;-3,71993244699996;gerent.hcsc@salud.madrid.org;913303000
395;HOSPITAL UNIVERSITARIO SANTA CRISTINA;MAESTRO VIVES, 2;Madrid;MADRID;28009;156;18807,36;GENERAL;03:00;23:59;40,4217986;-3,67099294399998;gencia.hscr@salud.madrid.org;915574300
396;HOSPITAL UNIVERSITARIO DE LA PRINCESA;DIEGO DE LEÓN, 62;Madrid;MADRID;28006;524;63173,44;GENERAL;03:00;23:59;40,434030944;-3,67574555799996;gencia.hlpr@salud.madrid.org;915202200
397;HOSPITAL INFANTIL UNIVERSITARIO NIÑO JESUS;AV. MENÉNDEZ PELAYO, 65;Madrid;MADRID;28009;170;20495,2;INFANTIL;03:00;23:59;40,4143571160001;-3,67608902999996;gerent.hnjs@salud.madrid.org;915035900
398;HOSPITAL CENTRAL DE LA CRUZ ROJA SAN JOSÉ Y SANTA ADELA;AV. DE LA REINA VICTORIA, 22-24;Madrid;MADRID;28003;154;18566,24;GENERAL;03:00;23:59;40,447152471;-3,70693215899996;gerent.hccruzr@salud.madrid.org;914538300
399;COMPLEJO HOSPITALARIO GREGORIO MARAÑÓN;DR ESQUERDO, 46;Madrid;MADRID;28007;1349;162635,44;GENERAL;03:00;23:59;40,4193239480001;-3,66922808299995;gerencia.hgugm@salud.madrid.org;915868000
400;HOSPITAL DR. R. LAFORA;CTRA. DE COLMENAR VIEJO, KM. 13,8;Madrid;MADRID;28049;334;40267,04;PSIQUIÁTRICO;03:00;23:59;40,5319545460001;-3,69124082199994;gerent.hlafora@salud.madrid.org;915867500
401;SANATORIO NUESTRA SEÑORA DEL ROSARIO;PRÍNCIPE DE VERGARA, 53;Madrid;MADRID;28006;176;21218,56;GENERAL;03:00;23:59;40,4319981580001;-3,67959715599994;secretaria@hospitalrosario.com;914359100
402;HOSPITAL SAN RAFAEL;SERRANO, 199;Madrid;MADRID;28016;188;22665,28;GENERAL;03:00;23:59;40,4519595190001;-3,68144761099995;sanrafael.secretaria@hsjd.es;915649943
403;HOSPITAL DE LA V.O.T. DE SAN FRANCISCO DE ASÍS;SAN BERNABÉ, 13;Madrid;MADRID;28005;72;8680,32;GENERAL;03:00;23:59;40,4090898370001;-3,71396072399995;administrador@hospitalvot.es;913657600
404;HOSPITAL QUIRÓNSALUD SAN JOSÉ;CARTAGENA, 111;Madrid;MADRID;28002;84;10127,04;QUIRÚRGICO;03:00;23:59;40,4405496250001;-3,67439087699995;info.sanjose@quironsalud.es;910687000
405;HOSPITAL BEATA MARÍA ANA. HH. HOSPITALARIAS SGDO. C. DE JESÚS;DR ESQUERDO, 83;Madrid;MADRID;28007;160;19289,6;MÉDICO-QUIRÚRGICO;03:00;23:59;40,418052485;-3,66911805199993;acapilla.hbma@hospitalarias.es;914097423
406;CLÍNICA SANTA ELENA;LA GRANJA, 8;Madrid;MADRID;28003;76;9162,56;GENERAL;03:00;23:59;40,4456960740001;-3,71713894999994;informacion@clinica-santa-elena.org;914539400
407;HOSPITAL SAN FRANCISCO DE ASÍS;JOAQUÍN COSTA, 28;Madrid;MADRID;28002;168;20254,08;GENERAL;03:00;23:59;40,442606068;-3,68288271699993;jmanuel.lopez@ssfda.com;915617100
408;CLÍNICA SAN MIGUEL;ARTURO SORIA, 204;Madrid;MADRID;28043;94;11332,64;PSIQUIÁTRICO;03:00;23:59;40,4598045120001;-3,66053567699993;cpolidura.sanmiguel@hospitalarias.es;914135011
409;CLÍNICA NUESTRA SRA. DE LA PAZ;LÓPEZ DE HOYOS, 259;Madrid;MADRID;28043;99;11935,44;PSIQUIÁTRICO;03:00;23:59;40,4567928020001;-3,66095257799998;elvira.conde@sjd.es;914156000
410;FUNDACIÓN INSTITUTO SAN JOSÉ;C\ PINAR DE SAN JOSÉ, 98;Madrid;MADRID;28054;259;31225,04;GERIATRÍA Y/O LARGA ESTANCIA;03:00;23:59;40,361935944;-3,77517007699993;fisj@ohsjd.es;915080140
411;HOSPITAL UNIVERSITARIO FUNDACIÓN JIMÉNEZ DÍAZ;AV. DE LOS REYES CATÓLICOS, 2;Madrid;MADRID;28040;659;79449,04;GENERAL;03:00;23:59;40,4385046030001;-3,71890924599995;fjd@fjd.es;915504800
412;HOSPITAL VIRGEN DEL MAR;CALLE HONDURAS, Nº 14;Madrid;MADRID;28016;76;9162,56;GENERAL;03:00;23:59;40,459589529;-3,67854199399994;cibanezr@sanitas.es;913539500
413;HESTIA MADRID (CLÍNICA SEAR, S.A.);CTRA. DE COLMENAR VIEJO, KM. 16;Madrid;MADRID;28049;250;30140,0;GERIATRÍA Y/O LARGA ESTANCIA;03:00;23:59;40,5327457610001;-3,78227558599997;sear@clinicasear.com;917340500
414;HOSPITAL RUBER JUAN BRAVO 39;JUAN BRAVO, 39;Madrid;MADRID;28006;70;8439,2;GENERAL;03:00;23:59;40,4326364450001;-3,67775912999997;secretariadireccion.rjb@quironsalud.es;910687777
415;HOSPITAL VITHAS NUESTRA SEÑORA DE AMÉRICA;ARTURO SORIA, 103;Madrid;MADRID;28043;100;12056,0;GENERAL;03:00;23:59;40,4498106780001;-3,65163876199995;infomadrid@vithas.es;902500112
416;HOSPITAL VIRGEN DE LA PALOMA, S.A.;LOMA, 1;Madrid;MADRID;28003;92;11091,52;QUIRÚRGICO;03:00;23:59;40,4453369020001;-3,71589021199998;facturacion@hospitalvpaloma.com;915348207
417;CLÍNICA LA LUZ, S.L.;MAESTRO ÁNGEL LLORCA, 8;Madrid;MADRID;28003;180;21700,8;MÉDICO-QUIRÚRGICO;03:00;23:59;40,4440887310001;-3,71401461399995;info.laluz@quironsalud.es;914530200
418;FUENSANTA S.L. (CLÍNICA FUENSANTA);ARTURO SORIA, 17;Madrid;MADRID;28027;30;3616,8;QUIRÚRGICO;03:00;23:59;40,4401970640001;-3,63993874599993;jgabiola@grupofuensanta.com;914100200
419;HOSPITAL RUBER JUAN BRAVO 49;JUAN BRAVO, 49;Madrid;MADRID;28006;163;19651,28;GENERAL;03:00;23:59;40,432576453;-3,67630957499995;secretariadireccion.rjb@quironsalud.es;910687999
420;HOSPITAL RUBER INTERNACIONAL;LA MASÓ, 38;Madrid;MADRID;28034;143;17240,08;GENERAL;03:00;23:59;40,4888935270001;-3,71408684099993;ruber.rbi@ruberinternacional.es;913875000
421;CLÍNICA LA MILAGROSA;MODESTO LAFUENTE, 14;Madrid;MADRID;28010;171;20615,76;QUIRÚRGICO;03:00;23:59;40,4370245690001;-3,69635706999998;lamilagrosa@lamilagrosa.com;914472100
422;HOSPITAL UNIVERSITARIO LA ZARZUELA;PLÉYADES, 25 (ARAVACA);Madrid;MADRID;28023;116;13984,96;GENERAL;03:00;23:59;40,462389838;-3,78403759999998;idiezr@sanitas.es;915858016
423;HOSPITAL UNIVERSITARIO HM NUEVO BELEN;JOSÉ SILVA, 7;Madrid;MADRID;28043;60;7233,6;MATERNAL;03:00;23:59;40,455157129;-3,65770117499994;pmonteliu@hmhospitales.com;917444100
424;SANATORIO NEUROPSIQUIÁTRICO DOCTOR LEÓN;PZA MARIANO DE CAVIA, 3;Madrid;MADRID;28007;96;11573,76;PSIQUIÁTRICO;03:00;23:59;40,4076626090001;-3,67827789899997;sanatoriodrleon@telefonica.net , loclileon@hotmail.com;914332948
425;INSTITUTO DE INVESTIGACIONES NEUROPSIQUIÁTRICAS DR. LÓPEZ IBOR;DOCTOR JUAN JOSÉ LÓPEZ IBOR, 2;Madrid;MADRID;28035;67;8077,52;PSIQUIÁTRICO;03:00;23:59;40,4679078440001;-3,72445158699998;info@lopezibor.com;913162740
426;SANATORIO ESQUERDO, S.A.;AV. DE LOS POBLADOS, 70;Madrid;MADRID;28044;115;13864,4;PSIQUIÁTRICO;03:00;23:59;40,381934857;-3,75775973599997;info@sanatorioesquerdo.com;917061100
427;HOSPITAL CENTRAL DE LA DEFENSA GOMEZ ULLA;GLORIETA DEL EJÉRCITO, Nº 1;Madrid;MADRID;28047;475;57266,0;GENERAL;03:00;23:59;40,3879055130001;-3,74552932899996;hcdgomezulla@oc.mde.es;914222000
428;HOSPITAL UNIVERSITARIO PRÍNCIPE DE ASTURIAS;CTRA. ALCALÁ-MECO, S/N;Alcalá de Henares;MADRID;28805;507;61123,92;GENERAL;03:00;23:59;40,51024934;-3,34760208199998;gerent.hupa@salud.madrid.org;918878100
429;HOSPITAL DE LA FUENFRÍA;CTRA. DE LAS DEHESAS, S/N;Cercedilla;MADRID;28470;192;23147,52;GERIATRÍA Y/O LARGA ESTANCIA;03:00;23:59;40,760709687;-4,07409086599995;gerent.hlff@salud.madrid.org;918520300
430;HH. HH. SGDO. C. DE JESÚS. COMPLEJO ASISTENCIAL BENITO MENNI;JARDINES, 1;Ciempozuelos;MADRID;28350;318;38338,08;PSIQUIÁTRICO;03:00;23:59;40,1562350720001;-3,62223452599994;jrodriguez.cabm@hospitalarias.es;918930150
431;CENTRO SAN JUAN DE DIOS;AV. DE SAN JUAN DE DIOS, 1;Ciempozuelos;MADRID;28350;339;40869,84;PSIQUIÁTRICO;03:00;23:59;40,1596863890001;-3,61102488799997;elvira.conde@sjd.es;918930001
432;HOSPITAL MONOGRÁFICO ASEPEYO DE TRAUMAT. CIRUGÍA Y REHABILITACIÓN;JOAQUÍN DE CÁRDENAS, 2;Coslada;MADRID;28823;133;16034,48;TRAUMATOLOGÍA Y/O REHABILITACIÓN;03:00;23:59;40,4370282580001;-3,53136248999994;IGARCIAGISMERA@ASEPEYO.ES;916735011
433;HOSPITAL GUADARRAMA;PASEO DEL MOLINO DEL REY, 2;Guadarrama;MADRID;28440;144;17360,64;GERIATRÍA Y/O LARGA ESTANCIA;03:00;23:59;40,669460497;-4,08611077699993;gerencia.hgua@salud.madrid.org;918562000
434;HOSPITAL UNIVERSITARIO SEVERO OCHOA;AVENIDA DE ORELLANA S/Nº;Leganés;MADRID;28911;386;46536,16;GENERAL;03:00;23:59;40,3218750940001;-3,76786968699997;gencia.hsvo@salud.madrid.org;914818000
435;FREMAP HOSPITAL Y CENTRO DE REHABILITACIÓN DE MAJADAHONDA;CTRA. DE POZUELO, 61;Majadahonda;MADRID;28222;116;13984,96;TRAUMATOLOGÍA Y/O REHABILITACIÓN;03:00;23:59;40,452236896;-3,85132607899993;braulio_garrido@fremap.es;916265642
436;HOSPITAL UNIVERSITARIO DE MÓSTOLES;C/ DR. LUIS MONTES S/N (ANTIGUA C/ RÍO JÚCAR);Móstoles;MADRID;28935;332;40025,92;GENERAL;03:00;23:59;40,3158212770001;-3,87753333599994;gerent.hmtl@salud.madrid.org;916648600
437;HOSPITAL EL ESCORIAL;CTRA. GUADARRAMA - SAN LORENZO DE EL ESCORIAL, KM. 6,2;San Lorenzo de El Escorial;MADRID;28200;91;10970,96;GENERAL;03:00;23:59;40,6074541610001;-4,11955033899994;hospitalelescorial.h@salud.madrid.org;918973000
438;HOSPITAL VIRGEN DE LA POVEDA;CTRA. DEL HOSPITAL, S/N KM. 5;Villa del Prado;MADRID;28630;202;24353,12;GERIATRÍA Y/O LARGA ESTANCIA;03:00;23:59;40,2477761910001;-4,27627727299995;gerenciahvpo@salud.madrid.org;918608000
439;HOSPITAL DE MADRID;PZA CONDE DEL VALLE DE SUCHILL, 16;Madrid;MADRID;28015;99;11935,44;QUIRÚRGICO;03:00;23:59;40,4313188730001;-3,70694708499997;msanchezgalindo@hmhospitales.com;914476600
440;HOSPITAL UNIVERSITARIO DE GETAFE;CRTRA DE TOLEDO, KM. 12,5;Getafe;MADRID;28905;510;61485,6;GENERAL;03:00;23:59;40,3125188940001;-3,74256698899995;gencia.hugf@salud.madrid.org;916839360
441;CLÍNICA ISADORA;PIRINEOS, 7;Madrid;MADRID;28040;19;2290,64;MÉDICO-QUIRÚRGICO;03:00;23:59;40,4571580090001;-3,71652282299993;clinica-isadora@clinica-isadora.es;913111000
442;HOSPITAL UNIVERSITARIO MONCLOA;AV. VALLADOLID, 83;Madrid;MADRID;28008;235;28331,6;GENERAL;03:00;23:59;40,4332431450001;-3,73362436599996;direccion.moncloa@grupohla.com;915957392
443;HOSPITAL UNIVERSITARIO FUNDACIÓN ALCORCÓN;BUDAPEST, 1;Alcorcón;MADRID;28922;400;48224,0;GENERAL;03:00;23:59;40,3488682720001;-3,83739388799995;direcciongerencia@fhalcorcon.es;916219400
444;CLINICA CEMTRO;AV. VENTISQUERO DE LA CONDESA, 42;Madrid;MADRID;28035;94;11332,64;MÉDICO-QUIRÚRGICO;03:00;23:59;40,4935140900001;-3,71697684599997;administracion@clinicacemtro.com;917355757
445;HOSPITAL UNIVERSITARIO HM  MONTEPRÍNCIPE;AV. MONTEPRÍNCIPE, 25;Boadilla del Monte;MADRID;28660;170;20495,2;GENERAL;03:00;23:59;40,4131397020001;-3,84396530299995;lespada@hmhospitales.com;917089900
446;CENTRO ONCOLÓGICO MD ANDERSON INTERNATIONAL ESPAÑA;GÓMEZ HEMANS. 2-4;Madrid;MADRID;28033;99;11935,44;ONCOLÓGICO;03:00;23:59;40,4707217220001;-3,66648950699994;info@mdanderson.es;917878600
447;HOSPITAL QUIRONSALUD SUR;ESTAMBUL, 30;Alcorcón;MADRID;28922;81;9765,36;MÉDICO-QUIRÚRGICO;03:00;23:59;40,342483708;-3,84903466199995;monte.rodriguez@quironsalud.es;916496600
448;HOSPITAL UNIVERSITARIO DE FUENLABRADA;CAMINO DEL MOLINO, 2;Fuenlabrada;MADRID;28942;406;48947,36;GENERAL;03:00;23:59;40,2870767570001;-3,81595151999994;gerencia.hflr@salud.madrid.org;916006000
449;HOSPITAL UNIVERSITARIO HM TORRELODONES;AV. CASTILLO OLIVARES S/N;Torrelodones;MADRID;28250;86;10368,16;GENERAL;03:00;23:59;40,570491744;-3,92559737499994;mvillarinop@hmhospitales.com;912675000
450;COMPLEJO UNIVERSITARIO LA PAZ;Pº DE LA CASTELLANA, 261;Madrid;MADRID;28046;1268;152870,08;GENERAL;03:00;23:59;40,4812402430001;-3,68723143299997;gencia.hulp@salud.madrid.org;917277000
451;HOSPITAL LA MORALEJA;AV. FRANCISCO PI Y MARGALL, 81;Madrid;MADRID;28050;126;15190,56;GENERAL;03:00;23:59;40,492374193;-3,66233561299993;bruiz@sanitas.es;917679100
452;HOSPITAL LOS MADROÑOS;CRTRA. M-501 KM 17,900 (VÍA DE SERVICIO);Brunete;MADRID;28690;53;6389,68;GENERAL;03:00;23:59;40,3978750000001;-3,99388377599996;info@lmh.es;918163526
453;HOSPITAL QUIRÓNSALUD MADRID;DIEGO DE VELAZQUEZ, 1;Pozuelo de Alarcón;MADRID;28223;239;28813,84;GENERAL;03:00;23:59;40,4017819480001;-3,78466211799997;direccion.mad@quironsalud.es;902151016
454;HOSPITAL CENTRO DE CUIDADOS LAGUNA;CONCEJAL FRANCISCO JOSÉ JIMÉNEZ MARTÍN, 128;Madrid;MADRID;28047;47;5666,32;OTROS MONOGRÁFICOS;03:00;23:59;40,400373373;-3,74698762299994;direccion@lagunacuida.org;915099137
455;HOSPITAL UNIVERSITARIO MADRID SANCHINARRO;OÑA, 10;Madrid;MADRID;28050;198;23870,88;GENERAL;03:00;23:59;40,4892300490001;-3,66623351499993;mpelaez@hmhospitales.com;917567800
456;HOSPITAL UNIVERSITARIO INFANTA ELENA;AV. DE LOS REYES CATÓLICOS, 21;Valdemoro;MADRID;28342;158;19048,48;GENERAL;03:00;23:59;40,1988414420001;-3,69744306799993;sonia.gonzalez@quironsalud.es;918948410
457;VITAS NISA PARDO DE ARAVACA.;LA SALLE, 12;Madrid;MADRID;28023;98;11814,88;GENERAL;03:00;23:59;40,4662493290001;-3,78345834199996;aravaca@hospitales.nisa.es;915129000
458;HOSPITAL UNIVERSITARIO INFANTA SOFÍA;PASEO DE EUROPA,32;San Sebastián de los Reyes;MADRID;28702;271;32671,76;GENERAL;03:00;23:59;40,5578023210001;-3,61059588599994;gerencia.huis@salud.madrid.org;911914000
459;HOSPITAL UNIVERSITARIO DEL HENARES;AV. MARIE CURIE S/N;Coslada;MADRID;28822;243;29296,08;GENERAL;03:00;23:59;40,418437247;-3,53269413099997;gerencia.hhen@salud.madrid.org;911912000
460;HOSPITAL UNIVERSITARIO DEL SURESTE;RONDA DEL SUR, 10;Arganda del Rey;MADRID;28500;132;15913,92;GENERAL;03:00;23:59;40,2969695560001;-3,45678600999997;gerencia.hses@salud.madrid.org;918394454
461;HOSPITAL UNIVERSITARIO DEL TAJO;AVDA. AMAZONAS CENTRAL, S/N;Aranjuez;MADRID;28300;98;11814,88;GENERAL;03:00;23:59;40,0572571380001;-3,61079500499994;gerencia.htaj@salud.madrid.org;918014101
462;HOSPITAL UNIVERSITARIO INFANTA CRISTINA;AV. 9 DE JUNIO, 2;Parla;MADRID;28981;188;22665,28;GENERAL;03:00;23:59;40,218255292;-3,78302070099994;gerencia.hsur@salud.madrid.org;911913500
463;HOSPITAL UNIVERSITARIO PUERTA DE HIERRO MAJADAHONDA;JOAQUÍN RODRIGO, 2;Majadahonda;MADRID;28222;613;73903,28;GENERAL;03:00;23:59;40,4501393560001;-3,87375168899996;gerent.hpth@salud.madrid.org;911916000
464;CASTA GUADARRAMA;CARRETERA NACIONAL VI, KM. 50,300;Guadarrama;MADRID;28440;160;19289,6;PSIQUIÁTRICO;03:00;23:59;40,6735100000001;-4,11415084799995;direccionguadarrama@castasalud.com;918548328
465;HOSPITAL UNIVERSITARIO DE TORREJÓN;MATEO INURRIA, S/N;Torrejón de Ardoz;MADRID;28850;250;30140,0;GENERAL;03:00;23:59;40,465047826;-3,43651467899997;gerencia@torrejonsalud.com;916262518
466;HOSPITAL REY JUAN CARLOS;GLADIOLO S/N;Móstoles;MADRID;28933;364;43883,84;GENERAL;03:00;23:59;40,3391962160001;-3,87041195099994;info@hospitalreyjuancarlos.es;914816225
467;HOSPITAL GENERAL DE VILLALBA;CARRETERA DE ALPEDRETE A MORALZARZAL M-608 KM 41;Collado Villalba;MADRID;28400;209;25197,04;GENERAL;03:00;23:59;40,6542750940001;-4,00107882499998;secretariadireccion@hgvillalba.es;910908102
468;HM UNIVERSITARIO PUERTA DEL SUR;AVENIDA DE CARLOS V, 70;Móstoles;MADRID;28938;182;21941,92;GENERAL;03:00;23:59;40,3144351110001;-3,85685548899994;sruizdeaguiar@hmhospitales.com;912673100
469;HM VALLES;C/SANTIAGO, 14;Alcalá de Henares;MADRID;28801;20;2411,2;OTRA FINALIDAD;03:00;23:59;40,4830208560001;-3,36737238499995;"fgcalleja@hmhospitales.com; imarco@hmhospitales.com";917374353
470;HOSPITAL CASAVERDE DE MADRID;C/ JOSÉ MARÍA LÓPEZ Nº 3 (ANTIGUO PASEO DE SAN DAMIÁN ,3);Navalcarnero;MADRID;28600;100;12056,0;REHABILITACIÓN PSICOFÍSICA;03:00;23:59;40,2825550000001;-4,01485993499995;direccion.madrid@grupocasaverde.com;911609910
471;CLÍNICA UNIVERSIDAD DE NAVARRA;MARQUESADO DE SANTA MARTA, 1;Madrid;MADRID;28027;72;8680,32;GENERAL;03:00;23:59;40,447731457;-3,62483125099993;MADRIDCUNDIR@UNAV.ES;913138400
472;COMPLEJO HOSPITALARIO UNIVERSITARIO INFANTA LEONOR;GRAN VÍA DEL ESTE, 80;Madrid;MADRID;28031;361;43522,16;GENERAL;03:00;23:59;40,383949827;-3,62418370999995;gerencia.hvll@salud.madrid.org;911918000
473;CLÍNICA SAN VICENTE;AVDA. VENTISQUERO DE LA CONDESA, Nº46 4ªPLANTA;Madrid;MADRID;28035;45;5425,2;REHABILITACIÓN PSICOFÍSICA;03:00;23:59;40,494596835;-3,71802232799996;info@clinicasanvicente.es;916318212
474;INSTITUTO PSIQUIÁTRICO SERVICIOS DE SALUD MENTAL JOSÉ GERMAIN;LA LUNA, 1;Leganés;MADRID;28911;178;21459,68;PSIQUIÁTRICO;03:00;23:59;40,327351261;-3,76763426699995;gerencia.ipjg@salud.madrid.org;915866767
475;CENTRO ASISTENCIAL SAN JUAN DE DIOS;CTRA. CASABERMEJA, 126;Málaga;MALAGA;29014;351;42316,56;PSIQUIÁTRICO;03:00;23:59;36,7586110760001;-4,42580113899993;centro11@malaga1.betica.sanjuandedios-oh;952250550
476;CENTRO ASISTENCIAL HNAS. HOSP. DEL SAGRADO CORAZÓN DE JESÚS;SAN JUAN BOSCO, 41;Málaga;MALAGA;29014;321;38699,76;PSIQUIÁTRICO;03:00;23:59;36,733462795;-4,42208173999995;02administracion@hscmadrid.org;952256150
477;HOSPITAL VITHAS PARQUE SAN ANTONIO;AV. PINTOR JOAQUÍN SOROLLA, 2;Málaga;MALAGA;29016;100;12056,0;GENERAL;03:00;23:59;36,722389778;-4,38922623799994;jmtamara@parquesanantonio.nehos.com;952211050
478;HOSPITAL EL ÁNGEL;CORREGIDOR NICOLÁS ISIDRO, 16;Málaga;MALAGA;29007;138;16637,28;GENERAL;03:00;23:59;36,7150251680001;-4,45321674799993;admon.elangel@asisa.es;952045000
479;HOSPITAL DOCTOR GÁLVEZ;SAN AGUSTÍN, 1;Málaga;MALAGA;29015;62;7474,72;GENERAL;03:00;23:59;36,7208378380001;-4,41938281399996;;952224295
480;CLÍNICA DE LA ENCARNACIÓN;FERNÁNDEZ DE ALARCÓN, 2;Málaga;MALAGA;29007;105;12658,8;GENERAL;03:00;23:59;36,722767778;-4,45409071699993;info@clinicadelaencarnacion.com;952287766
481;HOSPITAL PSIQUIÁTRICO SAN FRANCISCO DE ASÍS;AV. HERNÁN NÚÑEZ DE TOLEDO, 5;Málaga;MALAGA;29018;150;18084,0;PSIQUIÁTRICO;03:00;23:59;36,729291866;-4,36837248999996;hospital@hospitalsanfrancisco.com;952201464
482;CLÍNICA NUESTRA SRA. DEL PILAR;Pº DE SANCHA, 15-17;Málaga;MALAGA;29016;21;2531,76;GENERAL;03:00;23:59;36,7216525110001;-4,40416252599994;direccion@clinicadelpilar.com;952217606
483;HOSPITAL DE ANTEQUERA;AVDA. POETA MUÑOZ ROJAS, S/N;Antequera;MALAGA;29200;159;19169,04;GENERAL;03:00;23:59;37,030852167;-4,52821867299997;informacion2.han.sspa@juntadeandalucia.es;951061008
484;HOSPITAL QUIRONSALUD MARBELLA;AV. SEVERO OCHOA, 22;Marbella;MALAGA;29603;75;9042,0;GENERAL;03:00;23:59;36,508969506;-4,86694356099997;;952774200
485;HOSPITAL DE LA AXARQUÍA;URB. EL TOMILLAR, S/N;Vélez-Málaga;MALAGA;29700;197;23750,32;GENERAL;03:00;23:59;36,751342736;-4,08949634099997;;951067010
486;CLÍNICA SANTA ELENA;URBANIZACIÓN LOS ÁLAMOS, S/N;Torremolinos;MALAGA;29620;90;10850,4;GENERAL;03:00;23:59;36,6257900000001;-4,52272241299994;seara@csantaelena.com;952386266
487;HOSPITAL UNIVERSITARIO REGIONAL DE MÁLAGA;AVDA. CARLOS HAYA, S/N;Málaga;MALAGA;29010;1049;126467,44;GENERAL;03:00;23:59;36,7232286870001;-4,45410337599998;;951030100
488;HOSPITAL UNIVERSITARIO VIRGEN DE LA VICTORIA;CAMPUS UNIVERSITARIO TEATINOS, S/N;Málaga;MALAGA;29010;657;79207,92;GENERAL;03:00;23:59;36,7320875;-4,45210123299995;;951032000
489;HOSPITAL COSTA DEL SOL;AUTOVÍA A-7, KM. 187;Marbella;MALAGA;29603;408;49188,48;GENERAL;03:00;23:59;36,508608827;-4,82658859299994;;952828250
490;HOSPITAL  F.A.C. DOCTOR PASCUAL;AMARGURA, 31;Málaga;MALAGA;29012;201;24232,56;GENERAL;03:00;23:59;36,7289616530001;-4,41216777899996;hospitaldrpascual@jmpascual.com;951019100
491;CLÍNICA EL SERANIL;CRTRA. DE ALMERÍA KM 261;Vélez-Málaga;MALAGA;29790;60;7233,6;PSIQUIÁTRICO;03:00;23:59;36,7357700000001;-4,22444567099996;clinica@seranil.com;952513267
492;HC MARBELLA INTERNATIONAL HOSPITAL;URB. LAS MIMOSAS. CASA SANTA ISABEL, S/N (NUEVA ANDALUCÍA);Marbella;MALAGA;29660;12;1446,72;GENERAL;03:00;23:59;36,5101877320001;-4,96424514899996;bdc@marbellahighcare.com;952908628
493;HOSPITAL HUMANLINE BANÚS;C. NACIONAL 340, KM. 176, PUERTO BANÚS;Marbella;MALAGA;29600;15;1808,4;QUIRÚRGICO;03:00;23:59;36,540555;-4,94918999999993;infobanus@humanline.es;951055950
494;CLÍNICA RINCÓN;AVDA. DE LA TORRE, 24;Rincón de la Victoria;MALAGA;29730;7;843,92;OTROS MONOGRÁFICOS;03:00;23:59;36,7128896130001;-4,26665356899997;josequesada@clinicasrincon.com;902300107
495;HOSPITEN ESTEPONA;CRTRA. NACIONAL 340, KM 162. PARTIDO DE VELERÍN;Estepona;MALAGA;29680;74;8921,44;GENERAL;03:00;23:59;36,473895;-5,13986153699994;estepona@hospiten.com;952760600
496;FUNDACIÓN CUDECA. CENTRO DE CUIDADOS PALIATIVOS;AVDA. DEL COSMOS, S/N (ARROYO DE LA MIEL-BENALMÁDENA COSTA);Benalmádena;MALAGA;29631;15;1808,4;OTROS MONOGRÁFICOS;03:00;23:59;36,6096600000001;-4,53560399999998;;952564910
497;XANIT HOSPITAL INTERNACIONAL;AVDA. DE LOS ARGONAUTAS, S/N (ARROYO DE LA MIEL-BENALMÁDENA COSTA);Benalmádena;MALAGA;29630;125;15070,0;GENERAL;03:00;23:59;36,600561;-4,56147449999997;xanit@xanit.net;952443119
498;COMUNIDAD TERAPÉUTICA SAN ANTONIO;EXTREMADURA, 8;Málaga;MALAGA;29018;35;4219,6;PSIQUIÁTRICO;03:00;23:59;36,7276813060001;-4,36040611299995;;952201464
499;HOSPITAL DE ALTA RESOLUCIÓN DE BENALMÁDENA;AVDA. ARROYO HONDO, S/N;Benalmádena;MALAGA;29630;46;5545,76;GENERAL;03:00;23:59;36,5991476390001;-4,55789535399992;;951976000
500;HOSPITAL QUIRONSALUD MÁLAGA;AV IMPERIO ARGENTINA 1;Málaga;MALAGA;29004;132;15913,92;GENERAL;03:00;23:59;36,684100969;-4,45803924999996;direccion.mlg@quironsalud.es;952176016
501;CENYT HOSPITAL;AVDA. ANDALUCÍA, 4;Estepona;MALAGA;29680;10;1205,6;GENERAL;03:00;23:59;36,4301764780001;-5,14912683199998;info@cenythospital.com;952808100
502;CLÍNICA OCHOA;AVDA. SEVERO OCHOA, S/N, EDIFICIO MAYORAL;Marbella;MALAGA;29603;12;1446,72;GENERAL;03:00;23:59;36,509058;-4,86875633999995;clinicaochoa@clinicaochoa.com;952861400
503;CENTRO DE REPRODUCCIÓN ASISTIDA DE MARBELLA (CERAM);C/ MAESTRA DOÑA CAROLA, 8 - URB. EL HIGUERAL;Marbella;MALAGA;29602;22;2652,32;GENERAL;03:00;23:59;36,516731039;-4,89701820499994;;952829035
504;CLÍNICA RINCÓN;"C/ ANTONIO FERRANDIS ""CHANQUETE"", 1 - EDIFICIO RIOSOL";Nerja;MALAGA;29780;4;482,24;GENERAL;03:00;23:59;36,7477003970001;-3,88040193599994;;952965126
505;HELICÓPTEROS SANITARIOS HOSPITAL;CARRETERA NACIONAL 340, KM. 175 (PUERTO BANÚS);Marbella;MALAGA;29600;10;1205,6;GENERAL;03:00;23:59;36,540555;-4,94918999999993;;952816767
506;HOSPITAL DE LA SERRANÍA;CTRA. RONDA-SAN PEDRO, KM. 2;Ronda;MALAGA;29400;150;18084,0;GENERAL;03:00;23:59;36,722128297;-5,14688070699998;;951065077
507;HOSPITAL CLÍNICO UNIVERSITARIO VIRGEN DE LA ARRIXACA;CARRETERA MADRID-CARTAGENA, S/N (EL PALMAR);Murcia;MURCIA;30120;920;110915,2;GENERAL;03:00;23:59;37,9317456110001;-1,16272643699995;;968369500
508;HOSPITAL GENERAL UNIVERSITARIO REINA SOFÍA;AV. INTENDENTE JORGE PALACIOS, 1;Murcia;MURCIA;30003;339;40869,84;GENERAL;03:00;23:59;37,982840292;-1,12107368799997;;968359000
509;HOSPITAL PSIQUIÁTRICO ROMAN ALBERCA;LORCA, 58  (EL PALMAR);Murcia;MURCIA;30120;96;11573,76;PSIQUIÁTRICO;03:00;23:59;37,942656335;-1,16725790099997;;968365800
510;HOSPITAL QUIRÓNSALUD MURCIA;MIGUEL HERNÁNDEZ, 12;Murcia;MURCIA;30011;131;15793,36;GENERAL;03:00;23:59;37,9779962900001;-1,11864455799997;admision.hsc@quironsalud.es;968365000
511;HOSPITAL LA VEGA;ROMÁN ALBERCA, S/N;Murcia;MURCIA;30008;123;14828,88;GENERAL;03:00;23:59;37,9925730000001;-1,13332342999996;hospital.lavega@grupohla.com;968278100
512;HOSPITAL MESA DEL CASTILLO;RONDA SUR, 20;Murcia;MURCIA;30010;76;9162,56;MÉDICO-QUIRÚRGICO;03:00;23:59;37,9686792380001;-1,12950859699993;notificaciones@mesadelcastillo.com;968246116
513;SANATORIO DOCTOR MUÑOZ S.L.;CTRA. CARTAGENA, 59;Murcia;MURCIA;30120;50;6028,0;PSIQUIÁTRICO;03:00;23:59;37,926460702;-1,16609711999996;javier.munoz@clinicamunoz.com;968885550
514;CLÍNICA MÉDICO-QUIRÚRGICA SAN JOSÉ, S.A.;MAESTRA LOLA MESEGUER, S/N;Alcantarilla;MURCIA;30820;139;16757,84;MÉDICO-QUIRÚRGICO;03:00;23:59;37,974861054;-1,22513153099993;sanjose@viamedsanjose.com;968800600
515;HOSPITAL COMARCAL DEL NOROESTE;AV. MIGUEL ESPINOSA, 1;Caravaca de la Cruz;MURCIA;30400;103;12417,68;GENERAL;03:00;23:59;38,103789949;-1,86738448999995;rita.pla@carm.es;968709100
516;CLÍNICA DOCTOR BERNAL S.L.;DR. ROBLES, S/N;Caravaca de la Cruz;MURCIA;30400;39;4701,84;GERIATRÍA Y/O LARGA ESTANCIA;03:00;23:59;38,105802;-1,86807216099993;info@hospitalbernal.com;968705541
517;SANTO Y REAL HOSPITAL DE CARIDAD;CAMINO BARRIO PERAL S/N (LOS BARREROS);Cartagena;MURCIA;30310;154;18566,24;GERIATRÍA Y/O LARGA ESTANCIA;03:00;23:59;37,6262370000001;-0,988933499999973;lgimenez@roldan1693.es;968510300
518;HOSPITAL NUESTRA SEÑORA DEL PERPETUO SOCORRO;SEBASTIÁN FERINGAN, 12;Cartagena;MURCIA;30205;214;25799,84;MÉDICO-QUIRÚRGICO;03:00;23:59;37,6139953540001;-0,996764987999939;hospital@perpetuosocorro.es;968510500
519;FUNDACION HOSPITAL REAL PIEDAD;PZA DEL MESONCICO, 3 Y MAYOR, 22;Cehegín;MURCIA;30430;40;4822,4;GERIATRÍA Y/O LARGA ESTANCIA;03:00;23:59;38,09668336;-1,79915675499996;fundacionrealpiedad@hrpiedad.es;968741156
520;HOSPITAL VIRGEN DEL ALCÁZAR DE LORCA;ALAMEDA DE LOS TRISTES, S/N;Lorca;MURCIA;30800;175;21098,0;GERIATRÍA Y/O LARGA ESTANCIA;03:00;23:59;37,668461205;-1,69576415099993;cmva@virgendelalcazar.com;968468600
521;HOSPITAL GENERAL UNIVERSITARIO LOS ARCOS DEL MAR MENOR;PARAJE TORRE OCTAVIO, S/N. (POZO ALEDO);San Javier;MURCIA;30739;255;30742,8;GENERAL;03:00;23:59;37,819066439;-0,859866806999946;;968565000
522;HOSPITAL VIRGEN DEL CASTILLO;AV. DE LA FERIA, S/N;Yecla;MURCIA;30510;96;11573,76;GENERAL;03:00;23:59;38,616077809;-1,10791853699993;;968719800
523;HOSPITAL RAFAEL MÉNDEZ;CTRA. NACIONAL 340, KM. 589;Lorca;MURCIA;30817;287;34600,72;GENERAL;03:00;23:59;37,6450575640001;-1,73518856799996;;968445500
524;HOSPITAL GENERAL UNIVERSITARIO J.M. MORALES MESEGUER;AV. MARQUÉS DE LOS VÉLEZ, S/N;Murcia;MURCIA;30008;394;47500,64;GENERAL;03:00;23:59;37,994553038;-1,12945333299996;mpilar.fernandez2@carm.es;968244200
525;HOSPITAL IBERMUTUAMUR-PATOLOGÍA LABORAL;ANTONIO ROCAMORA, 4. EDIFICIO IBERMUTUAMUR (ESPINARDO);Murcia;MURCIA;30100;26;3134,56;TRAUMATOLOGÍA Y/O REHABILITACIÓN;03:00;23:59;38,0085528930001;-1,14879968299994;;968394000
526;HOSPITAL DE LA VEGA LORENZO GUIRAO;CTRA. DE ABARÁN, S/N;Cieza;MURCIA;30530;124;14949,44;GENERAL;03:00;23:59;38,22935138;-1,40902399099997;carlosa.arenas@carm.es;968775550
527;HOSPITAL DE MOLINA;ASOCIACIÓN, S/N;Molina de Segura;MURCIA;30500;83;10006,48;MÉDICO-QUIRÚRGICO;03:00;23:59;38,061256417;-1,21228622399997;hmolina@hospitaldemolina.com;968644030
528;CLÍNICA SAN FELIPE DEL MEDITERRÁNEO;FINCA EL MAYAYO, 16 (EL PALMAR);Murcia;MURCIA;30120;62;7474,72;PSIQUIÁTRICO;03:00;23:59;37,9351502740001;-1,15782353399993;info@clinicasanfelipe.es;968889096
529;HOSPITAL DE CUIDADOS MEDIOS VILLADEMAR;AV CONCEJAL MARIANO HENAREJOS, 13;San Pedro del Pinatar;MURCIA;30740;99;11935,44;GERIATRÍA Y/O LARGA ESTANCIA;03:00;23:59;37,828167288;-0,793080352999937;info@villademar.com;968187346
530;RESIDENCIA LOS ALMENDROS;PARAJE LOS PINOS, S/N (PERÍN);Cartagena;MURCIA;30396;60;7233,6;GERIATRÍA Y/O LARGA ESTANCIA;03:00;23:59;37,622815378;-1,11988227599994;info@residencialosalmendros.com;968168716
531;COMPLEJO HOSPITALARIO UNIVERSITARIO DE CARTAGENA;Pº ALFONSO XIII, 61;Cartagena;MURCIA;30203;691;83306,96;GENERAL;03:00;23:59;37,607120475;-0,975184972999955;;968128600
532;HOSPITAL PERPETUO SOCORRO ALAMEDA;ALAMEDA DE SAN ANTON Nº 6;Cartagena;MURCIA;30205;93;11212,08;GERIATRÍA Y/O LARGA ESTANCIA;03:00;23:59;37,614950612;-0,995415301999969;;968115055
533;HOSPITAL C.M.V. CARIDAD CARTAGENA;CALLE JORGE JUAN Nº30;Cartagena;MURCIA;30204;40;4822,4;MÉDICO-QUIRÚRGICO;03:00;23:59;37,6159259990001;-0,987220567999941;jesusm.martinez@cmvcaridad.com;968506666
534;CENTRO SAN FRANCISCO JAVIER;AV. VILLAVA, 53;Pamplona/Iruña;NAVARRA;31015;28;3375,68;PSIQUIÁTRICO;03:00;23:59;42,833333478;-1,62481300699994;unidad.media.estancia@navarra.es;848422730
535;HOSPITAL SAN JUAN DE DIOS;BELOSO ALTO, 3;Pamplona/Iruña;NAVARRA;31006;190;22906,4;GENERAL;03:00;23:59;42,8161537820001;-1,62374839999995;hsjdpamplona@ohsjd.es;948231800
536;CLINICA PSIQUIATRICA PADRE MENNI;CALLE JOAQUÍN BEUNZA 45;Pamplona/Iruña;NAVARRA;31014;226;27246,56;PSIQUIÁTRICO;03:00;23:59;42,8248410460001;-1,65422988599994;gerencia.mennipamplona@hospitalarias.es;948140611
537;CLINICA UNIVERSIDAD DE NAVARRA;AV. PIO XII, 36;Pamplona/Iruña;NAVARRA;31008;241;29054,96;GENERAL;03:00;23:59;42,802189469;-1,66727028299994;direccioncun@unav.es;948255400
538;CLINICA SAN MIGUEL;BELOSO ALTO, 32;Pamplona/Iruña;NAVARRA;31006;72;8680,32;GENERAL;03:00;23:59;42,8195237950001;-1,62127891699993;clinicasanmiguel@imqnavarra.com;948296000
539;CLÍNICA SAN FERMÍN;AV. DE GALICIA, 2-A;Pamplona/Iruña;NAVARRA;31003;5;602,8;GENERAL;03:00;23:59;42,8094655360001;-1,64125327999994;clinica@clinicasanfermin.com;948235850
540;CENTRO HOSPITALARIO BENITO MENNI;MENDINUETA, S/N.;Baztan;NAVARRA;31700;148;17842,88;PSIQUIÁTRICO;03:00;23:59;43,1463150000001;-1,52783655099995;gerencia.mennielizondo@hospitalarias.es;948452162
541;HOSPITAL GARCÍA ORCOYEN;SANTA SORIA, 22;Estella-Lizarra;NAVARRA;31200;93;11212,08;GENERAL;03:00;23:59;42,683315969;-2,03890547599997;gerencia.areasalud.estella@navarra.es;848435000
542;HOSPITAL REINA SOFÍA;CTRA. TARAZONA KM. 3;Tudela;NAVARRA;31500;190;22906,4;GENERAL;03:00;23:59;42,0408673220001;-1,62530474999994;hrst@navarra.es;848434000
543;CLÍNICA PSICOGERIÁTRICA JOSEFINA ARREGUI;ERBURU S/N;Altsasu/Alsasua;NAVARRA;31800;21;2531,76;PSIQUIÁTRICO;03:00;23:59;42,9102050000001;-2,17932757799997;gerencia@josefinaarregui.com;948563850
544;COMPLEJO HOSPITALARIO DE NAVARRA;IRUNLARREA, 3;Pamplona/Iruña;NAVARRA;31008;1086;130928,16;GENERAL;03:00;23:59;42,8051404660001;-1,66852095899998;gerchna@navarra.es;84842222
545;COMPLEXO HOSPITALARIO UNIVERSITARIO DE OURENSE;RAMON PUGA, 52;Ourense;OURENSE;32005;869;104766,64;GENERAL;03:00;23:59;42,327010708;-7,85883781799993;;988385500
546;CENTRO MEDICO EL CARMEN;HABANA (DE LA), 50;Ourense;OURENSE;32003;43;5184,08;GENERAL;03:00;23:59;42,3425176320001;-7,86436462599994;INFO@CENTROMEDICOELCARMEN.ES;988223400
547;HOSPITAL DE VALDEORRAS (*);CONDE DE FENOSA, 50;Barco de Valdeorras, O;OURENSE;32300;100;12056,0;GENERAL;03:00;23:59;42,4175752720001;-6,99102144899996;;988339000
548;HOSPITAL DE VERIN;LAZA (DE), S/N;Verín;OURENSE;32600;80;9644,8;GENERAL;03:00;23:59;41,9540691340001;-7,43030562299998;;988413636
549;CLINICA SANTA TERESA;SAENZ DIEZ, 11;Ourense;OURENSE;32003;49;5907,44;GENERAL;03:00;23:59;42,343855666;-7,86557438799997;CORREO@COSAGA.COM;988371710
550;HOSPITAL MONTE NARANCO;AVDA. DRES. FERNÁNDEZ-VEGA, 107;Oviedo;ASTURIAS;33012;194;23388,64;GENERAL;03:00;23:59;43,3700886620001;-5,87299955799995;gerencia.hmn@sespa.es;985106900
551;CENTRO MÉDICO DE ASTURIAS;AVDA. RICHARD GRANDÍO S/N;Oviedo;ASTURIAS;33193;105;12658,8;GENERAL;03:00;23:59;43,3409084210001;-5,87044384499995;jesus.tirados@medastur.com;985250300
552;CLÍNICA ASTURIAS;NARANJO DE BULNES, 4 Y 6;Oviedo;ASTURIAS;33012;46;5545,76;GENERAL;03:00;23:59;43,367644582;-5,85609159099994;info@clinica.asturias.com;985286000
553;CLÍNICA SAN RAFAEL;LA ESTRECHA 33  LA CORREDORIA;Oviedo;ASTURIAS;33011;36;4340,16;PSIQUIÁTRICO;03:00;23:59;43,3809799650001;-5,82872131199997;admin@sanrafael.es;985282526
554;"HOSPITAL  UNIVERSITARIO ""SAN AGUSTÍN""";CAMINO DE HEROS, 6;Avilés;ASTURIAS;33401;436;52564,16;GENERAL;03:00;23:59;43,551997853;-5,93579096599996;gerencia.gae3@sespa.es;985123000
555;FUNDACIÓN HOSPITAL DE AVILÉS;CABRUÑANA, 19;Avilés;ASTURIAS;33401;90;10850,4;MÉDICO-QUIRÚRGICO;03:00;23:59;43,555499974;-5,92557306399993;gestion@fhaviles.org;985563954
556;HOSPITAL CARMEN Y SEVERO OCHOA;SIENRA, 11;Cangas del Narcea;ASTURIAS;33800;103;12417,68;GENERAL;03:00;23:59;43,1752750530001;-6,54733266899996;gerencia.area2@sespa.es;985812346
557;HOSPITAL COMARCAL DE JARRIO;JARRIO;Coaña;ASTURIAS;33719;105;12658,8;GENERAL;03:00;23:59;43,544314608;-6,74709884299995;gerencia.gae1@sespa.es;985639300
558;HOSPITAL DE CABUEÑES;LOS PRADOS, 395;Gijón;ASTURIAS;33394;457;55095,92;GENERAL;03:00;23:59;43,5248042170001;-5,60652307599997;gerencia.gae5@sespa.es;985185000
559;HOSPITAL DE LA CRUZ ROJA;URÍA, 37;Gijón;ASTURIAS;33202;120;14467,2;MÉDICO-QUIRÚRGICO;03:00;23:59;43,538354214;-5,65492950599997;correo@hospitalcrgijon.com;985195000
560;SANATORIO NUESTRA SEÑORA DE COVADONGA;GENERAL SUÁREZ VALDÉS, 40;Gijón;ASTURIAS;33204;24;2893,44;MÉDICO-QUIRÚRGICO;03:00;23:59;43,5314880000001;-5,64858570399997;gerente@sanatoriocovadonga.com;985365122
561;FUNDACIÓN HOSPITAL DE JOVE;AV. EDUARDO CASTRO, 161;Gijón;ASTURIAS;33290;233;28090,48;GENERAL;03:00;23:59;43,550230872;-5,69900502199994;direcciondegestion@hospitaldejove.com;985320308
562;HOSPITAL BEGOÑA DE GIJÓN, S.L.;PABLO IGLESIAS, 92;Gijón;ASTURIAS;33204;41;4942,96;GENERAL;03:00;23:59;43,5352301450001;-5,64762941899994;gerencia@hospitalbegona.com;985367711
563;HOSPITAL VALLE DEL NALÓN;POLÍGONO DE RIAÑO;Langreo;ASTURIAS;33920;223;26884,88;GENERAL;03:00;23:59;43,3282152640001;-5,72174381699995;gerente.gae8@sespa.princast.es;985652000
564;FUNDACIÓN SANATORIO ADARO;JOVE Y CANELLA, 1;Langreo;ASTURIAS;33900;138;16637,28;GERIATRÍA Y/O LARGA ESTANCIA;03:00;23:59;43,2919061040001;-5,67541485699996;gerencia@sanatorioadaro.com;985681754
565;HOSPITAL V. ÁLVAREZ BUYLLA;VISTALEGRE-SANTULLANO,2;Mieres;ASTURIAS;33611;176;21218,56;GENERAL;03:00;23:59;43,2264141360001;-5,78150638299996;gerencia.area7@sespa.es;985458500
566;HOSPITAL UNIVERSITARIO CENTRAL DE ASTURIAS;AVDA. ROMA, S/N  LA CORREDORIA;Oviedo;ASTURIAS;33011;991;119474,96;GENERAL;03:00;23:59;43,3736588250001;-5,82972540199995;gerencia.area4@sespa.es;985108000
567;HOSPITAL DEL ORIENTE DE ASTURIAS FRANCISCO GRANDE COVIÁN;LA CASTAÑERA, S/N;Parres;ASTURIAS;33540;90;10850,4;GENERAL;03:00;23:59;43,3817565210001;-5,18496195599994;gerencia.area6@sespa.es;985840032
568;HOSPITAL DE LUARCA -ASISTENCIA MÉDICA OCCIDENTALSL;VILLAR S/N- LUARCA;Valdés;ASTURIAS;33700;19;2290,64;OTROS MONOGRÁFICOS;03:00;23:59;43,541660522;-6,52779190099994;amosl@grupomelca.com;985470707
569;INSTITUTO SALUD MENTAL PÉREZ-ESPINOSA ORIA, S.L.;LG SANTA ROSA, Nº 6;Llanera;ASTURIAS;33690;42;5063,52;PSIQUIÁTRICO;03:00;23:59;43,432586402;-5,80737081699994;administraccion@grupoperezespinosa.com;985771677
570;CLÍNICA PSIQUIÁTRICA SOMIÓ;CARRETERA LA PROVIDENCIA-INFANZÓN 3518;Gijón;ASTURIAS;33203;40;4822,4;PSIQUIÁTRICO;03:00;23:59;43,5478122100001;-5,61151898999998;vanesa@clinicasomio.es;985133806
571;CLÍNICA CIRUGÍA PLÁSTICA Y ESTÉTICA FERNÁNDEZ Y FERNÁNDEZ COSSÍO;BIMENES,18;Oviedo;ASTURIAS;33006;3;361,68;QUIRÚRGICO;03:00;23:59;43,351919249;-5,85791642999993;info@clinicafernandez.com;985220244
572;HOSPITAL GIJÓN;AVDA. DE LA COSTA 45;Gijón;ASTURIAS;33201;32;3857,92;GERIATRÍA Y/O LARGA ESTANCIA;03:00;23:59;43,537606522;-5,65818269599993;info@hospitalgijon.es;985360612
573;CENTRO TERAPÉUTICO VISTA ALEGRE;AVDA. PROFESOR PÉREZ PIMENTEL 30 LA GUÍA-SOMIÓ;Gijón;ASTURIAS;33203;28;3375,68;PSIQUIÁTRICO;03:00;23:59;43,532464631;-5,62841646899994;administracion@grupoperezespinosa.com;985363435
574;INSTITUTO OFTALMOLÓGICO FERNÁNDEZ -VEGA;AVDA. DOCTORES FERNÁNDEZ-VEGA, 34;Oviedo;ASTURIAS;33012;13;1567,28;OFTÁLMICO U ORL;03:00;23:59;43,369200026;-5,86838724199993;instituto@fernandez-vega.com;985241512
575;HOSPITAL PSIQUIATRICO SAN LUIS;CTRA. DE BURGOS, S/N;Palencia;PALENCIA;34004;206;24835,36;PSIQUIÁTRICO;03:00;23:59;41,992253062;-4,51221861499994;ch.palencia@hospitalarias.es;979165324
576;ÁREA PSIQUIÁTRICA DEL CENTRO ASISTENCIAL SAN JUAN DE DIOS;PS. PADRE FAUSTINO CALVO, 46;Palencia;PALENCIA;34005;97;11694,32;PSIQUIÁTRICO;03:00;23:59;42,007261027;-4,53834728699997;palencia.hospital@hsjd.es;979742300
577;HOSPITAL RECOLETAS DE PALENCIA;AV. SIMÓN NIETO, 31-34;Palencia;PALENCIA;34005;44;5304,64;GENERAL;03:00;23:59;42,015905896;-4,54021086399996;admision.hrp@gruporecoletas.com;979747700
578;COMPLEJO ASISTENCIAL UNIVERSITARIO DE PALENCIA;AV. DONANTES DE SANGRE, S/N;Palencia;PALENCIA;34005;495;59677,2;GENERAL;03:00;23:59;42,002517551;-4,53736645699996;gerente.hrcr@saludcastillayleon.es;979167000
579;HESTIA SANTA MARIA;SANTA MARIA (DE), 9;Pontevedra;PONTEVEDRA;36002;70;8439,2;GERIATRÍA Y/O LARGA ESTANCIA;03:00;23:59;42,4324829600001;-8,64741121599997;HESTIASANTAMARIA@HESTIASANTAMARIA.ORG;986856562
580;HOSPITAL QUIRONSALUD MIGUEL DOMINGUEZ;FRAY JUAN NAVARRETE, 9;Pontevedra;PONTEVEDRA;36001;127;15311,12;GENERAL;03:00;23:59;42,42866;-8,64593604799995;INFO@GRUPOHMD.COM;986856800
581;INSTITUTO DE NEURO-REHABILITACION QUIRONSALUD PONTEVEDRA;ANDURIQUE, 11;Poio;PONTEVEDRA;36163;30;3616,8;OTROS MONOGRÁFICOS;03:00;23:59;42,4338188900001;-8,66125872899994;INFO@GRUPOHMD.COM;986856800
582;FREMAP, HOSPITAL DE VIGO;FELICIANO ROLAN, 12;Vigo;PONTEVEDRA;36203;17;2049,52;TRAUMATOLOGÍA Y/O REHABILITACIÓN;03:00;23:59;42,228756;-8,72776761699993;HOSPITALDEVIGO@FREMAP.ES;986413033
583;HOSPITAL POVISA;SALAMANCA, 5;Vigo;PONTEVEDRA;36211;573;69080,88;GENERAL;03:00;23:59;42,223435554;-8,72782782099995;POVISA@POVISA.ES;986413144
584;HOSPITAL HM VIGO;MANUEL OLIVIE, 11;Vigo;PONTEVEDRA;36203;12;1446,72;GENERAL;03:00;23:59;42,2296006380001;-8,72227456899998;PJGARCIA@HMHOSPITALES.COM;986411466
585;VITHAS HOSPITAL NOSA SEÑORA DE FATIMA;VIA NORTE, 48;Vigo;PONTEVEDRA;36206;200;24112,0;GENERAL;03:00;23:59;42,234313727;-8,70922112799997;INFOVIGO@VITHAS.ES;986821100
586;CONCHEIRO CENTRO MEDICO QUIRURGICO;MADRID, 4;Vigo;PONTEVEDRA;36204;40;4822,4;QUIRÚRGICO;03:00;23:59;42,2284048540001;-8,71896874799995;ACONCHEIRO@CENTROMEDICOCONCHEIRO.COM;986413244
587;CENTRO MEDICO PINTADO;HISPANIDADE, 40;Vigo;PONTEVEDRA;36203;12;1446,72;MATERNO-INFANTIL;03:00;23:59;42,23008185;-8,72895694299996;;986413300
588;SANATORIO PSIQUIATRICO SAN JOSE;TOMAS A ALONSO, 89;Vigo;PONTEVEDRA;36208;48;5786,88;PSIQUIÁTRICO;03:00;23:59;42,224049671;-8,73741923199998;PSSANJOSE@HOTMAIL.COM;986235606
589;CLINICA RESIDENCIA EL PINAR;VELLA MADRID, 120;Vigo;PONTEVEDRA;36214;84;10127,04;PSIQUIÁTRICO;03:00;23:59;42,221238521;-8,68198025399994;GERENCIA@HOSPITALELPINAR.COM;986266400
590;COMPLEXO HOSPITALARIO UNIVERSITARIO DE PONTEVEDRA;MOURENTE, S/N;Pontevedra;PONTEVEDRA;36071;605;72938,8;GENERAL;03:00;23:59;42,434553511;-8,62922216599998;;986800000
591;HOSPITAL DO SALNES (*);HOSPITAL DO SALNES, 30;Vilagarcía de Arousa;PONTEVEDRA;36619;122;14708,32;GENERAL;03:00;23:59;42,573938264;-8,72723632399993;;986568000
592;COMPLEXO HOSPITALARIO UNIVERSITARIO DE VIGO;CLARA CAMPOAMOR, 341;Vigo;PONTEVEDRA;36312;1273;153472,88;GENERAL;03:00;23:59;42,190399719;-8,71818425699996;;986816000
593;COMPLEJO ASISTENCIAL UNIVERSITARIO DE SALAMANCA;Pº DE SAN VICENTE, 58-182;Salamanca;SALAMANCA;37007;914;110191,84;GENERAL;03:00;23:59;40,964171563;-5,67288957099993;gerencia.husa@saludcastillayleon.es;923291100
594;HOSPITAL GENERAL DE LA SANTÍSIMA TRINIDAD;Pº DE CARMELITAS, 74-94;Salamanca;SALAMANCA;37007;106;12779,36;GENERAL;03:00;23:59;40,9678049120001;-5,66814004799994;direccionmedica@fhgst.es;923269300
595;HOSPITAL UNIVERSITARIO MARQUÉS DE VALDECILLA;AV. DE VALDECILLA, S/N;Santander;CANTABRIA;39008;923;111276,88;GENERAL;03:00;23:59;43,4559827160001;-3,82954244499996;dirger.humv@scsalud.es;942202520
596;HOSPITAL RAMÓN NEGRETE;AV. DEL FARO-PINTOR EDUARDO SANZ Nº 19;Santander;CANTABRIA;39012;30;3616,8;TRAUMATOLOGÍA Y/O REHABILITACIÓN;03:00;23:59;43,483778988;-3,78934194099998;secretaria@mutuamontanesa.es;942204100
597;HOSPITAL SANTA CLOTILDE - ORDEN HOSPITALARIA SAN JUAN DE DIOS.;AV. GENERAL DÁVILA, 35;Santander;CANTABRIA;39006;127;15311,12;GERIATRÍA Y/O LARGA ESTANCIA;03:00;23:59;43,46831458;-3,79898845999998;hsclotilde.gerencia@hsjd.es;942217711
598;CENTRO HOSPITALARIO PADRE MENNI;AV. DE CANTABRIA, 52;Santander;CANTABRIA;39012;403;48585,68;PSIQUIÁTRICO;03:00;23:59;43,476897647;-3,79696039099997;gerencia@mennisant.com;942390060
599;HOSPITAL COMARCAL DE LAREDO;AV. DE LOS DERECHOS HUMANOS, S/N;Laredo;CANTABRIA;39770;131;15793,36;GENERAL;03:00;23:59;43,4140049750001;-3,44186152999993;gerencia.hlrd@scsalud.es;942638500
600;HOSPITAL SIERRALLANA;Bº. DE GANZO, S/N;Torrelavega;CANTABRIA;39300;301;36288,56;GENERAL;03:00;23:59;43,3621994550001;-4,07611227699994;secretaria.hsll@scsalud.es;942847400
601;CLÍNICA MOMPÍA, S.A.U.;AV. DE LOS CONDES, S/N. MOMPÍA;Santa Cruz de Bezana;CANTABRIA;39108;105;12658,8;GENERAL;03:00;23:59;43,439445;-3,92133149999995;info@clinicamompia.com;942584100
602;COMPLEJO ASISTENCIAL DE SEGOVIA;LUIS ERIK CLAVERÍA NEURÓLOGO, S/NÚM.;Segovia;SEGOVIA;40002;375;45210,0;GENERAL;03:00;23:59;40,9432550000001;-4,11920458799995;gerente.hgse@saludcastillayleon.es;921419100
603;HOSPITAL RECOLETAS SEGOVIA NTRA. SRA. DE LA MISERICORDIA;CALLE DR. VELASCO, 21-23;Segovia;SEGOVIA;40003;48;5786,88;GENERAL;03:00;23:59;40,9527568250001;-4,12380748399994;direccion.medica.hrsg@gruporecoletas.com;921460115
604;UNIDAD DE REHABILITACIÓN PSIQUIÁTRICA NTRA. SRA. DE LA FUENCISLA;CTRA. DE LA GRANJA, KM. 7;Palazuelos de Eresma;SEGOVIA;40194;56;6751,36;PSIQUIÁTRICO;03:00;23:59;40,9374115210001;-4,05719675999995;centrolafuencisla@dipsegovia.es;921421800
605;HOSPITAL VICTORIA EUGENIA DE LA CRUZ ROJA ESPAÑOLA;AV. CRUZ ROJA, 1;Sevilla;SEVILLA;41009;39;4701,84;GENERAL;03:00;23:59;37,400685292;-5,98231156299994;administracion@hospitalveugenia.com;954352082
606;HOSPITAL SAN JUAN DE DIOS DE SEVILLA;AV. EDUARDO DATO, 42;Sevilla;SEVILLA;41005;47;5666,32;GENERAL;03:00;23:59;37,3820257620001;-5,96903487999998;sevilla2@sjd.es;954933870
607;CLÍNICA SANTA ISABEL;LUIS MONTOTO, 100;Sevilla;SEVILLA;41018;96;11573,76;GENERAL;03:00;23:59;37,387151551;-5,97551341299993;;954919000
608;HOSPITAL QUIRONSALUD SAGRADO CORAZÓN;RAFAEL SALGADO, 3;Sevilla;SEVILLA;41013;147;17722,32;GENERAL;03:00;23:59;37,359294305;-5,97952998899996;;954937676
609;HOSPITAL FÁTIMA;GLORIETA DE MÉXICO, 1;Sevilla;SEVILLA;41012;73;8800,88;GENERAL;03:00;23:59;37,369389482;-5,98534682899998;info@hospitalfatima.es;954613300
610;HOSPITAL QUIRONSALUD INFANTA LUISA;SAN JACINTO, 87;Sevilla;SEVILLA;41010;139;16757,84;GENERAL;03:00;23:59;37,381499707;-6,00834475399995;obdulio@infantaluisa.com;954330100
611;CLÍNICA NUESTRA SEÑORA DE ARÁNZAZU;C/ JESÚS DEL GRAN PODER, 29;Sevilla;SEVILLA;41002;10;1205,6;QUIRÚRGICO;03:00;23:59;37,3957898210001;-5,99562467799996;direccion@clinicaaranzazu.com;954382110
612;RESIDENCIA DE SALUD MENTAL NUESTRA SEÑORA DEL CARMEN;AV. RIO PUDIO, S/N;Bormujos;SEVILLA;41930;54;6510,24;PSIQUIÁTRICO;03:00;23:59;37,378407295;-6,07026687199993;rescudero@trajanoxxv.com;955723391
613;HOSPITAL SAN AGUSTÍN;PROLONGACIÓN DOCTOR FLEMING, SECTOR 13, S/N;Dos Hermanas;SEVILLA;41703;93;11212,08;GENERAL;03:00;23:59;37,2813664830001;-5,93710220599996;;955050570
614;HOSPITAL DE ALTA RESOLUCIÓN DE MORÓN DE LA FRONTERA;PLAZA DE SAN FRANCISCO, S/N;Morón de la Frontera;SEVILLA;41530;12;1446,72;GENERAL;03:00;23:59;37,117589702;-5,45441538099993;;954851008
615;HOSPITAL LA MERCED;AVDA. DE LA CONSTITUCIÓN, 2;Osuna;SEVILLA;41640;225;27126,0;GENERAL;03:00;23:59;37,232725816;-5,09598333499997;dgerencia.aso.sspa@juntadeandalucia.es;955077200
616;HOSPITAL UNIVERSITARIO VIRGEN DEL ROCÍO;AVDA. MANUEL SIUROT, S/N;Sevilla;SEVILLA;41013;1350;162756,0;GENERAL;03:00;23:59;37,362823002;-5,97906071599994;;955013466
617;HOSPITAL UNIVERSITARIO VIRGEN MACARENA;AVDA. DOCTOR FEDRIANI, 3;Sevilla;SEVILLA;41009;960;115737,6;GENERAL;03:00;23:59;37,4064748870001;-5,98607019899993;secretariadireccionger.hvm.sspa@juntadeandalucia.es;955008000
618;HOSPITAL UNIVERSITARIO VIRGEN DE VALME;AVDA. DE BELLAVISTA, S/N;Sevilla;SEVILLA;41014;617;74385,52;GENERAL;03:00;23:59;37,3154571380001;-5,96929888599993;hospitalvalme.sspa@juntadeandalucia.es;955015160
619;FREMAP, HOSPITAL Y CENTRO DE REHABILITACIÓN DE SEVILLA;AV. DE JEREZ, S/N;Sevilla;SEVILLA;41014;102;12297,12;TRAUMATOLOGÍA Y/O REHABILITACIÓN;03:00;23:59;37,3254585400001;-5,96531371599997;;954249102
620;HOSPITAL PSIQUIÁTRICO PENITENCIARIO;CRTA. TORREBLANCA-MAIRENA, KM. 3,5;Sevilla;SEVILLA;41007;26;3134,56;PSIQUIÁTRICO;03:00;23:59;37,3997596940001;-5,95718392399993;director.sevillaps@dgip.mir.es;955616666
621;HOSPITAL SAN JUAN DE DIOS DEL ALJARAFE;AVDA. SAN JUAN DE DIOS, S/N;Bormujos;SEVILLA;41930;200;24112,0;GENERAL;03:00;23:59;37,368186721;-6,08211955099995;;955050550
622;HOSPITAL NISA SEVILLA-ALJARAFE;AVDA. PLACIDO FERNANDEZ VIAGAS, S/N;Castilleja de la Cuesta;SEVILLA;41950;148;17842,88;GENERAL;03:00;23:59;37,389698326;-6,06177874699995;sevillaaljarafe@hospitales.nisa.es;954464000
623;HOSPITAL DE ALTA RESOLUCIÓN DE UTRERA;BRIGADAS INTERNACIONALES, S/N;Utrera;SEVILLA;41710;14;1687,84;GENERAL;03:00;23:59;37,1758854990001;-5,78497788199996;secretaria.chare.utrera.sspa@juntadeandalucia.es;955839097
624;HOSPITAL DE ALTA RESOLUCIÓN SIERRA NORTE;DR. LARRAURI, S/N;Constantina;SEVILLA;41450;8;964,48;GENERAL;03:00;23:59;37,8623055460001;-5,61921952099993;;955889037
625;HOSPITAL VIAMED SANTA ÁNGELA DE LA CRUZ;AVDA. DE JEREZ, 59;Sevilla;SEVILLA;41013;105;12658,8;GENERAL;03:00;23:59;37,3274298800001;-5,96668256499993;gpc@viamedsantaangeladelacruz.com;954032000
626;HOSPITAL DE ALTA RESOLUCIÓN DE ÉCIJA;AV. DOCTOR SÁNCHEZ MALO, 73;Écija;SEVILLA;41400;38;4581,28;GENERAL;03:00;23:59;37,5322433800001;-5,09212972899996;;
627;CLÍNICA DE SALUD MENTAL MIGUEL DE MAÑARA;C/ HERMANOS DE LA CRUZ BLANCA, 1 (MONTEQUINTO);Dos Hermanas;SEVILLA;41089;18;2170,08;PSIQUIÁTRICO;03:00;23:59;37,3314817670001;-5,91951963099996;direccion@samuwellness.com;954127033
628;HOSPITAL DE ALTA RESOLUCIÓN DE LEBRIJA;AVDA. EL CUERVO, S/N;Lebrija;SEVILLA;41740;22;2652,32;GENERAL;03:00;23:59;36,910486082;-6,07267484699997;;
629;COMPLEJO ASISTENCIAL DE SORIA;Pº. STA. BÁRBARA, S/N;Soria;SORIA;42005;319;38458,64;GENERAL;03:00;23:59;41,771348851;-2,47256122599993;gerente.hsor@saludcastillayleon.es;975234300
630;HOSPITAL UNIVERSITARI JOAN XXIII DE TARRAGONA;CR DOCTOR MALLAFRÉ GUASCH, 4;Tarragona;TARRAGONA;43005;372;44848,32;GENERAL;03:00;23:59;41,124597303;1,23857342400004;rramon@hjxxiii.scs.es / hospital@hj23.es;977295800
631;HOSPITAL SOCIOSANITARI FRANCOLÍ;CR DOCTOR MALLAFRE GUASCH, S/N;Tarragona;TARRAGONA;43005;156;18807,36;GERIATRÍA Y/O LARGA ESTANCIA;03:00;23:59;41,1249338740001;1,23914820800007;gipss@gencat.cat;977232714
632;HOSPITAL DE SANT PAU I SANTA TECLA;RB VELLA, 14;Tarragona;TARRAGONA;43003;186;22424,16;GENERAL;03:00;23:59;41,1164382050001;1,25499580700006;gloria@sv.ftecla.es;977259900
633;HOSPITAL VIAMED MONEGAL;CR LÓPEZ PELÁEZ, 15-17;Tarragona;TARRAGONA;43002;53;6389,68;GENERAL;03:00;23:59;41,118716567;1,25124993100007;jniubo@viamedmonegal.com;977225012
634;CLÍNICA ACTIVA MÚTUA 2008;CR PIN I SOLER, 12;Tarragona;TARRAGONA;43002;22;2652,32;OTROS MONOGRÁFICOS;03:00;23:59;41,118883554;1,24876320700002;tcabre@activamutua.es;977217900
635;HOSPITAL COMARCAL MÓRA D'EBRE;CR BENET MESSEGUER, S/N;Móra d'Ebre;TARRAGONA;43740;120;14467,2;GENERAL;03:00;23:59;41,095273891;0,638773807000064;dtorras@grupsgs.com;977401863
636;HOSPITAL UNIVERSITARI DE SANT JOAN DE REUS;AV JOSEP LAPORTE, 2;Reus;TARRAGONA;43204;313;37735,28;GENERAL;03:00;23:59;41,1444277630001;1,12248864400004;abrunet@grupsgs.com;977310300
637;CENTRE MQ REUS;CR ANTONI GAUDÍ, 26;Reus;TARRAGONA;43203;50;6028,0;GENERAL;03:00;23:59;41,160215022;1,10643081000006;dadm.cmqr@grupsgs.com;977010800
638;VILLABLANCA SERVEIS ASSISTENCIALS, SA;PD BELLISENS, S/N;Reus;TARRAGONA;43205;350;42196,0;PSIQUIÁTRICO;03:00;23:59;41,1506460000001;1,11456000000004;rodriguezm@peremata.com;977390011
639;INSTITUT PERE MATA, S.A;CT DE L'INSTITUT PERE MATA, S/N;Reus;TARRAGONA;43206;727;87647,12;PSIQUIÁTRICO;03:00;23:59;41,1654943410001;1,08725060600005;ipm@peremata.com;977338565
640;HOSPITAL DE TORTOSA VERGE DE LA CINTA;CR ESPLANETES, 44;Tortosa;TARRAGONA;43500;248;29898,88;GENERAL;03:00;23:59;40,81116488;0,524348374000056;htvc@tinet.fut.es;977519100
641;HOSPITAL DE LA SANTA CREU;PS MOSSÈN VALLS BARTOMEU, 1;Tortosa;TARRAGONA;43590;250;30140,0;GERIATRÍA Y/O LARGA ESTANCIA;03:00;23:59;40,8305325000001;0,508148038000058;lopd@grupsagessa.com;977500533
642;CLÍNICA TERRES DE L'EBRE;PL JOAQUIM  BAU, 6-8;Tortosa;TARRAGONA;43500;40;4822,4;GENERAL;03:00;23:59;40,8145000430001;0,515575109000054;clinicatortosa@grupsagessa.cat;977588200
643;POLICLÍNICA COMARCAL DEL VENDRELL.;AV SANTA OLIVA, 1-13;Santa Oliva;TARRAGONA;43710;136;16396,16;GERIATRÍA Y/O LARGA ESTANCIA;03:00;23:59;41,225741086;1,53843707300007;elvendrell@policlinicacomarcal.com;977660140
644;PIUS HOSPITAL DE VALLS;PL SANT FRANCESC, S/N;Valls;TARRAGONA;43800;142;17119,52;GENERAL;03:00;23:59;41,283794071;1,25160395500006;mclofent@piushospital.org;977613000
645;RESIDÈNCIA ALT CAMP;CM DEL BOSC, S/N;Valls;TARRAGONA;43800;50;6028,0;GERIATRÍA Y/O LARGA ESTANCIA;03:00;23:59;41,293259354;1,23306191800003;residenciaaltcamp@piushospital.cat;977600292
646;CENTRE SOCIOSANITARI CIUTAT DE REUS;CM DE TARRAGONA, 10;Reus;TARRAGONA;43204;85;10247,6;GERIATRÍA Y/O LARGA ESTANCIA;03:00;23:59;41,1533308910001;1,11276584600006;info@stsgrup.org;977300021
647;HOSPITAL COMARCAL D'AMPOSTA;CR JACINT VERDAGUER, 11;Amposta;TARRAGONA;43870;88;10609,28;GENERAL;03:00;23:59;40,7087794540001;0,578071969000064;jasaa@grupsagessa.cat;977700050
648;CENTRE SOCIOSANITARI LLEVANT;CR JOAN FUSTER ORTELLS, S/N;Tarragona;TARRAGONA;43007;60;7233,6;GERIATRÍA Y/O LARGA ESTANCIA;03:00;23:59;41,121429881;1,26386763500005;jmadsera@sv.ftecla.es;977239412
649;RESIDÈNCIA VILA-SECA;CR REQUET DE FÈLIX, 35;Vila-seca;TARRAGONA;43480;35;4219,6;GERIATRÍA Y/O LARGA ESTANCIA;03:00;23:59;41,1107766490001;1,14905827300004;mutuam@mutuam.com;977395825
650;UNITAT POLIVALENT EN SALUT MENTAL D'AMPOSTA;CR AMÈRICA, 15;Amposta;TARRAGONA;43870;127;15311,12;PSIQUIÁTRICO;03:00;23:59;40,70902148;0,575513937000039;fpmte@peremata.com;977338565
651;HOSPITAL DEL VENDRELL;CT N-340, 1193;Vendrell, El;TARRAGONA;43700;120;14467,2;GENERAL;03:00;23:59;41,2147722570001;1,54259810200006;;977257900
652;CENTRE SOCIOSANITARI I RESIDÈNCIA ASSISTIDA SALOU;AV PAU CASALS, 3;Salou;TARRAGONA;43840;30;3616,8;GERIATRÍA Y/O LARGA ESTANCIA;03:00;23:59;41,080495286;1,12731246800007;salouassistencial@stsgrup.org;977774705
653;RESIDÈNCIA SANTA TECLA PONENT;CR MENORCA, 26;Tarragona;TARRAGONA;43006;70;8439,2;GERIATRÍA Y/O LARGA ESTANCIA;03:00;23:59;41,1225480000001;1,21316154900006;megarcia@xarxatecla.cat;977540678
654;UNITAT DE REFERÈNCIA DE PSIQUIATRIA I TRASTORNS DE LA CONDUCTA ALIMENTÀRIA (URPI);AV JOSEP LAPORTE, 2;Reus;TARRAGONA;43204;20;2411,2;PSIQUIÁTRICO;03:00;23:59;41,1444277630001;1,12248864400004;imp@peremata.com;977338565
655;HOSPITAL OBISPO POLANCO;AVDA RUIZ JARABO S/N;Teruel;TERUEL;44002;215;25920,4;GENERAL;03:00;23:59;40,3330884750001;-1,10722956499995;buzgen.holp@salud.aragon.es;978654000
656;HOSPITAL SAN JOSÉ;AV. ZARAGOZA, 16;Teruel;TERUEL;44001;50;6028,0;GERIATRÍA Y/O LARGA ESTANCIA;03:00;23:59;40,3477209530001;-1,11537000199996;aestebanm@salud.aragon.es;978654070
657;CENTRO DE REHABILITACION PSICOSOCIAL SAN JUAN DE DIOS;AV. DE ZARAGOZA, 10;Teruel;TERUEL;44001;150;18084,0;PSIQUIÁTRICO;03:00;23:59;40,3453623940001;-1,11340111999994;hpsiquiteruel@aragon.es;978654040
658;HOSPITAL DE ALCAÑIZ;DR. REPOLLÉS, 2;Alcañiz;TERUEL;44600;131;15793,36;GENERAL;03:00;23:59;41,0451426230001;-0,129954064999936;pbono@salud.aragon.es;978830100
659;HOSPITAL NACIONAL DE PARAPLÉJICOS;FINCA LA PERALEDA, S/N;Toledo;TOLEDO;45071;210;25317,6;TRAUMATOLOGÍA Y/O REHABILITACIÓN;03:00;23:59;39,8750379950001;-4,05222087399994;gerencia.hnp@sescam.jccm.es;925247700
660;HOSPITAL GENERAL NUESTRA SEÑORA DEL PRADO;CARRETERA DE MADRID, KM. 114;Talavera de la Reina;TOLEDO;45600;312;37614,72;GENERAL;03:00;23:59;39,964855819;-4,80713812999994;gai.talavera@sescam.jccm.es;925803600
661;CLÍNICA MARAZUELA, S.A.;AVENIDA DE EXTREMADURA, 5;Talavera de la Reina;TOLEDO;45600;15;1808,4;GENERAL;03:00;23:59;39,9618314530001;-4,82505341899997;clinica@clinicamarazuela.com;925815281
662;COMPLEJO HOSPITALARIO DE TOLEDO;AVDA. DE BARBER, 30;Toledo;TOLEDO;45004;953;114893,68;GENERAL;03:00;23:59;39,870912908;-4,03527290999995;;925269200
663;HOSPITAL LABORAL SOLIMAT MUTUA COLABORADORA CON LA SS Nº 72;SAN PEDRO EL VERDE, 35;Toledo;TOLEDO;45004;10;1205,6;TRAUMATOLOGÍA Y/O REHABILITACIÓN;03:00;23:59;39,8684674960001;-4,04162993199998;anicolas@solimat.com;925215267
664;QUIRÓN SALUD TOLEDO;URBANIZACIÓN TRES CULTURAS, S/N;Toledo;TOLEDO;45005;80;9644,8;MÉDICO-QUIRÚRGICO;03:00;23:59;39,885210326;-4,04072302699996;información.toledo@quironsalud.es;925266100
665;"CENTRO DE TRAT. DE DROGODEP. ""EL ALBA""";CARRETERA TOLEDO-PUEBLA DE MONTALBÁN, KM. 3,500;Toledo;TOLEDO;45005;30;3616,8;OTRA FINALIDAD;03:00;23:59;39,89676;-4,04766436499995;cjbravo@sescam.jccm.es;925216154
666;HOSPITAL UNIVERSITARIO Y POLITÉCNICO LA FE;AVENIDA FERNANDO ABRIL MARTORELL, 106;Valencia;VALENCIA;46026;1000;120560,0;GENERAL;03:00;23:59;39,443455047;-0,376078595999957;gerencia_lafe@gva.es;961244000
667;HOSPITAL UNIVERSITARIO DR. PESET ALEIXANDRE;AVENIDA GASPAR AGUILAR, 90;Valencia;VALENCIA;46017;539;64981,84;GENERAL;03:00;23:59;39,453066984;-0,394411594999951;;961622300
668;HOSPITAL ARNAU DE VILANOVA;CALLE SAN CLEMENTE, 12;Valencia;VALENCIA;46015;302;36409,12;GENERAL;03:00;23:59;39,4908790040001;-0,403314879999925;documentalistas_arnau@gva.es;961976000
669;HOSPITAL CLÍNICO UNIVERSITARIO DE VALENCIA;AVENIDA BLASCO IBÁÑEZ, 17;Valencia;VALENCIA;46010;582;70165,92;GENERAL;03:00;23:59;39,4790025830001;-0,361464704999946;dirgerencia_hcv@gva.es;961973500
670;HOSPITAL DE LA MALVA-ROSA;CALLE ISABEL DE VILLENA, 2;Valencia;VALENCIA;46011;33;3978,48;QUIRÚRGICO;03:00;23:59;39,4771225960001;-0,330731441999944;mora_eri@gva.es;961925400
671;CONSORCIO HOSPITAL GENERAL UNIVERSITARIO DE VALENCIA;AVENIDA TRES CRUCES, 2;Valencia;VALENCIA;46014;546;65825,76;GENERAL;03:00;23:59;39,468675196;-0,406634263999933;calidad_hgv@gva.es;963131813
672;HOSPITAL CATÓLICO CASA DE SALUD;CALLE DOCTOR MANUEL CANDELA, 41;Valencia;VALENCIA;46021;192;23147,52;GENERAL;03:00;23:59;39,469445675;-0,349803595999958;casadesalud@casadesalud.es;963897700
673;HOSPITAL NISA VALENCIA AL MAR;CALLE RÍO TAJO, 1;Valencia;VALENCIA;46011;70;8439,2;GENERAL;03:00;23:59;39,476576504;-0,330232499999966;mar@hospitales.nisa.es;963352500
674;FUNDACIÓN INSTITUTO VALENCIANO DE ONCOLOGÍA;CALLE PROFESOR BELTRÁN BÁGUENA, 8;Valencia;VALENCIA;46009;160;19289,6;ONCOLÓGICO;03:00;23:59;39,4815734000001;-0,389795490999973;dirmedica@fivo.org;961114000
675;HOSPITAL VIRGEN DEL CONSUELO;CALLE CALLOSA D'EN SARRIÁ, 12;Valencia;VALENCIA;46007;156;18807,36;GENERAL;03:00;23:59;39,460729988;-0,386897221999959;cvconsuelo@hospitales.nisa.es;963177800
676;HOSPITAL QUIRÓN VALENCIA;AVENIDA BLASCO IBÁÑEZ, 14;Valencia;VALENCIA;46010;88;10609,28;GENERAL;03:00;23:59;39,478437221;-0,364192050999975;info.valencia@quironsalud.es;963690600
677;HOSPITAL PSIQUIÁTRICO PROVINCIAL;CARRETERA BURJASSOT - TORRES TORRES, KM 9;Bétera;VALENCIA;46117;80;9644,8;PSIQUIÁTRICO;03:00;23:59;39,6119600000001;-0,467657559999964;asun.blanco@dival.es;961699080
678;CASA DE REPOSO SAN ONOFRE;AVENIDA JOAN PESET, 31;Godella;VALENCIA;46110;76;9162,56;PSIQUIÁTRICO;03:00;23:59;39,5213136290001;-0,416059369999971;infosanonofre@gmail.com;963638036
679;HOSPITAL FRANCESC DE BORJA DE GANDIA;AVENIDA DE LA MEDICINA, 6;Gandia;VALENCIA;46702;285;34359,6;GENERAL;03:00;23:59;38,963128248;-0,169758535999961;;962849511
680;HOSPITAL LLUÍS ALCANYÍS DE XÀTIVA;CARRETERA XÀTIVA - SILLA, KM 2;Xàtiva;VALENCIA;46800;273;32912,88;GENERAL;03:00;23:59;39,0067034300001;-0,509550738999963;hxativa_saip@gva.es;962289300
681;HOSPITAL GENERAL DE ONTINYENT;AVENIDA DE FRANCISCO CERDÁ, 3;Ontinyent;VALENCIA;46870;56;6751,36;GENERAL;03:00;23:59;38,8200904170001;-0,602910244999975;udca_hont@gva.es;962989200
682;HOSPITAL INTERMUTUAL DE LEVANTE;CARRETERA VALENCIA - ADEMUZ, KM 11;San Antonio de Benagéber;VALENCIA;46184;230;27728,8;TRAUMATOLOGÍA Y/O REHABILITACIÓN;03:00;23:59;39,579516653;-0,538019401999975;direccionmedica@hilevante.com;961350250
683;HOSPITAL DE SAGUNTO;AV. RAMÓN Y CAJAL, S/N;Sagunto/Sagunt;VALENCIA;46520;252;30381,12;GENERAL;03:00;23:59;39,674395045;-0,231102444999976;dpsagunto_gerencia@gva.es;962339300
684;HOSPITAL DOCTOR MOLINER;PORTA COELI, S/N;Serra;VALENCIA;46118;179;21580,24;GERIATRÍA Y/O LARGA ESTANCIA;03:00;23:59;39,655907816;-0,474303941999949;secretaria_hmoliner@gva.es;961687900
685;HOSPITAL GENERAL DE REQUENA;CALLE CASABLANCA, S/N;Requena;VALENCIA;46340;113;13623,28;GENERAL;03:00;23:59;39,4883910090001;-1,08955556799998;martinez_dol@gva.es;962339180
686;HOSPITAL 9 DE OCTUBRE;CALLE VALLE DE LA BALLESTERA, 59;Valencia;VALENCIA;46015;300;36168,0;GENERAL;03:00;23:59;39,4784414850001;-0,401593279999929;9octubre@hospitales.nisa.es;963179100
687;CENTRO MÉDICO GANDIA;CALLE DAIMUS, 26 BAJO;Gandia;VALENCIA;46700;11;1326,16;GENERAL;03:00;23:59;38,972984061;-0,175930826999945;jrivera@centro-medico.com;962874740
688;HOSPITAL NISA AGUAS VIVAS;URBANIZACIÓN DE LA VALL D'AIGUES VIVES, S/N;Carcaixent;VALENCIA;46792;96;11573,76;GENERAL;03:00;23:59;39,0875191420001;-0,352931138999963;jgimenez@hospitales.nisa.es;962588800
689;CLINICA FONTANA;CALLE ALICANTE, 31;Valencia;VALENCIA;46004;7;843,92;QUIRÚRGICO;03:00;23:59;39,463684743;-0,377810083999975;fontana@clinicafontana.es;963410600
690;HOSPITAL UNIVERSITARIO DE LA RIBERA;CARRETERA DE CORBERA, KM 1;Alzira;VALENCIA;46600;301;36288,56;GENERAL;03:00;23:59;39,1599095500001;-0,416462138999975;direcciongerencia_laribera@gva.es;962458100
691;HOSPITAL PARE JOFRÉ;CALLE SAN LÁZARO, S/N;Valencia;VALENCIA;46017;125;15070,0;GERIATRÍA Y/O LARGA ESTANCIA;03:00;23:59;39,453066984;-0,394411594999951;secretariadireccion_hpj@gva.es;961925200
692;HOSPITAL DE MANISES;AVDA. GENERALITAT VALENCIANA, 50;Manises;VALENCIA;46940;354;42678,24;GENERAL;03:00;23:59;39,4855805330001;-0,452646362999928;direcciongerencia@hospitalmanises.es;961845000
693;HOSPITAL DE CRÓNICOS DE MISLATA (ANTIGUO HOSPITAL MILITAR DE VALENCIA);CALLE DOLORES IBARRURI 1;Mislata;VALENCIA;46920;115;13864,4;GERIATRÍA Y/O LARGA ESTANCIA;03:00;23:59;39,481101381;-0,423875095999961;direcciongerencia@hospitalmanises.es;963874693
694;HOSPITAL DE LLÍRIA;PARATGE CABEÇÒ DE L'AGUILA, CV 35, S/N;Llíria;VALENCIA;46160;90;10850,4;GENERAL;03:00;23:59;39,641293477;-0,619396725999934;direccion_arnaulliria@gva.es;962718800
695;IMED VALENCIA;CALLE FERROCARRIL, 57;Burjassot;VALENCIA;46100;207;24955,92;GENERAL;03:00;23:59;39,502613556;-0,406173280999951;valencia@imedhospitales.com;963003003
696;UNIDAD DE DESINTOXICACIÓN HOSPITALARIA;CARRETERA ALZIRA-TAVERNES DE V. CV50, KM 11;Carcaixent;VALENCIA;46740;16;1928,96;OTROS MONOGRÁFICOS;03:00;23:59;39,1010200000001;-0,421903004999933;azajrar@hotmail.com;962588800
697;HOSPITAL UNIVERSITARIO RIO HORTEGA;DULZAINA, 2;Valladolid;VALLADOLID;47012;606;73059,36;GENERAL;03:00;23:59;41,629521384;-4,71375620799995;gerente.hurh@saludcastillayleon.es;983420400
698;HOSPITAL CLÍNICO UNIVERSITARIO DE VALLADOLID;AV. RAMÓN Y CAJAL, 3;Valladolid;VALLADOLID;47003;777;93675,12;GENERAL;03:00;23:59;41,655910568;-4,71842656999996;gerente.hcuv@saludcastillayleon.es;983420000
699;SANATORIO SAGRADO CORAZÓN;FIDEL RECIO, 1;Valladolid;VALLADOLID;47002;75;9042,0;GENERAL;03:00;23:59;41,6496372010001;-4,72015610899996;rrhh@sscvalladolid.com;983299000
700;CENTRO HOSPITALARIO BENITO MENNI;Pº JUAN CARLOS I, 10;Valladolid;VALLADOLID;47008;240;28934,4;REHABILITACIÓN PSICOFÍSICA;03:00;23:59;41,6288686500001;-4,72325250199998;chbm@menni.com;983272600
701;HOSPITAL MEDINA DEL CAMPO;CALLE DE PEÑARANDA,  24;Medina del Campo;VALLADOLID;47400;119;14346,64;GENERAL;03:00;23:59;41,295496734;-4,91129865799996;gerente.hmdc@saludcastillayleon.es;983838000
702;HOSPITAL DE VALLADOLID FELIPE II;FELIPE II, 9;Valladolid;VALLADOLID;47003;79;9524,24;GENERAL;03:00;23:59;41,655273821;-4,72561809799993;sara.aguado@gruporecoletas.com;983358000
703;HOSPITAL CAMPO GRANDE;PLAZA DE COLÓN, S/N;Valladolid;VALLADOLID;47007;93;11212,08;GENERAL;03:00;23:59;41,6437393630001;-4,72784702199993;coordinacion.medica.hcg@gruporecoletas.com;983135555
704;HOSPITAL SANTA MARINA;CTRA. SANTA MARINA, 41;Bilbao;VIZCAYA;48004;245;29537,2;GERIATRÍA Y/O LARGA ESTANCIA;03:00;23:59;43,2623340230001;-2,88218375499997;hsm@osakidetza.eus;944006900
705;HOSPITAL INTERMUTUAL DE EUSKADI;FONTECHA Y SALAZAR, 6;Bilbao;VIZCAYA;48007;44;5304,64;GENERAL;03:00;23:59;43,2685338160001;-2,92751355199994;;944132380
706;CLÍNICA ERCILLA MUTUALIA;ERCILLA, 10;Bilbao;VIZCAYA;48009;23;2772,88;TRAUMATOLOGÍA Y/O REHABILITACIÓN;03:00;23:59;43,2648351300001;-2,93108424599995;Marijuan@mutualia.es;944252500
707;HOSPITAL CRUZ ROJA DE BILBAO;ALAMEDA DE URQUIJO, 65;Bilbao;VIZCAYA;48013;68;8198,08;GENERAL;03:00;23:59;43,261296832;-2,94211652799993;i.idigoras@hospitalcruzroja.biz;944434792
708;SANATORIO BILBAÍNO;GORDONIZ, 18;Bilbao;VIZCAYA;48010;40;4822,4;GENERAL;03:00;23:59;43,258310486;-2,94059068699994;sanatoriobilbaino@siervasdejesus.com;944430150
709;HOSPITAL DE BASURTO;AV. MONTEVIDEO, 18;Bilbao;VIZCAYA;48013;733;88370,48;GENERAL;03:00;23:59;43,2616740120001;-2,95337934699995;;944006000
710;IMQ CLÍNICA VIRGEN BLANCA;MAESTRO MENDIRI, 2;Bilbao;VIZCAYA;48006;74;8921,44;GENERAL;03:00;23:59;43,2582684830001;-2,91525957799996;direccion@clinica.imq.com;944127011
711;CLÍNICA GUIMON S.A.;MANUEL ALLENDE, 24;Bilbao;VIZCAYA;48010;47;5666,32;GENERAL;03:00;23:59;43,2588825890001;-2,94212864399998;contabilidad@clinicaguimon.net;944215200
712;CLÍNICA INDAUTXU;GORDONIZ, 9;Bilbao;VIZCAYA;48010;30;3616,8;GENERAL;03:00;23:59;43,2593007070001;-2,93909319399995;clinicaindautxu@clinicaindautxu.com;944445012
713;HOSPITAL UNIVERSITARIO DE CRUCES;PZA DE CRUCES, 12;Barakaldo;VIZCAYA;48903;912;109950,72;GENERAL;03:00;23:59;43,2825671410001;-2,98431967599993;Gerencia.Cruces@osakidetza.eus;946006000
714;OSI BARAKALDO-SESTAO;AV. ANTONIO MIRANDA, 5;Barakaldo;VIZCAYA;48902;128;15431,68;GENERAL;03:00;23:59;43,2967111510001;-2,99355899499994;G31265.DireccionSanEloy@osakidetza.eus;944006700
715;RED DE SALUD MENTAL DE BIZKAIA (HOSPITAL DE BERMEO);TOMPOI BIDEA, S/N;Bermeo;VIZCAYA;48370;131;15793,36;PSIQUIÁTRICO;03:00;23:59;43,4221844890001;-2,72155318399996;MARIAISABEL.AQUESOLOUGALDE@osakidetza.eus;946029000
716;HOSPITAL GALDAKAO-USANSOLO;BARRIO LABEAGA, 46A;Galdakao;VIZCAYA;48960;464;55939,84;GENERAL;03:00;23:59;43,2235370540001;-2,81793842899998;OSI.BARRUALDE-GALDAKAO@osakidetza.eus;944007000
717;HOSPITAL GORLIZ;UREZARANTZA IBILTOKIA, 1;Gorliz;VIZCAYA;48630;149;17963,44;REHABILITACIÓN PSICOFÍSICA;03:00;23:59;43,417397851;-2,94321832799994;merche.lecumberriayarza@osakidetza.eus;944006600
718;HOSPITAL SAN JUAN DE DIOS;AV. CRISTÓBAL MURRIETA, 70;Santurtzi;VIZCAYA;48980;105;12658,8;GENERAL;03:00;23:59;43,3277265030001;-3,02853455899998;santurce.secretaria@hsjd.es;944939900
719;RED DE SALUD MENTAL DE BIZKAIA (HOSPITAL DE ZALDIBAR);AV. DE BILBAO, S/N;Zaldibar;VIZCAYA;48250;111;13382,16;PSIQUIÁTRICO;03:00;23:59;43,1684560050001;-2,54973975299993;MARIAISABEL.AQUESOLUAGALDE@osakidetza.eus;946032800
720;RED DE SALUD MENTAL DE BIZKAIA (HOSPITAL DE ZAMUDIO);ARTEAGA AUZOA, 45;Zamudio;VIZCAYA;48170;126;15190,56;PSIQUIÁTRICO;03:00;23:59;43,289155823;-2,85654224499996;MARIAISABEL.AQUESOLOUGALDE@osakidetza.eus;944006500
721;AVANCES MÉDICOS S.A;AV.  MURRIETA, 70;Santurtzi;VIZCAYA;48980;24;2893,44;PSIQUIÁTRICO;03:00;23:59;43,325458026;-3,02471093099996;koldogu@avancesmedicos.es;902407071
722;HOSPITAL QUIRONSALUD BIZKAIA;CARRETERA LEIOA-UNBE, 33 BIS;Erandio;VIZCAYA;48950;110;13261,6;GENERAL;03:00;23:59;43,3298915920001;-2,95914647899997;direccion.bil@quironsalud.es;902445595
723;CLÍNICA IMQ  ZORROTZAURRE;BALLETS OLAETA, 4;Bilbao;VIZCAYA;48014;175;21098,0;GENERAL;03:00;23:59;43,267537362;-2,95204767699994;;944755000
724;HOSPITAL URDULIZ OSPITALEA;GOIETA KALEA Nº 32;Urduliz;VIZCAYA;48610;128;15431,68;GENERAL;03:00;23:59;43,3751794780001;-2,95988686699997;secretaria.direccionuribe@osakidetza.eus;946007005
725;COMPLEJO ASISTENCIAL DE ZAMORA;AVDA. REQUEJO, 35;Zamora;ZAMORA;49022;540;65102,4;GENERAL;03:00;23:59;41,51651594;-5,72912216299994;gerente.hvcn@saludcastillayleon.es;980548200
726;HOSPITAL RECOLETAS DE ZAMORA;PINAR, 7;Zamora;ZAMORA;49023;44;5304,64;GENERAL;03:00;23:59;41,5168182400001;-5,74636531399995;oscar.iglesias@gruporecoletas.com;980545300
727;HOSPITAL CLÍNICO UNIVERSITARIO LOZANO BLESA;SAN JUAN BOSCO, 15;Zaragoza;ZARAGOZA;50009;807;97291,92;GENERAL;03:00;23:59;41,6432785490001;-0,903354246999925;gere.hcu@salud.aragon.es;976765700
728;HOSPITAL UNIVERSITARIO MIGUEL SERVET;Pº DE ISABEL LA CATÓLICA, 1-3;Zaragoza;ZARAGOZA;50009;1213;146239,28;GENERAL;03:00;23:59;41,6346358050001;-0,899733539999943;sector2@salud.aragon.es;976765500
729;HOSPITAL ROYO VILLANOVA;AV. SAN GREGORIO, 30;Zaragoza;ZARAGOZA;50015;254;30622,24;GENERAL;03:00;23:59;41,6922911460001;-0,860759048999967;direccion.hrv@salud.aragon.es;976466910
730;CENTRO DE REHABILITACION PSICOSOCIAL NUESTRA SEÑORA DEL PILAR;DUQUESA DE VILLAHERMOSA, 66-68;Zaragoza;ZARAGOZA;50009;172;20736,32;PSIQUIÁTRICO;03:00;23:59;41,647196007;-0,909181559999979;administracion.crp@aragon.es;976331500
731;HOSPITAL  NUESTRA SEÑORA DE GRACIA;RAMÓN Y CAJAL, 60;Zaragoza;ZARAGOZA;50004;151;18204,56;GENERAL;03:00;23:59;41,652139017;-0,887560558999951;jmarnal@salud.aragon.es;976440022
732;HOSPITAL MAZ;AV. DE LA ACADEMIA GENERAL MILITAR, 74;Zaragoza;ZARAGOZA;50015;107;12899,92;GENERAL;03:00;23:59;41,6836227040001;-0,870724203999941;maz@maz.es;976748000
733;CLÍNICA MONTPELIER GRUPO HLA, S.A.U;VÍA HISPANIDAD, 37;Zaragoza;ZARAGOZA;50012;90;10850,4;GENERAL;03:00;23:59;41,6359550010001;-0,912675749999948;paula.garza@grupohla.com;976765400
734;CENTRO NEUROPSIQUIÁTRICO NUESTRA SEÑORA DEL CARMEN;CAMINO DEL ABEJAR, Nº 100 (GARRAPINILLOS);Zaragoza;ZARAGOZA;50190;277;33395,12;PSIQUIÁTRICO;03:00;23:59;41,6770260280001;-0,985808886999962;gerencia@neuronscarmen.org;976770635
735;HOSPITAL SAN JUAN DE DIOS;Pº DE COLÓN, 14;Zaragoza;ZARAGOZA;50006;184;22183,04;GERIATRÍA Y/O LARGA ESTANCIA;03:00;23:59;41,6337314450001;-0,888077791999933;secretaria.dirzar@ohsjd.es;976271660
736;HOSPITAL QUIRONSALUD ZARAGOZA;Pº MARIANO RENOVALES, S/N;Zaragoza;ZARAGOZA;50006;104;12538,24;GENERAL;03:00;23:59;41,6366749900001;-0,894323457999974;;976720000
737;CLÍNICA NUESTRA SEÑORA DEL PILAR;Pº DE RUISEÑORES, 20;Zaragoza;ZARAGOZA;50006;34;4099,04;GENERAL;03:00;23:59;41,637113948;-0,888723742999957;dirgestion@clinicansdelpilar.com;976275700
738;HOSPITAL GENERAL DE LA DEFENSA DE ZARAGOZA;VÍA IBÉRICA, 1-15;Zaragoza;ZARAGOZA;50009;200;24112,0;GENERAL;03:00;23:59;41,6309951110001;-0,905766574999973;setec_hgdz@oc.mde.es;976305000
739;HOSPITAL ERNEST LLUCH MARTIN;CTRA. DE SAGUNTO-BURGOS, KM. 254;Calatayud;ZARAGOZA;50300;122;14708,32;GENERAL;03:00;23:59;41,3358791260001;-1,64593853599996;;976880964
740;UNIDAD DE REHABILITACION DE LARGA ESTANCIA;CTRA. DE SOS, S/N;Sádaba;ZARAGOZA;50670;45;5425,2;PSIQUIÁTRICO;03:00;23:59;42,2857116530001;-1,27441607499998;;976675479
741;UNIDAD REHABILITADORA DE MEDIA ESTANCIA PROFESOR REY ARDID;CAMINO VIEJO DE ALFOCEA,10 JUSLIBOL;Zaragoza;ZARAGOZA;50191;39;4701,84;PSIQUIÁTRICO;03:00;23:59;41,688879661;-0,888974665999967;rjuslibol@reyardid.org;976731000
742;HOSPITAL DE REHABILITACION PSIQUIATRICA PRISMA;TORRE DEL CEREZO, Nº 17 Bº. DE SAN JUAN DE MOZARRIFAR;Zaragoza;ZARAGOZA;50820;50;6028,0;PSIQUIÁTRICO;03:00;23:59;41,71144945;-0,841289999999958;administracion@hospitalprisma.com;976151152
743;CENTRO SANITARIO CINCO VILLAS;ANTONIO MACHADO, S/N;Ejea de los Caballeros;ZARAGOZA;50600;32;3857,92;OTRA FINALIDAD;03:00;23:59;42,126720984;-1,12529001499996;;976677978
744;HOSPITAL VIAMED MONTECANAL;C/ FRANZ SCHUBERT, 2;Zaragoza;ZARAGOZA;50012;68;8198,08;GENERAL;03:00;23:59;41,6390417920001;-0,948738132999949;admi@viamedmontecanal.com;876241818
